PostalCode,Longitude,Latitude,State2,State,City,County,Region,Area,TimeZone
00501,-73.0456,40.8154,NY,New York,HOLTSVILLE,SUFFOLK,Northeast,New York-Newark-Jersey City NY-NJ-PA,5
00544,-73.0456,40.8154,NY,New York,HOLTSVILLE,SUFFOLK,Northeast,New York-Newark-Jersey City NY-NJ-PA,5
00935,-66.1061,18.4683,PR,Puerto Rico,SAN JUAN,SAN JUAN,,San Juan-Carolina-Caguas PR,4
00939,-66.1061,18.4683,PR,Puerto Rico,SAN JUAN,SAN JUAN,,San Juan-Carolina-Caguas PR,4
00975,-66.1064,18.4683,PR,Puerto Rico,SAN JUAN,SAN JUAN,,San Juan-Carolina-Caguas PR,4
01063,-72.637674,42.31822,MA,Massachusetts,NORTHAMPTON,HAMPSHIRE,Northeast,Springfield MA,5
01111,-72.5905,42.1015,MA,Massachusetts,SPRINGFIELD,HAMPDEN,Northeast,Springfield MA,5
01199,-72.5905,42.1015,MA,Massachusetts,SPRINGFIELD,HAMPDEN,Northeast,Springfield MA,5
01263,-73.3208,42.2878,MA,Massachusetts,STOCKBRIDGE,BERKSHIRE,Northeast,Pittsfield MA,5
01441,-71.9988,42.575,MA,Massachusetts,WESTMINSTER,WORCESTER,Northeast,Worcester MA-CT,5
01470,-71.5752,42.6112,MA,Massachusetts,GROTON,MIDDLESEX,Northeast,Boston-Cambridge-Newton MA-NH,5
01471,-71.5752,42.6112,MA,Massachusetts,GROTON,MIDDLESEX,Northeast,Boston-Cambridge-Newton MA-NH,5
01546,-71.7134,42.2959,MA,Massachusetts,SHREWSBURY,WORCESTER,Northeast,Worcester MA-CT,5
01653,-71.8028,42.2627,MA,Massachusetts,WORCESTER,WORCESTER,Northeast,Worcester MA-CT,5
01654,-71.8028,42.2627,MA,Massachusetts,WORCESTER,WORCESTER,Northeast,Worcester MA-CT,5
01805,-71.1964,42.5044,MA,Massachusetts,BURLINGTON,MIDDLESEX,Northeast,Boston-Cambridge-Newton MA-NH,5
01812,-71.1377,42.6585,MA,Massachusetts,ANDOVER,ESSEX,Northeast,Boston-Cambridge-Newton MA-NH,5
01813,-71.1526,42.4793,MA,Massachusetts,WOBURN,MIDDLESEX,Northeast,Boston-Cambridge-Newton MA-NH,5
01815,-71.1526,42.4793,MA,Massachusetts,WOBURN,MIDDLESEX,Northeast,Boston-Cambridge-Newton MA-NH,5
01889,-71.0788,42.5763,MA,Massachusetts,NORTH READING,MIDDLESEX,Northeast,Boston-Cambridge-Newton MA-NH,5
01899,-71.1375,42.6586,MA,Massachusetts,ANDOVER,ESSEX,Northeast,Boston-Cambridge-Newton MA-NH,5
01910,-70.9503,42.4667,MA,Massachusetts,LYNN,ESSEX,Northeast,Boston-Cambridge-Newton MA-NH,5
02044,-70.8789,42.2039,MA,Massachusetts,HINGHAM,PLYMOUTH,Northeast,Boston-Cambridge-Newton MA-NH,5
02201,-71.0603,42.3586,MA,Massachusetts,BOSTON,SUFFOLK,Northeast,Boston-Cambridge-Newton MA-NH,5
02204,-71.0603,42.3586,MA,Massachusetts,BOSTON,SUFFOLK,Northeast,Boston-Cambridge-Newton MA-NH,5
02206,-71.0603,42.3586,MA,Massachusetts,BOSTON,SUFFOLK,Northeast,Boston-Cambridge-Newton MA-NH,5
02211,-71.0603,42.3586,MA,Massachusetts,BOSTON,SUFFOLK,Northeast,Boston-Cambridge-Newton MA-NH,5
02212,-71.0176,42.3362,MA,Massachusetts,BOSTON,SUFFOLK,Northeast,Boston-Cambridge-Newton MA-NH,5
02217,-71.0603,42.3586,MA,Massachusetts,BOSTON,SUFFOLK,Northeast,Boston-Cambridge-Newton MA-NH,5
02241,-71.0603,42.3586,MA,Massachusetts,BOSTON,SUFFOLK,Northeast,Boston-Cambridge-Newton MA-NH,5
02266,-71.0603,42.3586,MA,Massachusetts,BOSTON,SUFFOLK,Northeast,Boston-Cambridge-Newton MA-NH,5
02293,-71.0603,42.3586,MA,Massachusetts,BOSTON,SUFFOLK,Northeast,Boston-Cambridge-Newton MA-NH,5
02297,-71.0603,42.3586,MA,Massachusetts,BOSTON,SUFFOLK,Northeast,Boston-Cambridge-Newton MA-NH,5
02325,-70.9631,41.99013,MA,Massachusetts,BRIDGEWATER,PLYMOUTH,Northeast,Boston-Cambridge-Newton MA-NH,5
02340,-70.8564,42.1223,MA,Massachusetts,HANOVER,PLYMOUTH,Northeast,Boston-Cambridge-Newton MA-NH,5
02344,-70.9117,41.8934,MA,Massachusetts,MIDDLEBORO,PLYMOUTH,Northeast,Boston-Cambridge-Newton MA-NH,5
02348,-70.9117,41.8934,MA,Massachusetts,LAKEVILLE,PLYMOUTH,Northeast,Boston-Cambridge-Newton MA-NH,5
02349,-70.9117,41.8934,MA,Massachusetts,MIDDLEBORO,PLYMOUTH,Northeast,Boston-Cambridge-Newton MA-NH,5
02357,-71.07937,42.059326,MA,Massachusetts,NORTH EASTON,BRISTOL,Northeast,Providence-Warwick RI-MA,5
02477,-71.1833,42.3708,MA,Massachusetts,WATERTOWN,MIDDLESEX,Northeast,Boston-Cambridge-Newton MA-NH,5
02783,-71.1056,41.9058,MA,Massachusetts,TAUNTON,BRISTOL,Northeast,Providence-Warwick RI-MA,5
02902,-71.4133,41.8238,RI,Rhode Island,PROVIDENCE,PROVIDENCE,Northeast,Providence-Warwick RI-MA,5
02912,-71.402502,41.826254,RI,Rhode Island,PROVIDENCE,PROVIDENCE,Northeast,Providence-Warwick RI-MA,5
02918,-71.434916,41.844266,RI,Rhode Island,PROVIDENCE,PROVIDENCE,Northeast,Providence-Warwick RI-MA,5
03107,-71.4556,42.9956,NH,New Hampshire,MANCHESTER,HILLSBOROUGH,Northeast,Manchester-Nashua NH,5
03111,-71.4556,42.9956,NH,New Hampshire,MANCHESTER,HILLSBOROUGH,Northeast,Manchester-Nashua NH,5
03298,-71.4937,43.629,NH,New Hampshire,TILTON,BELKNAP,Northeast,Laconia NH,5
03299,-71.4937,43.629,NH,New Hampshire,TILTON,BELKNAP,Northeast,Laconia NH,5
03305,-71.5381,43.2084,NH,New Hampshire,CONCORD,MERRIMACK,Northeast,Concord NH,5
03435,-72.2794,42.9337,NH,New Hampshire,KEENE,CHESHIRE,Northeast,Keene NH,5
03803,-70.7632,43.0719,NH,New Hampshire,PORTSMOUTH,ROCKINGHAM,Northeast,Boston-Cambridge-Newton MA-NH,5
03822,-70.8745,43.1979,NH,New Hampshire,DOVER,STRAFFORD,Northeast,Boston-Cambridge-Newton MA-NH,5
04033,-70.1037,43.8569,ME,Maine,FREEPORT,CUMBERLAND,Northeast,Portland-South Portland ME,5
04034,-70.1037,43.8569,ME,Maine,FREEPORT,CUMBERLAND,Northeast,Portland-South Portland ME,5
04122,-70.2555,43.6615,ME,Maine,PORTLAND,CUMBERLAND,Northeast,Portland-South Portland ME,5
04123,-70.2555,43.6615,ME,Maine,PORTLAND,CUMBERLAND,Northeast,Portland-South Portland ME,5
04124,-70.2555,43.6615,ME,Maine,PORTLAND,CUMBERLAND,Northeast,Portland-South Portland ME,5
04333,-69.782301,44.306762,ME,Maine,AUGUSTA,KENNEBEC,Northeast,Augusta-Waterville ME,5
04336,-69.7803,44.3108,ME,Maine,AUGUSTA,KENNEBEC,Northeast,Augusta-Waterville ME,5
04420,-68.8003,44.3879,ME,Maine,CASTINE,HANCOCK,Northeast,,5
04469,-68.668137,44.90172,ME,Maine,ORONO,PENOBSCOT,Northeast,Bangor ME,5
04751,-67.886698,46.959914,ME,Maine,LIMESTONE,AROOSTOOK,Northeast,,5
05009,-72.3194,43.6487,VT,Vermont,WHITE RIVER JUNCTION,WINDSOR,Northeast,Claremont-Lebanon NH-VT,5
05405,-73.195632,44.47761,VT,Vermont,BURLINGTON,CHITTENDEN,Northeast,Burlington-South Burlington VT,5
05439,-73.1485,44.5437,VT,Vermont,COLCHESTER,CHITTENDEN,Northeast,Burlington-South Burlington VT,5
05479,-73.0836,44.8106,VT,Vermont,SAINT ALBANS,FRANKLIN,Northeast,Burlington-South Burlington VT,5
05501,-71.1838,42.6495,MA,Massachusetts,ANDOVER,ESSEX,Northeast,Boston-Cambridge-Newton MA-NH,5
05544,-71.1377,42.6586,MA,Massachusetts,ANDOVER,ESSEX,Northeast,Boston-Cambridge-Newton MA-NH,5
05603,-72.5759,44.2601,VT,Vermont,MONTPELIER,WASHINGTON,Northeast,Barre VT,5
05604,-72.5759,44.2601,VT,Vermont,MONTPELIER,WASHINGTON,Northeast,Barre VT,5
05609,-72.5759,44.2601,VT,Vermont,MONTPELIER,WASHINGTON,Northeast,Barre VT,5
05620,-72.5759,44.2601,VT,Vermont,MONTPELIER,WASHINGTON,Northeast,Barre VT,5
05633,-72.5759,44.2601,VT,Vermont,MONTPELIER,WASHINGTON,Northeast,Barre VT,5
05671,-72.7564,44.3379,VT,Vermont,WATERBURY,WASHINGTON,Northeast,Barre VT,5
06006,-72.6443,41.8525,CT,Connecticut,WINDSOR,HARTFORD,Northeast,Hartford-West Hartford-East Hartford CT,5
06030,-72.8326,41.7197,CT,Connecticut,FARMINGTON,HARTFORD,Northeast,Hartford-West Hartford-East Hartford CT,5
06041,-72.5219,41.7759,CT,Connecticut,MANCHESTER,HARTFORD,Northeast,Hartford-West Hartford-East Hartford CT,5
06080,-72.6423,41.9856,CT,Connecticut,SUFFIELD,HARTFORD,Northeast,Hartford-West Hartford-East Hartford CT,5
06087,-72.8869,41.7576,CT,Connecticut,UNIONVILLE,HARTFORD,Northeast,Hartford-West Hartford-East Hartford CT,5
06150,-72.6859,41.7638,CT,Connecticut,HARTFORD,HARTFORD,Northeast,Hartford-West Hartford-East Hartford CT,5
06151,-72.6859,41.7638,CT,Connecticut,HARTFORD,HARTFORD,Northeast,Hartford-West Hartford-East Hartford CT,5
06153,-72.6859,41.7638,CT,Connecticut,HARTFORD,HARTFORD,Northeast,Hartford-West Hartford-East Hartford CT,5
06154,-72.6859,41.7638,CT,Connecticut,HARTFORD,HARTFORD,Northeast,Hartford-West Hartford-East Hartford CT,5
06155,-72.6859,41.7638,CT,Connecticut,HARTFORD,HARTFORD,Northeast,Hartford-West Hartford-East Hartford CT,5
06156,-72.6859,41.7638,CT,Connecticut,HARTFORD,HARTFORD,Northeast,Hartford-West Hartford-East Hartford CT,5
06160,-72.6859,41.7638,CT,Connecticut,HARTFORD,HARTFORD,Northeast,Hartford-West Hartford-East Hartford CT,5
06161,-72.6859,41.7638,CT,Connecticut,HARTFORD,HARTFORD,Northeast,Hartford-West Hartford-East Hartford CT,5
06167,-72.6859,41.7638,CT,Connecticut,HARTFORD,HARTFORD,Northeast,Hartford-West Hartford-East Hartford CT,5
06176,-72.6859,41.7638,CT,Connecticut,HARTFORD,HARTFORD,Northeast,Hartford-West Hartford-East Hartford CT,5
06180,-72.6859,41.7638,CT,Connecticut,HARTFORD,HARTFORD,Northeast,Hartford-West Hartford-East Hartford CT,5
06183,-72.6798,41.7639,CT,Connecticut,HARTFORD,HARTFORD,Northeast,Hartford-West Hartford-East Hartford CT,5
06269,-72.251674,41.807038,CT,Connecticut,STORRS MANSFIELD,TOLLAND,Northeast,Hartford-West Hartford-East Hartford CT,5
06408,-72.9011,41.4989,CT,Connecticut,CHESHIRE,NEW HAVEN,Northeast,New Haven-Milford CT,5
06411,-72.9011,41.4989,CT,Connecticut,CHESHIRE,NEW HAVEN,Northeast,New Haven-Milford CT,5
06459,-72.65569,41.556473,CT,Connecticut,MIDDLETOWN,MIDDLESEX,Northeast,Hartford-West Hartford-East Hartford CT,5
06493,-72.8185,41.4539,CT,Connecticut,WALLINGFORD,NEW HAVEN,Northeast,New Haven-Milford CT,5
06494,-72.8238,41.4569,CT,Connecticut,WALLINGFORD,NEW HAVEN,Northeast,New Haven-Milford CT,5
06495,-72.8041,41.4588,CT,Connecticut,WALLINGFORD,NEW HAVEN,Northeast,New Haven-Milford CT,5
06537,-72.9287,41.3083,CT,Connecticut,NEW HAVEN,NEW HAVEN,Northeast,New Haven-Milford CT,5
06538,-72.9287,41.3083,CT,Connecticut,NEW HAVEN,NEW HAVEN,Northeast,New Haven-Milford CT,5
06540,-72.9287,41.3083,CT,Connecticut,NEW HAVEN,NEW HAVEN,Northeast,New Haven-Milford CT,5
06673,-73.2054,41.1667,CT,Connecticut,BRIDGEPORT,FAIRFIELD,Northeast,Bridgeport-Stamford-Norwalk CT,5
06699,-73.2054,41.1667,CT,Connecticut,BRIDGEPORT,FAIRFIELD,Northeast,Bridgeport-Stamford-Norwalk CT,5
06701,-73.0516,41.5584,CT,Connecticut,WATERBURY,NEW HAVEN,Northeast,New Haven-Milford CT,5
06749,-73.0516,41.5584,CT,Connecticut,WATERBURY,NEW HAVEN,Northeast,New Haven-Milford CT,5
06792,-73.06,41.77,CT,Connecticut,TORRINGTON,LITCHFIELD,Northeast,Torrington CT,5
06814,-73.4544,41.3948,CT,Connecticut,DANBURY,FAIRFIELD,Northeast,Bridgeport-Stamford-Norwalk CT,5
06816,-73.4544,41.3948,CT,Connecticut,DANBURY,FAIRFIELD,Northeast,Bridgeport-Stamford-Norwalk CT,5
06817,-73.4544,41.3948,CT,Connecticut,DANBURY,FAIRFIELD,Northeast,Bridgeport-Stamford-Norwalk CT,5
06828,-73.250735,41.221616,CT,Connecticut,FAIRFIELD,FAIRFIELD,Northeast,Bridgeport-Stamford-Norwalk CT,5
06857,-73.4086,41.1176,CT,Connecticut,NORWALK,FAIRFIELD,Northeast,Bridgeport-Stamford-Norwalk CT,5
06858,-73.4086,41.1176,CT,Connecticut,NORWALK,FAIRFIELD,Northeast,Bridgeport-Stamford-Norwalk CT,5
06860,-73.4086,41.1176,CT,Connecticut,NORWALK,FAIRFIELD,Northeast,Bridgeport-Stamford-Norwalk CT,5
06879,-73.4989,41.2815,CT,Connecticut,RIDGEFIELD,FAIRFIELD,Northeast,Bridgeport-Stamford-Norwalk CT,5
06888,-73.3585,41.1417,CT,Connecticut,WESTPORT,FAIRFIELD,Northeast,Bridgeport-Stamford-Norwalk CT,5
06889,-73.3585,41.1417,CT,Connecticut,WESTPORT,FAIRFIELD,Northeast,Bridgeport-Stamford-Norwalk CT,5
06913,-73.5394,41.0535,CT,Connecticut,STAMFORD,FAIRFIELD,Northeast,Bridgeport-Stamford-Norwalk CT,5
06914,-73.5394,41.0535,CT,Connecticut,STAMFORD,FAIRFIELD,Northeast,Bridgeport-Stamford-Norwalk CT,5
06920,-73.5394,41.0535,CT,Connecticut,STAMFORD,FAIRFIELD,Northeast,Bridgeport-Stamford-Norwalk CT,5
06921,-73.5394,41.0535,CT,Connecticut,STAMFORD,FAIRFIELD,Northeast,Bridgeport-Stamford-Norwalk CT,5
06922,-73.5394,41.0535,CT,Connecticut,STAMFORD,FAIRFIELD,Northeast,Bridgeport-Stamford-Norwalk CT,5
06926,-73.5394,41.0535,CT,Connecticut,STAMFORD,FAIRFIELD,Northeast,Bridgeport-Stamford-Norwalk CT,5
06927,-73.5394,41.0535,CT,Connecticut,STAMFORD,FAIRFIELD,Northeast,Bridgeport-Stamford-Norwalk CT,5
07097,-74.0775,40.7286,NJ,New Jersey,JERSEY CITY,HUDSON,Northeast,New York-Newark-Jersey City NY-NJ-PA,5
07099,-74.1443,40.7683,NJ,New Jersey,KEARNY,HUDSON,Northeast,New York-Newark-Jersey City NY-NJ-PA,5
07175,-74.1732,40.7325,NJ,New Jersey,NEWARK,ESSEX,Northeast,New York-Newark-Jersey City NY-NJ-PA,5
07184,-74.1725,40.7357,NJ,New Jersey,NEWARK,ESSEX,Northeast,New York-Newark-Jersey City NY-NJ-PA,5
07188,-74.1725,40.7357,NJ,New Jersey,NEWARK,ESSEX,Northeast,New York-Newark-Jersey City NY-NJ-PA,5
07189,-74.1725,40.7357,NJ,New Jersey,NEWARK,ESSEX,Northeast,New York-Newark-Jersey City NY-NJ-PA,5
07191,-74.1725,40.7357,NJ,New Jersey,NEWARK,ESSEX,Northeast,New York-Newark-Jersey City NY-NJ-PA,5
07192,-74.1725,40.7357,NJ,New Jersey,NEWARK,ESSEX,Northeast,New York-Newark-Jersey City NY-NJ-PA,5
07193,-74.1725,40.7357,NJ,New Jersey,NEWARK,ESSEX,Northeast,New York-Newark-Jersey City NY-NJ-PA,5
07195,-74.1725,40.7357,NJ,New Jersey,NEWARK,ESSEX,Northeast,New York-Newark-Jersey City NY-NJ-PA,5
07198,-74.1725,40.7357,NJ,New Jersey,NEWARK,ESSEX,Northeast,New York-Newark-Jersey City NY-NJ-PA,5
07199,-74.1725,40.7357,NJ,New Jersey,NEWARK,ESSEX,Northeast,New York-Newark-Jersey City NY-NJ-PA,5
07395,-74.08,40.73,NJ,New Jersey,JERSEY CITY,HUDSON,Northeast,New York-Newark-Jersey City NY-NJ-PA,5
07399,-74.0784,40.7282,NJ,New Jersey,JERSEY CITY,HUDSON,Northeast,New York-Newark-Jersey City NY-NJ-PA,5
07699,-74.068545,40.853393,NJ,New Jersey,TETERBORO,BERGEN,Northeast,New York-Newark-Jersey City NY-NJ-PA,5
07709,-74.0013,40.2362,NJ,New Jersey,RED BANK,MONMOUTH,Northeast,New York-Newark-Jersey City NY-NJ-PA,5
07715,-74.0222,40.1783,NJ,New Jersey,BELMAR,MONMOUTH,Northeast,New York-Newark-Jersey City NY-NJ-PA,5
07890,-74.7528,41.1464,NJ,New Jersey,BRANCHVILLE,SUSSEX,Northeast,New York-Newark-Jersey City NY-NJ-PA,5
08405,-74.4236,39.3645,NJ,New Jersey,ATLANTIC CITY,ATLANTIC,Northeast,Atlantic City-Hammonton NJ,5
08541,-74.6597,40.3486,NJ,New Jersey,PRINCETON,MERCER,Northeast,Trenton NJ,5
08544,-74.655018,40.344272,NJ,New Jersey,PRINCETON,MERCER,Northeast,Trenton NJ,5
08645,-74.7433,40.2167,NJ,New Jersey,TRENTON,MERCER,Northeast,Trenton NJ,5
08646,-74.7433,40.2167,NJ,New Jersey,TRENTON,MERCER,Northeast,Trenton NJ,5
08647,-74.7433,40.2167,NJ,New Jersey,TRENTON,MERCER,Northeast,Trenton NJ,5
08666,-74.7433,40.2167,NJ,New Jersey,TRENTON,MERCER,Northeast,Trenton NJ,5
08695,-74.7433,40.2167,NJ,New Jersey,TRENTON,MERCER,Northeast,Trenton NJ,5
08933,-74.4525,40.4863,NJ,New Jersey,NEW BRUNSWICK,MIDDLESEX,Northeast,New York-Newark-Jersey City NY-NJ-PA,5
08989,-74.4525,40.4863,NJ,New Jersey,NEW BRUNSWICK,MIDDLESEX,Northeast,New York-Newark-Jersey City NY-NJ-PA,5
10043,-74.0067,40.7143,NY,New York,NEW YORK,NEW YORK,Northeast,New York-Newark-Jersey City NY-NJ-PA,5
10080,-74.0067,40.7143,NY,New York,NEW YORK,NEW YORK,Northeast,New York-Newark-Jersey City NY-NJ-PA,5
10081,-74.0067,40.7143,NY,New York,NEW YORK,NEW YORK,Northeast,New York-Newark-Jersey City NY-NJ-PA,5
10087,-74.0067,40.7143,NY,New York,NEW YORK,NEW YORK,Northeast,New York-Newark-Jersey City NY-NJ-PA,5
10102,-74.0067,40.7143,NY,New York,NEW YORK,NEW YORK,Northeast,New York-Newark-Jersey City NY-NJ-PA,5
10109,-74.0067,40.7143,NY,New York,NEW YORK,NEW YORK,Northeast,New York-Newark-Jersey City NY-NJ-PA,5
10114,-74.0067,40.7143,NY,New York,NEW YORK,NEW YORK,Northeast,New York-Newark-Jersey City NY-NJ-PA,5
10117,-74.0067,40.7143,NY,New York,NEW YORK,NEW YORK,Northeast,New York-Newark-Jersey City NY-NJ-PA,5
10124,-74.0067,40.7143,NY,New York,NEW YORK,NEW YORK,Northeast,New York-Newark-Jersey City NY-NJ-PA,5
10125,-74.0067,40.7143,NY,New York,NEW YORK,NEW YORK,Northeast,New York-Newark-Jersey City NY-NJ-PA,5
10126,-74.0067,40.7143,NY,New York,NEW YORK,NEW YORK,Northeast,New York-Newark-Jersey City NY-NJ-PA,5
10130,-74.0067,40.7143,NY,New York,NEW YORK,NEW YORK,Northeast,New York-Newark-Jersey City NY-NJ-PA,5
10131,-74.0067,40.7143,NY,New York,NEW YORK,NEW YORK,Northeast,New York-Newark-Jersey City NY-NJ-PA,5
10132,-74.0067,40.7143,NY,New York,NEW YORK,NEW YORK,Northeast,New York-Newark-Jersey City NY-NJ-PA,5
10133,-74.0067,40.7143,NY,New York,NEW YORK,NEW YORK,Northeast,New York-Newark-Jersey City NY-NJ-PA,5
10138,-74.0067,40.7143,NY,New York,NEW YORK,NEW YORK,Northeast,New York-Newark-Jersey City NY-NJ-PA,5
10157,-74.0067,40.7143,NY,New York,NEW YORK,NEW YORK,Northeast,New York-Newark-Jersey City NY-NJ-PA,5
10160,-74.0067,40.7143,NY,New York,NEW YORK,NEW YORK,Northeast,New York-Newark-Jersey City NY-NJ-PA,5
10164,-74.0067,40.7143,NY,New York,NEW YORK,NEW YORK,Northeast,New York-Newark-Jersey City NY-NJ-PA,5
10179,-74.0067,40.7143,NY,New York,NEW YORK,NEW YORK,Northeast,New York-Newark-Jersey City NY-NJ-PA,5
10203,-74.0067,40.7143,NY,New York,NEW YORK,NEW YORK,Northeast,New York-Newark-Jersey City NY-NJ-PA,5
10211,-74.0067,40.7143,NY,New York,NEW YORK,NEW YORK,Northeast,New York-Newark-Jersey City NY-NJ-PA,5
10212,-74.0067,40.7143,NY,New York,NEW YORK,NEW YORK,Northeast,New York-Newark-Jersey City NY-NJ-PA,5
10213,-74.0067,40.7143,NY,New York,NEW YORK,NEW YORK,Northeast,New York-Newark-Jersey City NY-NJ-PA,5
10256,-74.0067,40.7143,NY,New York,NEW YORK,NEW YORK,Northeast,New York-Newark-Jersey City NY-NJ-PA,5
10257,-74.0067,40.7143,NY,New York,NEW YORK,NEW YORK,Northeast,New York-Newark-Jersey City NY-NJ-PA,5
10258,-74.0067,40.7143,NY,New York,NEW YORK,NEW YORK,Northeast,New York-Newark-Jersey City NY-NJ-PA,5
10259,-74.0067,40.7143,NY,New York,NEW YORK,NEW YORK,Northeast,New York-Newark-Jersey City NY-NJ-PA,5
10260,-74.0067,40.7143,NY,New York,NEW YORK,NEW YORK,Northeast,New York-Newark-Jersey City NY-NJ-PA,5
10261,-74.0067,40.7143,NY,New York,NEW YORK,NEW YORK,Northeast,New York-Newark-Jersey City NY-NJ-PA,5
10265,-74.0067,40.7143,NY,New York,NEW YORK,NEW YORK,Northeast,New York-Newark-Jersey City NY-NJ-PA,5
10269,-74.0067,40.7143,NY,New York,NEW YORK,NEW YORK,Northeast,New York-Newark-Jersey City NY-NJ-PA,5
10273,-74.0067,40.7143,NY,New York,NEW YORK,NEW YORK,Northeast,New York-Newark-Jersey City NY-NJ-PA,5
10275,-74.0067,40.7143,NY,New York,NEW YORK,NEW YORK,Northeast,New York-Newark-Jersey City NY-NJ-PA,5
10277,-74.0067,40.7143,NY,New York,NEW YORK,NEW YORK,Northeast,New York-Newark-Jersey City NY-NJ-PA,5
10285,-74.0067,40.7143,NY,New York,NEW YORK,NEW YORK,Northeast,New York-Newark-Jersey City NY-NJ-PA,5
10286,-74.0067,40.7143,NY,New York,NEW YORK,NEW YORK,Northeast,New York-Newark-Jersey City NY-NJ-PA,5
10292,-74.0067,40.7143,NY,New York,NEW YORK,NEW YORK,Northeast,New York-Newark-Jersey City NY-NJ-PA,5
11051,-73.6986,40.8257,NY,New York,PORT WASHINGTON,NASSAU,Northeast,New York-Newark-Jersey City NY-NJ-PA,5
11052,-73.6986,40.8257,NY,New York,PORT WASHINGTON,NASSAU,Northeast,New York-Newark-Jersey City NY-NJ-PA,5
11053,-73.6986,40.8257,NY,New York,PORT WASHINGTON,NASSAU,Northeast,New York-Newark-Jersey City NY-NJ-PA,5
11054,-73.6986,40.8257,NY,New York,PORT WASHINGTON,NASSAU,Northeast,New York-Newark-Jersey City NY-NJ-PA,5
11055,-73.6986,40.8257,NY,New York,PORT WASHINGTON,NASSAU,Northeast,New York-Newark-Jersey City NY-NJ-PA,5
11120,-73.9494,40.7448,NY,New York,LONG ISLAND CITY,QUEENS,Northeast,New York-Newark-Jersey City NY-NJ-PA,5
11245,-73.9899,40.6874,NY,New York,BROOKLYN,KINGS,Northeast,New York-Newark-Jersey City NY-NJ-PA,5
11251,-73.97163,40.703388,NY,New York,BROOKLYN,KINGS,Northeast,New York-Newark-Jersey City NY-NJ-PA,5
11381,-73.8179,40.7653,NY,New York,FLUSHING,QUEENS,Northeast,New York-Newark-Jersey City NY-NJ-PA,5
11405,-73.8061,40.6917,NY,New York,JAMAICA,QUEENS,Northeast,New York-Newark-Jersey City NY-NJ-PA,5
11425,-73.8061,40.6917,NY,New York,JAMAICA,QUEENS,Northeast,New York-Newark-Jersey City NY-NJ-PA,5
11439,-73.8061,40.6917,NY,New York,JAMAICA,QUEENS,Northeast,New York-Newark-Jersey City NY-NJ-PA,5
11451,-73.8061,40.6917,NY,New York,JAMAICA,QUEENS,Northeast,New York-Newark-Jersey City NY-NJ-PA,5
11499,-73.8061,40.6917,NY,New York,JAMAICA,QUEENS,Northeast,New York-Newark-Jersey City NY-NJ-PA,5
11549,-73.599554,40.718013,NY,New York,HEMPSTEAD,NASSAU,Northeast,New York-Newark-Jersey City NY-NJ-PA,5
11555,-73.5934,40.7004,NY,New York,UNIONDALE,NASSAU,Northeast,New York-Newark-Jersey City NY-NJ-PA,5
11773,-73.4974,40.8243,NY,New York,SYOSSET,NASSAU,Northeast,New York-Newark-Jersey City NY-NJ-PA,5
11775,-73.5024,40.8257,NY,New York,MELVILLE,SUFFOLK,Northeast,New York-Newark-Jersey City NY-NJ-PA,5
11794,-73.122977,40.911806,NY,New York,STONY BROOK,SUFFOLK,Northeast,New York-Newark-Jersey City NY-NJ-PA,5
11815,-73.5258,40.7683,NY,New York,HICKSVILLE,NASSAU,Northeast,New York-Newark-Jersey City NY-NJ-PA,5
11819,-73.5258,40.7683,NY,New York,HICKSVILLE,NASSAU,Northeast,New York-Newark-Jersey City NY-NJ-PA,5
11853,-73.5403,40.7918,NY,New York,JERICHO,NASSAU,Northeast,New York-Newark-Jersey City NY-NJ-PA,5
11854,-73.5258,40.7683,NY,New York,HICKSVILLE,NASSAU,Northeast,New York-Newark-Jersey City NY-NJ-PA,5
12214,-73.7567,42.6525,NY,New York,ALBANY,ALBANY,Northeast,Albany-Schenectady-Troy NY,5
12222,-73.7567,42.6525,NY,New York,ALBANY,ALBANY,Northeast,Albany-Schenectady-Troy NY,5
12227,-73.7569,42.6516,NY,New York,ALBANY,ALBANY,Northeast,Albany-Schenectady-Troy NY,5
12228,-73.7567,42.6525,NY,New York,ALBANY,ALBANY,Northeast,Albany-Schenectady-Troy NY,5
12229,-73.7567,42.6525,NY,New York,ALBANY,ALBANY,Northeast,Albany-Schenectady-Troy NY,5
12230,-73.7567,42.6525,NY,New York,ALBANY,ALBANY,Northeast,Albany-Schenectady-Troy NY,5
12231,-73.7567,42.6525,NY,New York,ALBANY,ALBANY,Northeast,Albany-Schenectady-Troy NY,5
12232,-73.7567,42.6525,NY,New York,ALBANY,ALBANY,Northeast,Albany-Schenectady-Troy NY,5
12233,-73.7567,42.6525,NY,New York,ALBANY,ALBANY,Northeast,Albany-Schenectady-Troy NY,5
12234,-73.7567,42.6525,NY,New York,ALBANY,ALBANY,Northeast,Albany-Schenectady-Troy NY,5
12235,-73.7567,42.6525,NY,New York,ALBANY,ALBANY,Northeast,Albany-Schenectady-Troy NY,5
12236,-73.7567,42.6525,NY,New York,ALBANY,ALBANY,Northeast,Albany-Schenectady-Troy NY,5
12237,-73.7567,42.6525,NY,New York,ALBANY,ALBANY,Northeast,Albany-Schenectady-Troy NY,5
12238,-73.7567,42.6525,NY,New York,ALBANY,ALBANY,Northeast,Albany-Schenectady-Troy NY,5
12239,-73.7567,42.6525,NY,New York,ALBANY,ALBANY,Northeast,Albany-Schenectady-Troy NY,5
12240,-73.7567,42.6525,NY,New York,ALBANY,ALBANY,Northeast,Albany-Schenectady-Troy NY,5
12241,-73.7567,42.6525,NY,New York,ALBANY,ALBANY,Northeast,Albany-Schenectady-Troy NY,5
12242,-73.7567,42.6525,NY,New York,ALBANY,ALBANY,Northeast,Albany-Schenectady-Troy NY,5
12243,-73.7567,42.6525,NY,New York,ALBANY,ALBANY,Northeast,Albany-Schenectady-Troy NY,5
12244,-73.7567,42.6525,NY,New York,ALBANY,ALBANY,Northeast,Albany-Schenectady-Troy NY,5
12245,-73.7567,42.6525,NY,New York,ALBANY,ALBANY,Northeast,Albany-Schenectady-Troy NY,5
12246,-73.7567,42.6525,NY,New York,ALBANY,ALBANY,Northeast,Albany-Schenectady-Troy NY,5
12247,-73.7569,42.6516,NY,New York,ALBANY,ALBANY,Northeast,Albany-Schenectady-Troy NY,5
12248,-73.7567,42.6525,NY,New York,ALBANY,ALBANY,Northeast,Albany-Schenectady-Troy NY,5
12249,-73.7567,42.6525,NY,New York,ALBANY,ALBANY,Northeast,Albany-Schenectady-Troy NY,5
12250,-73.7567,42.6525,NY,New York,ALBANY,ALBANY,Northeast,Albany-Schenectady-Troy NY,5
12252,-73.7567,42.6525,NY,New York,ALBANY,ALBANY,Northeast,Albany-Schenectady-Troy NY,5
12255,-73.7567,42.6525,NY,New York,ALBANY,ALBANY,Northeast,Albany-Schenectady-Troy NY,5
12256,-73.7567,42.6525,NY,New York,ALBANY,ALBANY,Northeast,Albany-Schenectady-Troy NY,5
12257,-73.7567,42.6525,NY,New York,ALBANY,ALBANY,Northeast,Albany-Schenectady-Troy NY,5
12261,-73.7567,42.6525,NY,New York,ALBANY,ALBANY,Northeast,Albany-Schenectady-Troy NY,5
12288,-73.7567,42.6525,NY,New York,ALBANY,ALBANY,Northeast,Albany-Schenectady-Troy NY,5
12345,-73.9403,42.8145,NY,New York,SCHENECTADY,SCHENECTADY,Northeast,Albany-Schenectady-Troy NY,5
12604,-73.89092,41.685686,NY,New York,POUGHKEEPSIE,DUTCHESS,Northeast,New York-Newark-Jersey City NY-NJ-PA,5
13024,-76.5665,42.9319,NY,New York,AUBURN,CAYUGA,Northeast,Auburn NY,5
13225,-76.1479,43.0482,NY,New York,SYRACUSE,ONONDAGA,Northeast,Syracuse NY,5
13244,-76.135844,43.035979,NY,New York,SYRACUSE,ONONDAGA,Northeast,Syracuse NY,5
13250,-76.1479,43.0482,NY,New York,SYRACUSE,ONONDAGA,Northeast,Syracuse NY,5
13251,-76.1479,43.0482,NY,New York,SYRACUSE,ONONDAGA,Northeast,Syracuse NY,5
13252,-76.1479,43.0482,NY,New York,SYRACUSE,ONONDAGA,Northeast,Syracuse NY,5
13449,-75.4562,43.2125,NY,New York,ROME,ONEIDA,Northeast,Utica-Rome NY,5
13599,-75.2331,43.1009,NY,New York,UTICA,ONEIDA,Northeast,Utica-Rome NY,5
13699,-74.994714,44.6618,NY,New York,POTSDAM,SAINT LAWRENCE,Northeast,Ogdensburg-Massena NY,5
14233,-78.8789,42.8866,NY,New York,BUFFALO,ERIE,Northeast,Buffalo-Cheektowaga-Niagara Falls NY,5
14241,-78.8701,42.89,NY,New York,BUFFALO,ERIE,Northeast,Buffalo-Cheektowaga-Niagara Falls NY,5
14260,-78.785536,43.001821,NY,New York,BUFFALO,ERIE,Northeast,Buffalo-Cheektowaga-Niagara Falls NY,5
14261,-78.8789,42.8866,NY,New York,BUFFALO,ERIE,Northeast,Buffalo-Cheektowaga-Niagara Falls NY,5
14263,-78.8765,42.8868,NY,New York,BUFFALO,ERIE,Northeast,Buffalo-Cheektowaga-Niagara Falls NY,5
14264,-78.8789,42.8866,NY,New York,BUFFALO,ERIE,Northeast,Buffalo-Cheektowaga-Niagara Falls NY,5
14265,-78.8789,42.8866,NY,New York,BUFFALO,ERIE,Northeast,Buffalo-Cheektowaga-Niagara Falls NY,5
14267,-78.8789,42.8866,NY,New York,BUFFALO,ERIE,Northeast,Buffalo-Cheektowaga-Niagara Falls NY,5
14269,-78.8789,42.8866,NY,New York,BUFFALO,ERIE,Northeast,Buffalo-Cheektowaga-Niagara Falls NY,5
14270,-78.8789,42.8866,NY,New York,BUFFALO,ERIE,Northeast,Buffalo-Cheektowaga-Niagara Falls NY,5
14272,-78.8789,42.8866,NY,New York,BUFFALO,ERIE,Northeast,Buffalo-Cheektowaga-Niagara Falls NY,5
14273,-78.8518,42.8867,NY,New York,BUFFALO,ERIE,Northeast,Buffalo-Cheektowaga-Niagara Falls NY,5
14276,-78.8789,42.8866,NY,New York,BUFFALO,ERIE,Northeast,Buffalo-Cheektowaga-Niagara Falls NY,5
14280,-78.8789,42.8866,NY,New York,BUFFALO,ERIE,Northeast,Buffalo-Cheektowaga-Niagara Falls NY,5
14638,-77.6155,43.1544,NY,New York,ROCHESTER,MONROE,Northeast,Rochester NY,5
14639,-77.6155,43.1544,NY,New York,ROCHESTER,MONROE,Northeast,Rochester NY,5
14642,-77.623446,43.123002,NY,New York,ROCHESTER,MONROE,Northeast,Rochester NY,5
14643,-77.6155,43.1544,NY,New York,ROCHESTER,MONROE,Northeast,Rochester NY,5
14644,-77.6155,43.1544,NY,New York,ROCHESTER,MONROE,Northeast,Rochester NY,5
14646,-77.6155,43.1544,NY,New York,ROCHESTER,MONROE,Northeast,Rochester NY,5
14647,-77.6155,43.1544,NY,New York,ROCHESTER,MONROE,Northeast,Rochester NY,5
14649,-77.6155,43.1544,NY,New York,ROCHESTER,MONROE,Northeast,Rochester NY,5
14650,-77.6155,43.1544,NY,New York,ROCHESTER,MONROE,Northeast,Rochester NY,5
14651,-77.6155,43.1544,NY,New York,ROCHESTER,MONROE,Northeast,Rochester NY,5
14652,-77.6155,43.1544,NY,New York,ROCHESTER,MONROE,Northeast,Rochester NY,5
14653,-77.6155,43.1544,NY,New York,ROCHESTER,MONROE,Northeast,Rochester NY,5
14694,-77.6155,43.1544,NY,New York,ROCHESTER,MONROE,Northeast,Rochester NY,5
14831,-77.0553,42.1429,NY,New York,CORNING,STEUBEN,Northeast,Corning NY,5
15069,-79.7651,40.5699,PA,Pennsylvania,NEW KENSINGTON,WESTMORELAND,Northeast,Pittsburgh PA,5
15096,-80.0798,40.6534,PA,Pennsylvania,WARRENDALE,ALLEGHENY,Northeast,Pittsburgh PA,5
15250,-79.9963,40.4409,PA,Pennsylvania,PITTSBURGH,ALLEGHENY,Northeast,Pittsburgh PA,5
15251,-79.9963,40.4409,PA,Pennsylvania,PITTSBURGH,ALLEGHENY,Northeast,Pittsburgh PA,5
15252,-79.9963,40.4409,PA,Pennsylvania,PITTSBURGH,ALLEGHENY,Northeast,Pittsburgh PA,5
15254,-79.9963,40.4409,PA,Pennsylvania,PITTSBURGH,ALLEGHENY,Northeast,Pittsburgh PA,5
15255,-79.9963,40.4409,PA,Pennsylvania,PITTSBURGH,ALLEGHENY,Northeast,Pittsburgh PA,5
15257,-79.9963,40.4409,PA,Pennsylvania,PITTSBURGH,ALLEGHENY,Northeast,Pittsburgh PA,5
15258,-79.9963,40.4409,PA,Pennsylvania,PITTSBURGH,ALLEGHENY,Northeast,Pittsburgh PA,5
15259,-79.9963,40.4409,PA,Pennsylvania,PITTSBURGH,ALLEGHENY,Northeast,Pittsburgh PA,5
15261,-79.963908,40.444591,PA,Pennsylvania,PITTSBURGH,ALLEGHENY,Northeast,Pittsburgh PA,5
15262,-79.9963,40.4409,PA,Pennsylvania,PITTSBURGH,ALLEGHENY,Northeast,Pittsburgh PA,5
15265,-79.9963,40.4409,PA,Pennsylvania,PITTSBURGH,ALLEGHENY,Northeast,Pittsburgh PA,5
15267,-79.9963,40.4409,PA,Pennsylvania,PITTSBURGH,ALLEGHENY,Northeast,Pittsburgh PA,5
15268,-79.9963,40.4409,PA,Pennsylvania,PITTSBURGH,ALLEGHENY,Northeast,Pittsburgh PA,5
15270,-79.9963,40.4409,PA,Pennsylvania,PITTSBURGH,ALLEGHENY,Northeast,Pittsburgh PA,5
15277,-79.9963,40.4409,PA,Pennsylvania,PITTSBURGH,ALLEGHENY,Northeast,Pittsburgh PA,5
15278,-79.9963,40.4409,PA,Pennsylvania,PITTSBURGH,ALLEGHENY,Northeast,Pittsburgh PA,5
15279,-79.9963,40.4409,PA,Pennsylvania,PITTSBURGH,ALLEGHENY,Northeast,Pittsburgh PA,5
15281,-79.9963,40.4409,PA,Pennsylvania,PITTSBURGH,ALLEGHENY,Northeast,Pittsburgh PA,5
15282,-79.989261,40.436933,PA,Pennsylvania,PITTSBURGH,ALLEGHENY,Northeast,Pittsburgh PA,5
15283,-79.9963,40.4409,PA,Pennsylvania,PITTSBURGH,ALLEGHENY,Northeast,Pittsburgh PA,5
15286,-79.9963,40.4409,PA,Pennsylvania,PITTSBURGH,ALLEGHENY,Northeast,Pittsburgh PA,5
15289,-79.941817,40.444374,PA,Pennsylvania,PITTSBURGH,ALLEGHENY,Northeast,Pittsburgh PA,5
15510,-79.0784,40.0084,PA,Pennsylvania,SOMERSET,SOMERSET,Northeast,Somerset PA,5
15605,-79.5395,40.3017,PA,Pennsylvania,GREENSBURG,WESTMORELAND,Northeast,Pittsburgh PA,5
15606,-79.5395,40.3017,PA,Pennsylvania,GREENSBURG,WESTMORELAND,Northeast,Pittsburgh PA,5
15705,-79.159486,40.615415,PA,Pennsylvania,INDIANA,INDIANA,Northeast,Indiana PA,5
16016,-79.8995,41.1086,PA,Pennsylvania,BOYERS,BUTLER,Northeast,Pittsburgh PA,5
16017,-79.8995,41.1086,PA,Pennsylvania,BOYERS,BUTLER,Northeast,Pittsburgh PA,5
16018,-79.8995,41.1086,PA,Pennsylvania,BOYERS,BUTLER,Northeast,Pittsburgh PA,5
16172,-80.330108,41.117588,PA,Pennsylvania,NEW WILMINGTON,LAWRENCE,Northeast,New Castle PA,5
16366,-79.1454,41.8437,PA,Pennsylvania,WARREN,WARREN,Northeast,Warren PA,5
16367,-79.1454,41.8437,PA,Pennsylvania,WARREN,WARREN,Northeast,Warren PA,5
16368,-79.2686,41.8395,PA,Pennsylvania,WARREN,WARREN,Northeast,Warren PA,5
16369,-79.2686,41.8395,PA,Pennsylvania,WARREN,WARREN,Northeast,Warren PA,5
16388,-80.1517,41.6414,PA,Pennsylvania,MEADVILLE,CRAWFORD,Northeast,Meadville PA,5
16444,-80.123039,41.873417,PA,Pennsylvania,EDINBORO,ERIE,Northeast,Erie PA,5
16475,-80.3667,41.8906,PA,Pennsylvania,ALBION,ERIE,Northeast,Erie PA,5
16522,-80.0853,42.1294,PA,Pennsylvania,ERIE,ERIE,Northeast,Erie PA,5
16530,-80.0853,42.1294,PA,Pennsylvania,ERIE,ERIE,Northeast,Erie PA,5
16531,-80.0853,42.1294,PA,Pennsylvania,ERIE,ERIE,Northeast,Erie PA,5
16534,-80.08527,42.12144,PA,Pennsylvania,ERIE,ERIE,Northeast,Erie PA,5
16538,-80.0853,42.1294,PA,Pennsylvania,ERIE,ERIE,Northeast,Erie PA,5
16541,-80.086,42.1285,PA,Pennsylvania,ERIE,ERIE,Northeast,Erie PA,5
16544,-80.0829,42.1206,PA,Pennsylvania,ERIE,ERIE,Northeast,Erie PA,5
16546,-80.0703,42.1172,PA,Pennsylvania,ERIE,ERIE,Northeast,Erie PA,5
16550,-80.0869,42.1315,PA,Pennsylvania,ERIE,ERIE,Northeast,Erie PA,5
16553,-80.0853,42.1294,PA,Pennsylvania,ERIE,ERIE,Northeast,Erie PA,5
16563,-79.9836,42.1246,PA,Pennsylvania,ERIE,ERIE,Northeast,Erie PA,5
16654,-78.0155,40.4885,PA,Pennsylvania,HUNTINGDON,HUNTINGDON,Northeast,Huntingdon PA,5
16698,-78.3876,40.8586,PA,Pennsylvania,HOUTZDALE,CLEARFIELD,Northeast,DuBois PA,5
16699,-78.5918,40.4598,PA,Pennsylvania,CRESSON,CAMBRIA,Northeast,Johnstown PA,5
17012,-76.9205,40.2398,PA,Pennsylvania,CAMP HILL,CUMBERLAND,Northeast,Harrisburg-Carlisle PA,5
17089,-76.9205,40.2397,PA,Pennsylvania,CAMP HILL,CUMBERLAND,Northeast,Harrisburg-Carlisle PA,5
17107,-76.8847,40.2736,PA,Pennsylvania,HARRISBURG,DAUPHIN,Northeast,Harrisburg-Carlisle PA,5
17120,-76.8822,40.2682,PA,Pennsylvania,HARRISBURG,DAUPHIN,Northeast,Harrisburg-Carlisle PA,5
17121,-76.8842,40.2688,PA,Pennsylvania,HARRISBURG,DAUPHIN,Northeast,Harrisburg-Carlisle PA,5
17122,-76.8842,40.2688,PA,Pennsylvania,HARRISBURG,DAUPHIN,Northeast,Harrisburg-Carlisle PA,5
17123,-76.8842,40.2688,PA,Pennsylvania,HARRISBURG,DAUPHIN,Northeast,Harrisburg-Carlisle PA,5
17124,-76.8842,40.2688,PA,Pennsylvania,HARRISBURG,DAUPHIN,Northeast,Harrisburg-Carlisle PA,5
17125,-76.8842,40.2688,PA,Pennsylvania,HARRISBURG,DAUPHIN,Northeast,Harrisburg-Carlisle PA,5
17126,-76.8842,40.2688,PA,Pennsylvania,HARRISBURG,DAUPHIN,Northeast,Harrisburg-Carlisle PA,5
17127,-76.8842,40.2688,PA,Pennsylvania,HARRISBURG,DAUPHIN,Northeast,Harrisburg-Carlisle PA,5
17128,-76.8842,40.2688,PA,Pennsylvania,HARRISBURG,DAUPHIN,Northeast,Harrisburg-Carlisle PA,5
17130,-76.8875,40.2761,PA,Pennsylvania,HARRISBURG,DAUPHIN,Northeast,Harrisburg-Carlisle PA,5
17140,-76.8847,40.2736,PA,Pennsylvania,HARRISBURG,DAUPHIN,Northeast,Harrisburg-Carlisle PA,5
17177,-76.8847,40.2736,PA,Pennsylvania,HARRISBURG,DAUPHIN,Northeast,Harrisburg-Carlisle PA,5
17332,-76.9835,39.8009,PA,Pennsylvania,HANOVER,YORK,Northeast,York-Hanover PA,5
17333,-76.9835,39.8009,PA,Pennsylvania,HANOVER,YORK,Northeast,York-Hanover PA,5
17334,-76.9835,39.8009,PA,Pennsylvania,HANOVER,YORK,Northeast,York-Hanover PA,5
17335,0,0,PA,Pennsylvania,HANOVER,YORK,Northeast,York-Hanover PA,5
17573,-76.1687,40.0261,PA,Pennsylvania,LANCASTER,LANCASTER,Northeast,Lancaster PA,5
17622,-76.31,40.04,PA,Pennsylvania,LANCASTER,LANCASTER,Northeast,Lancaster PA,5
17699,-76.3058,40.0376,PA,Pennsylvania,LANCASTER,LANCASTER,Northeast,Lancaster PA,5
17705,-77.0017,41.2411,PA,Pennsylvania,WILLIAMSPORT,LYCOMING,Northeast,Williamsport PA,5
17822,-76.6134,40.9634,PA,Pennsylvania,DANVILLE,MONTOUR,Northeast,Bloomsburg-Berwick PA,5
17932,-76.2309,40.7837,PA,Pennsylvania,FRACKVILLE,SCHUYLKILL,Northeast,Pottsville PA,5
18003,-75.4328,40.6428,PA,Pennsylvania,LEHIGH VALLEY,NORTHAMPTON,Northeast,Allentown-Bethlehem-Easton PA-NJ,5
18025,-75.46,40.6013,PA,Pennsylvania,BETHLEHEM,LEHIGH,Northeast,Allentown-Bethlehem-Easton PA-NJ,5
18098,-75.4972,40.5396,PA,Pennsylvania,EMMAUS,LEHIGH,Northeast,Allentown-Bethlehem-Easton PA-NJ,5
18099,-75.4972,40.5396,PA,Pennsylvania,EMMAUS,LEHIGH,Northeast,Allentown-Bethlehem-Easton PA-NJ,5
18448,-75.6041,41.4687,PA,Pennsylvania,OLYPHANT,LACKAWANNA,Northeast,Scranton--Wilkes-Barre--Hazleton PA,5
18540,-75.6626,41.4088,PA,Pennsylvania,SCRANTON,LACKAWANNA,Northeast,Scranton--Wilkes-Barre--Hazleton PA,5
18577,-75.6626,41.4088,PA,Pennsylvania,SCRANTON,LACKAWANNA,Northeast,Scranton--Wilkes-Barre--Hazleton PA,5
18690,-75.9637,41.3361,PA,Pennsylvania,DALLAS,LUZERNE,Northeast,Scranton--Wilkes-Barre--Hazleton PA,5
18762,-75.9018,41.2329,PA,Pennsylvania,WILKES BARRE,LUZERNE,Northeast,Scranton--Wilkes-Barre--Hazleton PA,5
18764,-75.8677,41.2565,PA,Pennsylvania,WILKES BARRE,LUZERNE,Northeast,Scranton--Wilkes-Barre--Hazleton PA,5
18765,-75.9082,41.2369,PA,Pennsylvania,WILKES BARRE,LUZERNE,Northeast,Scranton--Wilkes-Barre--Hazleton PA,5
18766,-75.8796,41.2476,PA,Pennsylvania,WILKES BARRE,LUZERNE,Northeast,Scranton--Wilkes-Barre--Hazleton PA,5
18767,-75.8756,41.2486,PA,Pennsylvania,WILKES BARRE,LUZERNE,Northeast,Scranton--Wilkes-Barre--Hazleton PA,5
18769,-75.8867,41.2463,PA,Pennsylvania,WILKES BARRE,LUZERNE,Northeast,Scranton--Wilkes-Barre--Hazleton PA,5
18991,-75.1001,40.2068,PA,Pennsylvania,WARMINSTER,BUCKS,Northeast,Philadelphia-Camden-Wilmington PA-NJ-DE-MD,5
19048,-74.9234,40.1746,PA,Pennsylvania,FORT WASHINGTON,BUCKS,Northeast,Philadelphia-Camden-Wilmington PA-NJ-DE-MD,5
19049,-74.9234,40.1746,PA,Pennsylvania,FORT WASHINGTON,BUCKS,Northeast,Philadelphia-Camden-Wilmington PA-NJ-DE-MD,5
19080,-75.3883,40.0438,PA,Pennsylvania,WAYNE,DELAWARE,Northeast,Philadelphia-Camden-Wilmington PA-NJ-DE-MD,5
19088,-75.3883,40.0438,PA,Pennsylvania,WAYNE,DELAWARE,Northeast,Philadelphia-Camden-Wilmington PA-NJ-DE-MD,5
19089,-75.3883,40.0438,PA,Pennsylvania,WAYNE,DELAWARE,Northeast,Philadelphia-Camden-Wilmington PA-NJ-DE-MD,5
19091,-75.3882,39.9164,PA,Pennsylvania,MEDIA,DELAWARE,Northeast,Philadelphia-Camden-Wilmington PA-NJ-DE-MD,5
19092,-75.1642,39.9524,PA,Pennsylvania,PHILADELPHIA,PHILADELPHIA,Northeast,Philadelphia-Camden-Wilmington PA-NJ-DE-MD,5
19093,-75.1642,39.9524,PA,Pennsylvania,PHILADELPHIA,PHILADELPHIA,Northeast,Philadelphia-Camden-Wilmington PA-NJ-DE-MD,5
19098,-75.3089,39.9043,PA,Pennsylvania,HOLMES,DELAWARE,Northeast,Philadelphia-Camden-Wilmington PA-NJ-DE-MD,5
19099,-75.1642,39.9524,PA,Pennsylvania,PHILADELPHIA,PHILADELPHIA,Northeast,Philadelphia-Camden-Wilmington PA-NJ-DE-MD,5
19161,-75.1645,39.9525,PA,Pennsylvania,PHILADELPHIA,PHILADELPHIA,Northeast,Philadelphia-Camden-Wilmington PA-NJ-DE-MD,5
19162,-75.1645,39.9525,PA,Pennsylvania,PHILADELPHIA,PHILADELPHIA,Northeast,Philadelphia-Camden-Wilmington PA-NJ-DE-MD,5
19170,-75.1645,39.9525,PA,Pennsylvania,PHILADELPHIA,PHILADELPHIA,Northeast,Philadelphia-Camden-Wilmington PA-NJ-DE-MD,5
19171,-75.1645,39.9525,PA,Pennsylvania,PHILADELPHIA,PHILADELPHIA,Northeast,Philadelphia-Camden-Wilmington PA-NJ-DE-MD,5
19172,-75.1645,39.9525,PA,Pennsylvania,PHILADELPHIA,PHILADELPHIA,Northeast,Philadelphia-Camden-Wilmington PA-NJ-DE-MD,5
19173,-75.1645,39.9525,PA,Pennsylvania,PHILADELPHIA,PHILADELPHIA,Northeast,Philadelphia-Camden-Wilmington PA-NJ-DE-MD,5
19175,-75.1645,39.9525,PA,Pennsylvania,PHILADELPHIA,PHILADELPHIA,Northeast,Philadelphia-Camden-Wilmington PA-NJ-DE-MD,5
19177,-75.1645,39.9525,PA,Pennsylvania,PHILADELPHIA,PHILADELPHIA,Northeast,Philadelphia-Camden-Wilmington PA-NJ-DE-MD,5
19178,-75.1645,39.9525,PA,Pennsylvania,PHILADELPHIA,PHILADELPHIA,Northeast,Philadelphia-Camden-Wilmington PA-NJ-DE-MD,5
19179,-75.1645,39.9525,PA,Pennsylvania,PHILADELPHIA,PHILADELPHIA,Northeast,Philadelphia-Camden-Wilmington PA-NJ-DE-MD,5
19181,-75.1645,39.9525,PA,Pennsylvania,PHILADELPHIA,PHILADELPHIA,Northeast,Philadelphia-Camden-Wilmington PA-NJ-DE-MD,5
19182,-75.1645,39.9525,PA,Pennsylvania,PHILADELPHIA,PHILADELPHIA,Northeast,Philadelphia-Camden-Wilmington PA-NJ-DE-MD,5
19183,-75.1645,39.9525,PA,Pennsylvania,PHILADELPHIA,PHILADELPHIA,Northeast,Philadelphia-Camden-Wilmington PA-NJ-DE-MD,5
19184,-75.1645,39.9525,PA,Pennsylvania,PHILADELPHIA,PHILADELPHIA,Northeast,Philadelphia-Camden-Wilmington PA-NJ-DE-MD,5
19185,-75.1645,39.9525,PA,Pennsylvania,PHILADELPHIA,PHILADELPHIA,Northeast,Philadelphia-Camden-Wilmington PA-NJ-DE-MD,5
19187,-75.1645,39.9525,PA,Pennsylvania,PHILADELPHIA,PHILADELPHIA,Northeast,Philadelphia-Camden-Wilmington PA-NJ-DE-MD,5
19188,-75.1645,39.9525,PA,Pennsylvania,PHILADELPHIA,PHILADELPHIA,Northeast,Philadelphia-Camden-Wilmington PA-NJ-DE-MD,5
19191,-75.1645,39.9525,PA,Pennsylvania,PHILADELPHIA,PHILADELPHIA,Northeast,Philadelphia-Camden-Wilmington PA-NJ-DE-MD,5
19192,-75.1645,39.9525,PA,Pennsylvania,PHILADELPHIA,PHILADELPHIA,Northeast,Philadelphia-Camden-Wilmington PA-NJ-DE-MD,5
19193,-75.1645,39.9525,PA,Pennsylvania,PHILADELPHIA,PHILADELPHIA,Northeast,Philadelphia-Camden-Wilmington PA-NJ-DE-MD,5
19194,-75.1645,39.9525,PA,Pennsylvania,PHILADELPHIA,PHILADELPHIA,Northeast,Philadelphia-Camden-Wilmington PA-NJ-DE-MD,5
19195,-75.16,39.95,PA,Pennsylvania,PHILADELPHIA,PHILADELPHIA,Northeast,Philadelphia-Camden-Wilmington PA-NJ-DE-MD,5
19196,-75.1645,39.9525,PA,Pennsylvania,PHILADELPHIA,PHILADELPHIA,Northeast,Philadelphia-Camden-Wilmington PA-NJ-DE-MD,5
19197,-75.1645,39.9525,PA,Pennsylvania,PHILADELPHIA,PHILADELPHIA,Northeast,Philadelphia-Camden-Wilmington PA-NJ-DE-MD,5
19244,-75.1645,39.9525,PA,Pennsylvania,PHILADELPHIA,PHILADELPHIA,Northeast,Philadelphia-Camden-Wilmington PA-NJ-DE-MD,5
19255,-75.1645,39.9525,PA,Pennsylvania,PHILADELPHIA,PHILADELPHIA,Northeast,Philadelphia-Camden-Wilmington PA-NJ-DE-MD,5
19339,-75.5209,39.8853,PA,Pennsylvania,CONCORDVILLE,DELAWARE,Northeast,Philadelphia-Camden-Wilmington PA-NJ-DE-MD,5
19340,-75.5209,39.8853,PA,Pennsylvania,CONCORDVILLE,DELAWARE,Northeast,Philadelphia-Camden-Wilmington PA-NJ-DE-MD,5
19383,-75.609213,39.936882,PA,Pennsylvania,WEST CHESTER,CHESTER,Northeast,Philadelphia-Camden-Wilmington PA-NJ-DE-MD,5
19415,-75.3405,40.1215,PA,Pennsylvania,EAGLEVILLE,MONTGOMERY,Northeast,Philadelphia-Camden-Wilmington PA-NJ-DE-MD,5
19424,-75.2667,40.1522,PA,Pennsylvania,BLUE BELL,MONTGOMERY,Northeast,Philadelphia-Camden-Wilmington PA-NJ-DE-MD,5
19429,-75.3018,40.0795,PA,Pennsylvania,CONSHOHOCKEN,MONTGOMERY,Northeast,Philadelphia-Camden-Wilmington PA-NJ-DE-MD,5
19441,-75.3878,40.2794,PA,Pennsylvania,HARLEYSVILLE,MONTGOMERY,Northeast,Philadelphia-Camden-Wilmington PA-NJ-DE-MD,5
19455,-75.2788,40.2105,PA,Pennsylvania,NORTH WALES,MONTGOMERY,Northeast,Philadelphia-Camden-Wilmington PA-NJ-DE-MD,5
19493,-75.4701,40.0968,PA,Pennsylvania,VALLEY FORGE,CHESTER,Northeast,Philadelphia-Camden-Wilmington PA-NJ-DE-MD,5
19494,-75.4701,40.0968,PA,Pennsylvania,VALLEY FORGE,CHESTER,Northeast,Philadelphia-Camden-Wilmington PA-NJ-DE-MD,5
19495,-75.4701,40.0968,PA,Pennsylvania,VALLEY FORGE,CHESTER,Northeast,Philadelphia-Camden-Wilmington PA-NJ-DE-MD,5
19496,-75.4701,40.0968,PA,Pennsylvania,VALLEY FORGE,CHESTER,Northeast,Philadelphia-Camden-Wilmington PA-NJ-DE-MD,5
19712,-75.7501,39.6837,DE,Delaware,NEWARK,NEW CASTLE,South,Philadelphia-Camden-Wilmington PA-NJ-DE-MD,5
19718,-75.7501,39.6837,DE,Delaware,NEWARK,NEW CASTLE,South,Philadelphia-Camden-Wilmington PA-NJ-DE-MD,5
19721,-75.5664,39.6618,DE,Delaware,NEW CASTLE,NEW CASTLE,South,Philadelphia-Camden-Wilmington PA-NJ-DE-MD,5
19725,-75.7501,39.6837,DE,Delaware,NEWARK,NEW CASTLE,South,Philadelphia-Camden-Wilmington PA-NJ-DE-MD,5
19726,-75.7501,39.6837,DE,Delaware,NEWARK,NEW CASTLE,South,Philadelphia-Camden-Wilmington PA-NJ-DE-MD,5
19884,-75.5466,39.7459,DE,Delaware,WILMINGTON,NEW CASTLE,South,Philadelphia-Camden-Wilmington PA-NJ-DE-MD,5
19885,-75.5466,39.7459,DE,Delaware,WILMINGTON,NEW CASTLE,South,Philadelphia-Camden-Wilmington PA-NJ-DE-MD,5
19886,-75.5466,39.7459,DE,Delaware,WILMINGTON,NEW CASTLE,South,Philadelphia-Camden-Wilmington PA-NJ-DE-MD,5
19890,-75.5466,39.7459,DE,Delaware,WILMINGTON,NEW CASTLE,South,Philadelphia-Camden-Wilmington PA-NJ-DE-MD,5
19891,-75.5466,39.7459,DE,Delaware,WILMINGTON,NEW CASTLE,South,Philadelphia-Camden-Wilmington PA-NJ-DE-MD,5
19892,-75.5466,39.7459,DE,Delaware,WILMINGTON,NEW CASTLE,South,Philadelphia-Camden-Wilmington PA-NJ-DE-MD,5
19893,-75.5466,39.7459,DE,Delaware,WILMINGTON,NEW CASTLE,South,Philadelphia-Camden-Wilmington PA-NJ-DE-MD,5
19894,-75.5466,39.7459,DE,Delaware,WILMINGTON,NEW CASTLE,South,Philadelphia-Camden-Wilmington PA-NJ-DE-MD,5
19895,-75.5466,39.7459,DE,Delaware,WILMINGTON,NEW CASTLE,South,Philadelphia-Camden-Wilmington PA-NJ-DE-MD,5
19896,-75.5466,39.7459,DE,Delaware,WILMINGTON,NEW CASTLE,South,Philadelphia-Camden-Wilmington PA-NJ-DE-MD,5
19897,-75.5466,39.7459,DE,Delaware,WILMINGTON,NEW CASTLE,South,Philadelphia-Camden-Wilmington PA-NJ-DE-MD,5
19898,-75.5466,39.7459,DE,Delaware,WILMINGTON,NEW CASTLE,South,Philadelphia-Camden-Wilmington PA-NJ-DE-MD,5
20042,-77.0367,38.895,DC,District of Columbia,WASHINGTON,DISTRICT OF COLUMBIA,South,Washington-Arlington-Alexandria DC-VA-MD-WV,5
20046,-77.0367,38.895,DC,District of Columbia,WASHINGTON,DISTRICT OF COLUMBIA,South,Washington-Arlington-Alexandria DC-VA-MD-WV,5
20047,-77.0367,38.895,DC,District of Columbia,WASHINGTON,DISTRICT OF COLUMBIA,South,Washington-Arlington-Alexandria DC-VA-MD-WV,5
20049,-77.0367,38.895,DC,District of Columbia,WASHINGTON,DISTRICT OF COLUMBIA,South,Washington-Arlington-Alexandria DC-VA-MD-WV,5
20052,-77.0497,38.8993,DC,District of Columbia,WASHINGTON,DISTRICT OF COLUMBIA,South,Washington-Arlington-Alexandria DC-VA-MD-WV,5
20053,-77.0367,38.895,DC,District of Columbia,WASHINGTON,DISTRICT OF COLUMBIA,South,Washington-Arlington-Alexandria DC-VA-MD-WV,5
20055,-77.0367,38.895,DC,District of Columbia,WASHINGTON,DISTRICT OF COLUMBIA,South,Washington-Arlington-Alexandria DC-VA-MD-WV,5
20057,-77.075356,38.909122,DC,District of Columbia,WASHINGTON,DISTRICT OF COLUMBIA,South,Washington-Arlington-Alexandria DC-VA-MD-WV,5
20058,-77.0367,38.895,DC,District of Columbia,WASHINGTON,DISTRICT OF COLUMBIA,South,Washington-Arlington-Alexandria DC-VA-MD-WV,5
20059,-77.02055,38.923584,DC,District of Columbia,WASHINGTON,DISTRICT OF COLUMBIA,South,Washington-Arlington-Alexandria DC-VA-MD-WV,5
20060,-77.0367,38.895,DC,District of Columbia,WASHINGTON,DISTRICT OF COLUMBIA,South,Washington-Arlington-Alexandria DC-VA-MD-WV,5
20061,-77.0367,38.895,DC,District of Columbia,WASHINGTON,DISTRICT OF COLUMBIA,South,Washington-Arlington-Alexandria DC-VA-MD-WV,5
20062,-77.0367,38.895,DC,District of Columbia,WASHINGTON,DISTRICT OF COLUMBIA,South,Washington-Arlington-Alexandria DC-VA-MD-WV,5
20063,-77.0367,38.895,DC,District of Columbia,WASHINGTON,DISTRICT OF COLUMBIA,South,Washington-Arlington-Alexandria DC-VA-MD-WV,5
20064,-76.998845,38.93606,DC,District of Columbia,WASHINGTON,DISTRICT OF COLUMBIA,South,Washington-Arlington-Alexandria DC-VA-MD-WV,5
20065,-77.0367,38.895,DC,District of Columbia,WASHINGTON,DISTRICT OF COLUMBIA,South,Washington-Arlington-Alexandria DC-VA-MD-WV,5
20066,-77.0107,38.8989,DC,District of Columbia,WASHINGTON,DISTRICT OF COLUMBIA,South,Washington-Arlington-Alexandria DC-VA-MD-WV,5
20067,-77.0367,38.895,DC,District of Columbia,WASHINGTON,DISTRICT OF COLUMBIA,South,Washington-Arlington-Alexandria DC-VA-MD-WV,5
20068,-77.0367,38.895,DC,District of Columbia,WASHINGTON,DISTRICT OF COLUMBIA,South,Washington-Arlington-Alexandria DC-VA-MD-WV,5
20069,-77.0367,38.895,DC,District of Columbia,WASHINGTON,DISTRICT OF COLUMBIA,South,Washington-Arlington-Alexandria DC-VA-MD-WV,5
20070,-77.0367,38.895,DC,District of Columbia,WASHINGTON,DISTRICT OF COLUMBIA,South,Washington-Arlington-Alexandria DC-VA-MD-WV,5
20071,-77.0367,38.895,DC,District of Columbia,WASHINGTON,DISTRICT OF COLUMBIA,South,Washington-Arlington-Alexandria DC-VA-MD-WV,5
20073,-77.0367,38.895,DC,District of Columbia,WASHINGTON,DISTRICT OF COLUMBIA,South,Washington-Arlington-Alexandria DC-VA-MD-WV,5
20074,-77.0367,38.895,DC,District of Columbia,WASHINGTON,DISTRICT OF COLUMBIA,South,Washington-Arlington-Alexandria DC-VA-MD-WV,5
20075,-77.0367,38.895,DC,District of Columbia,WASHINGTON,DISTRICT OF COLUMBIA,South,Washington-Arlington-Alexandria DC-VA-MD-WV,5
20076,-77.0367,38.895,DC,District of Columbia,WASHINGTON,DISTRICT OF COLUMBIA,South,Washington-Arlington-Alexandria DC-VA-MD-WV,5
20077,-77.0367,38.895,DC,District of Columbia,WASHINGTON,DISTRICT OF COLUMBIA,South,Washington-Arlington-Alexandria DC-VA-MD-WV,5
20078,-77.0367,38.895,DC,District of Columbia,WASHINGTON,DISTRICT OF COLUMBIA,South,Washington-Arlington-Alexandria DC-VA-MD-WV,5
20080,-77.0367,38.895,DC,District of Columbia,WASHINGTON,DISTRICT OF COLUMBIA,South,Washington-Arlington-Alexandria DC-VA-MD-WV,5
20081,-77.0367,38.895,DC,District of Columbia,WASHINGTON,DISTRICT OF COLUMBIA,South,Washington-Arlington-Alexandria DC-VA-MD-WV,5
20082,-77.0367,38.895,DC,District of Columbia,WASHINGTON,DISTRICT OF COLUMBIA,South,Washington-Arlington-Alexandria DC-VA-MD-WV,5
20097,-77.0367,38.895,DC,District of Columbia,WASHINGTON,DISTRICT OF COLUMBIA,South,Washington-Arlington-Alexandria DC-VA-MD-WV,5
20098,-77.0367,38.895,DC,District of Columbia,WASHINGTON,DISTRICT OF COLUMBIA,South,Washington-Arlington-Alexandria DC-VA-MD-WV,5
20101,-77.8426,39.3355,VA,Virginia,DULLES,LOUDOUN,South,Washington-Arlington-Alexandria DC-VA-MD-WV,5
20102,-77.450515,38.954867,VA,Virginia,DULLES,LOUDOUN,South,Washington-Arlington-Alexandria DC-VA-MD-WV,5
20103,-77.5365,39.3214,VA,Virginia,DULLES,LOUDOUN,South,Washington-Arlington-Alexandria DC-VA-MD-WV,5
20104,-77.5365,39.3214,VA,Virginia,DULLES,LOUDOUN,South,Washington-Arlington-Alexandria DC-VA-MD-WV,5
20149,-77.4879,39.0438,VA,Virginia,ASHBURN,LOUDOUN,South,Washington-Arlington-Alexandria DC-VA-MD-WV,5
20192,-77.364954,38.946815,VA,Virginia,HERNDON,FAIRFAX,South,Washington-Arlington-Alexandria DC-VA-MD-WV,5
20196,-77.3372,38.9628,VA,Virginia,RESTON,FAIRFAX,South,Washington-Arlington-Alexandria DC-VA-MD-WV,5
20201,-77.0369,38.8951,DC,District of Columbia,WASHINGTON,DISTRICT OF COLUMBIA,South,Washington-Arlington-Alexandria DC-VA-MD-WV,5
20202,-77.0369,38.8951,DC,District of Columbia,WASHINGTON,DISTRICT OF COLUMBIA,South,Washington-Arlington-Alexandria DC-VA-MD-WV,5
20203,-77.0369,38.8951,DC,District of Columbia,WASHINGTON,DISTRICT OF COLUMBIA,South,Washington-Arlington-Alexandria DC-VA-MD-WV,5
20204,-77.0369,38.8951,DC,District of Columbia,WASHINGTON,DISTRICT OF COLUMBIA,South,Washington-Arlington-Alexandria DC-VA-MD-WV,5
20206,-77.0369,38.8951,DC,District of Columbia,WASHINGTON,DISTRICT OF COLUMBIA,South,Washington-Arlington-Alexandria DC-VA-MD-WV,5
20207,-77.0369,38.8951,DC,District of Columbia,WASHINGTON,DISTRICT OF COLUMBIA,South,Washington-Arlington-Alexandria DC-VA-MD-WV,5
20208,-77.0369,38.8951,DC,District of Columbia,WASHINGTON,DISTRICT OF COLUMBIA,South,Washington-Arlington-Alexandria DC-VA-MD-WV,5
20210,-77.0369,38.8951,DC,District of Columbia,WASHINGTON,DISTRICT OF COLUMBIA,South,Washington-Arlington-Alexandria DC-VA-MD-WV,5
20211,-77.0369,38.8951,DC,District of Columbia,WASHINGTON,DISTRICT OF COLUMBIA,South,Washington-Arlington-Alexandria DC-VA-MD-WV,5
20212,-77.0369,38.8951,DC,District of Columbia,WASHINGTON,DISTRICT OF COLUMBIA,South,Washington-Arlington-Alexandria DC-VA-MD-WV,5
20213,-77.0369,38.8951,DC,District of Columbia,WASHINGTON,DISTRICT OF COLUMBIA,South,Washington-Arlington-Alexandria DC-VA-MD-WV,5
20214,-77.0369,38.8951,DC,District of Columbia,WASHINGTON,DISTRICT OF COLUMBIA,South,Washington-Arlington-Alexandria DC-VA-MD-WV,5
20215,-77.0369,38.8951,DC,District of Columbia,WASHINGTON,DISTRICT OF COLUMBIA,South,Washington-Arlington-Alexandria DC-VA-MD-WV,5
20216,-77.0369,38.8951,DC,District of Columbia,WASHINGTON,DISTRICT OF COLUMBIA,South,Washington-Arlington-Alexandria DC-VA-MD-WV,5
20217,-77.0369,38.8951,DC,District of Columbia,WASHINGTON,DISTRICT OF COLUMBIA,South,Washington-Arlington-Alexandria DC-VA-MD-WV,5
20218,-77.0369,38.8951,DC,District of Columbia,WASHINGTON,DISTRICT OF COLUMBIA,South,Washington-Arlington-Alexandria DC-VA-MD-WV,5
20219,-77.0369,38.8951,DC,District of Columbia,WASHINGTON,DISTRICT OF COLUMBIA,South,Washington-Arlington-Alexandria DC-VA-MD-WV,5
20220,-77.0369,38.8951,DC,District of Columbia,WASHINGTON,DISTRICT OF COLUMBIA,South,Washington-Arlington-Alexandria DC-VA-MD-WV,5
20221,-77.0369,38.8951,DC,District of Columbia,WASHINGTON,DISTRICT OF COLUMBIA,South,Washington-Arlington-Alexandria DC-VA-MD-WV,5
20222,-77.0369,38.8951,DC,District of Columbia,WASHINGTON,DISTRICT OF COLUMBIA,South,Washington-Arlington-Alexandria DC-VA-MD-WV,5
20223,-77.0369,38.8951,DC,District of Columbia,WASHINGTON,DISTRICT OF COLUMBIA,South,Washington-Arlington-Alexandria DC-VA-MD-WV,5
20224,-77.0369,38.8951,DC,District of Columbia,WASHINGTON,DISTRICT OF COLUMBIA,South,Washington-Arlington-Alexandria DC-VA-MD-WV,5
20226,-77.0369,38.8951,DC,District of Columbia,WASHINGTON,DISTRICT OF COLUMBIA,South,Washington-Arlington-Alexandria DC-VA-MD-WV,5
20227,-77.0369,38.8951,DC,District of Columbia,WASHINGTON,DISTRICT OF COLUMBIA,South,Washington-Arlington-Alexandria DC-VA-MD-WV,5
20228,-77.0369,38.8951,DC,District of Columbia,WASHINGTON,DISTRICT OF COLUMBIA,South,Washington-Arlington-Alexandria DC-VA-MD-WV,5
20229,-77.0369,38.8951,DC,District of Columbia,WASHINGTON,DISTRICT OF COLUMBIA,South,Washington-Arlington-Alexandria DC-VA-MD-WV,5
20230,-77.0369,38.8951,DC,District of Columbia,WASHINGTON,DISTRICT OF COLUMBIA,South,Washington-Arlington-Alexandria DC-VA-MD-WV,5
20232,-77.0369,38.8951,DC,District of Columbia,WASHINGTON,DISTRICT OF COLUMBIA,South,Washington-Arlington-Alexandria DC-VA-MD-WV,5
20233,-77.0369,38.8951,DC,District of Columbia,WASHINGTON,DISTRICT OF COLUMBIA,South,Washington-Arlington-Alexandria DC-VA-MD-WV,5
20235,-77.0369,38.8951,DC,District of Columbia,WASHINGTON,DISTRICT OF COLUMBIA,South,Washington-Arlington-Alexandria DC-VA-MD-WV,5
20237,-77.0369,38.8951,DC,District of Columbia,WASHINGTON,DISTRICT OF COLUMBIA,South,Washington-Arlington-Alexandria DC-VA-MD-WV,5
20238,-77.0369,38.8951,DC,District of Columbia,WASHINGTON,DISTRICT OF COLUMBIA,South,Washington-Arlington-Alexandria DC-VA-MD-WV,5
20239,-77.0369,38.8951,DC,District of Columbia,WASHINGTON,DISTRICT OF COLUMBIA,South,Washington-Arlington-Alexandria DC-VA-MD-WV,5
20240,-77.0369,38.8951,DC,District of Columbia,WASHINGTON,DISTRICT OF COLUMBIA,South,Washington-Arlington-Alexandria DC-VA-MD-WV,5
20241,-77.0369,38.8951,DC,District of Columbia,WASHINGTON,DISTRICT OF COLUMBIA,South,Washington-Arlington-Alexandria DC-VA-MD-WV,5
20242,-77.0369,38.8951,DC,District of Columbia,WASHINGTON,DISTRICT OF COLUMBIA,South,Washington-Arlington-Alexandria DC-VA-MD-WV,5
20244,-77.0369,38.8951,DC,District of Columbia,WASHINGTON,DISTRICT OF COLUMBIA,South,Washington-Arlington-Alexandria DC-VA-MD-WV,5
20245,-77.0369,38.8951,DC,District of Columbia,WASHINGTON,DISTRICT OF COLUMBIA,South,Washington-Arlington-Alexandria DC-VA-MD-WV,5
20250,-77.0369,38.8951,DC,District of Columbia,WASHINGTON,DISTRICT OF COLUMBIA,South,Washington-Arlington-Alexandria DC-VA-MD-WV,5
20251,-77.0369,38.8951,DC,District of Columbia,WASHINGTON,DISTRICT OF COLUMBIA,South,Washington-Arlington-Alexandria DC-VA-MD-WV,5
20252,0,0,DC,District of Columbia,WASHINGTON,DISTRICT OF COLUMBIA,South,Washington-Arlington-Alexandria DC-VA-MD-WV,5
20254,-77.0367,38.8926,DC,District of Columbia,WASHINGTON,DISTRICT OF COLUMBIA,South,Washington-Arlington-Alexandria DC-VA-MD-WV,5
20261,-77.0369,38.8951,DC,District of Columbia,WASHINGTON,DISTRICT OF COLUMBIA,South,Washington-Arlington-Alexandria DC-VA-MD-WV,5
20262,-77.0369,38.8951,DC,District of Columbia,WASHINGTON,DISTRICT OF COLUMBIA,South,Washington-Arlington-Alexandria DC-VA-MD-WV,5
20265,-77.0369,38.8951,DC,District of Columbia,WASHINGTON,DISTRICT OF COLUMBIA,South,Washington-Arlington-Alexandria DC-VA-MD-WV,5
20266,-77.0369,38.8951,DC,District of Columbia,WASHINGTON,DISTRICT OF COLUMBIA,South,Washington-Arlington-Alexandria DC-VA-MD-WV,5
20268,-77.0369,38.8951,DC,District of Columbia,WASHINGTON,DISTRICT OF COLUMBIA,South,Washington-Arlington-Alexandria DC-VA-MD-WV,5
20270,-77.0369,38.8951,DC,District of Columbia,WASHINGTON,DISTRICT OF COLUMBIA,South,Washington-Arlington-Alexandria DC-VA-MD-WV,5
20277,-77.0369,38.8951,DC,District of Columbia,WASHINGTON,DISTRICT OF COLUMBIA,South,Washington-Arlington-Alexandria DC-VA-MD-WV,5
20289,-77.0369,38.8951,DC,District of Columbia,WASHINGTON,DISTRICT OF COLUMBIA,South,Washington-Arlington-Alexandria DC-VA-MD-WV,5
20299,-77.0369,38.8951,DC,District of Columbia,WASHINGTON,DISTRICT OF COLUMBIA,South,Washington-Arlington-Alexandria DC-VA-MD-WV,5
20301,-77.0279,38.8711,DC,District of Columbia,WASHINGTON,DISTRICT OF COLUMBIA,South,Washington-Arlington-Alexandria DC-VA-MD-WV,5
20303,-77.0369,38.8951,DC,District of Columbia,WASHINGTON,DISTRICT OF COLUMBIA,South,Washington-Arlington-Alexandria DC-VA-MD-WV,5
20306,-77.0369,38.8951,DC,District of Columbia,WASHINGTON,DISTRICT OF COLUMBIA,South,Washington-Arlington-Alexandria DC-VA-MD-WV,5
20310,-77.0369,38.8951,DC,District of Columbia,WASHINGTON,DISTRICT OF COLUMBIA,South,Washington-Arlington-Alexandria DC-VA-MD-WV,5
20314,-77.0367,38.8926,DC,District of Columbia,WASHINGTON,DISTRICT OF COLUMBIA,South,Washington-Arlington-Alexandria DC-VA-MD-WV,5
20317,-77.0369,38.8951,DC,District of Columbia,WASHINGTON,DISTRICT OF COLUMBIA,South,Washington-Arlington-Alexandria DC-VA-MD-WV,5
20318,-77.0367,38.8926,DC,District of Columbia,WASHINGTON,DISTRICT OF COLUMBIA,South,Washington-Arlington-Alexandria DC-VA-MD-WV,5
20319,-77.01666,38.866137,DC,District of Columbia,WASHINGTON,DISTRICT OF COLUMBIA,South,Washington-Arlington-Alexandria DC-VA-MD-WV,5
20330,-77.0369,38.8951,DC,District of Columbia,WASHINGTON,DISTRICT OF COLUMBIA,South,Washington-Arlington-Alexandria DC-VA-MD-WV,5
20340,-77.0369,38.8951,DC,District of Columbia,WASHINGTON,DISTRICT OF COLUMBIA,South,Washington-Arlington-Alexandria DC-VA-MD-WV,5
20350,-77.0369,38.8951,DC,District of Columbia,WASHINGTON,DISTRICT OF COLUMBIA,South,Washington-Arlington-Alexandria DC-VA-MD-WV,5
20355,-77.0369,38.8951,DC,District of Columbia,WASHINGTON,DISTRICT OF COLUMBIA,South,Washington-Arlington-Alexandria DC-VA-MD-WV,5
20370,-77.0369,38.8951,DC,District of Columbia,WASHINGTON,DISTRICT OF COLUMBIA,South,Washington-Arlington-Alexandria DC-VA-MD-WV,5
20372,-77.0468,38.8833,DC,District of Columbia,WASHINGTON,DISTRICT OF COLUMBIA,South,Washington-Arlington-Alexandria DC-VA-MD-WV,5
20373,-77.0369,38.8951,DC,District of Columbia,NAVAL ANACOST ANNEX,DISTRICT OF COLUMBIA,South,Washington-Arlington-Alexandria DC-VA-MD-WV,5
20375,-77.022348,38.824713,DC,District of Columbia,WASHINGTON,DISTRICT OF COLUMBIA,South,Washington-Arlington-Alexandria DC-VA-MD-WV,5
20380,-77.0369,38.8951,DC,District of Columbia,WASHINGTON,DISTRICT OF COLUMBIA,South,Washington-Arlington-Alexandria DC-VA-MD-WV,5
20389,-77.0369,38.8951,DC,District of Columbia,WASHINGTON,DISTRICT OF COLUMBIA,South,Washington-Arlington-Alexandria DC-VA-MD-WV,5
20390,-77.0369,38.8951,DC,District of Columbia,WASHINGTON,DISTRICT OF COLUMBIA,South,Washington-Arlington-Alexandria DC-VA-MD-WV,5
20392,-77.0369,38.8951,DC,District of Columbia,WASHINGTON,DISTRICT OF COLUMBIA,South,Washington-Arlington-Alexandria DC-VA-MD-WV,5
20393,-77.0369,38.8951,DC,District of Columbia,WASHINGTON,DISTRICT OF COLUMBIA,South,Washington-Arlington-Alexandria DC-VA-MD-WV,5
20394,-77.0369,38.8951,DC,District of Columbia,WASHINGTON,DISTRICT OF COLUMBIA,South,Washington-Arlington-Alexandria DC-VA-MD-WV,5
20395,-77.0369,38.8951,DC,District of Columbia,WASHINGTON,DISTRICT OF COLUMBIA,South,Washington-Arlington-Alexandria DC-VA-MD-WV,5
20401,-77.0369,38.8951,DC,District of Columbia,WASHINGTON,DISTRICT OF COLUMBIA,South,Washington-Arlington-Alexandria DC-VA-MD-WV,5
20402,-77.0369,38.8951,DC,District of Columbia,WASHINGTON,DISTRICT OF COLUMBIA,South,Washington-Arlington-Alexandria DC-VA-MD-WV,5
20403,-77.0369,38.8951,DC,District of Columbia,WASHINGTON,DISTRICT OF COLUMBIA,South,Washington-Arlington-Alexandria DC-VA-MD-WV,5
20404,-77.0369,38.8951,DC,District of Columbia,WASHINGTON,DISTRICT OF COLUMBIA,South,Washington-Arlington-Alexandria DC-VA-MD-WV,5
20405,-77.0369,38.8951,DC,District of Columbia,WASHINGTON,DISTRICT OF COLUMBIA,South,Washington-Arlington-Alexandria DC-VA-MD-WV,5
20406,-77.0369,38.8951,DC,District of Columbia,WASHINGTON,DISTRICT OF COLUMBIA,South,Washington-Arlington-Alexandria DC-VA-MD-WV,5
20407,-77.0369,38.8951,DC,District of Columbia,WASHINGTON,DISTRICT OF COLUMBIA,South,Washington-Arlington-Alexandria DC-VA-MD-WV,5
20408,-77.0369,38.8951,DC,District of Columbia,WASHINGTON,DISTRICT OF COLUMBIA,South,Washington-Arlington-Alexandria DC-VA-MD-WV,5
20409,-77.0369,38.8951,DC,District of Columbia,WASHINGTON,DISTRICT OF COLUMBIA,South,Washington-Arlington-Alexandria DC-VA-MD-WV,5
20410,-77.0369,38.8951,DC,District of Columbia,WASHINGTON,DISTRICT OF COLUMBIA,South,Washington-Arlington-Alexandria DC-VA-MD-WV,5
20411,-77.0369,38.8951,DC,District of Columbia,WASHINGTON,DISTRICT OF COLUMBIA,South,Washington-Arlington-Alexandria DC-VA-MD-WV,5
20412,-77.0369,38.8951,DC,District of Columbia,WASHINGTON,DISTRICT OF COLUMBIA,South,Washington-Arlington-Alexandria DC-VA-MD-WV,5
20413,-77.0369,38.8951,DC,District of Columbia,WASHINGTON,DISTRICT OF COLUMBIA,South,Washington-Arlington-Alexandria DC-VA-MD-WV,5
20414,-77.0369,38.8951,DC,District of Columbia,WASHINGTON,DISTRICT OF COLUMBIA,South,Washington-Arlington-Alexandria DC-VA-MD-WV,5
20415,-77.0369,38.8951,DC,District of Columbia,WASHINGTON,DISTRICT OF COLUMBIA,South,Washington-Arlington-Alexandria DC-VA-MD-WV,5
20416,-77.0369,38.8951,DC,District of Columbia,WASHINGTON,DISTRICT OF COLUMBIA,South,Washington-Arlington-Alexandria DC-VA-MD-WV,5
20417,-77.005815,38.906842,DC,District of Columbia,WASHINGTON,DISTRICT OF COLUMBIA,South,Washington-Arlington-Alexandria DC-VA-MD-WV,5
20418,-77.0369,38.8951,DC,District of Columbia,WASHINGTON,DISTRICT OF COLUMBIA,South,Washington-Arlington-Alexandria DC-VA-MD-WV,5
20419,-77.0369,38.8951,DC,District of Columbia,WASHINGTON,DISTRICT OF COLUMBIA,South,Washington-Arlington-Alexandria DC-VA-MD-WV,5
20420,-77.0369,38.8951,DC,District of Columbia,WASHINGTON,DISTRICT OF COLUMBIA,South,Washington-Arlington-Alexandria DC-VA-MD-WV,5
20421,-77.0369,38.8951,DC,District of Columbia,WASHINGTON,DISTRICT OF COLUMBIA,South,Washington-Arlington-Alexandria DC-VA-MD-WV,5
20422,-77.0369,38.8951,DC,District of Columbia,WASHINGTON,DISTRICT OF COLUMBIA,South,Washington-Arlington-Alexandria DC-VA-MD-WV,5
20423,-77.0369,38.8951,DC,District of Columbia,WASHINGTON,DISTRICT OF COLUMBIA,South,Washington-Arlington-Alexandria DC-VA-MD-WV,5
20424,-77.0369,38.8951,DC,District of Columbia,WASHINGTON,DISTRICT OF COLUMBIA,South,Washington-Arlington-Alexandria DC-VA-MD-WV,5
20425,-77.0369,38.8951,DC,District of Columbia,WASHINGTON,DISTRICT OF COLUMBIA,South,Washington-Arlington-Alexandria DC-VA-MD-WV,5
20426,-77.0187,38.9085,DC,District of Columbia,WASHINGTON,DISTRICT OF COLUMBIA,South,Washington-Arlington-Alexandria DC-VA-MD-WV,5
20427,-77.0369,38.8951,DC,District of Columbia,WASHINGTON,DISTRICT OF COLUMBIA,South,Washington-Arlington-Alexandria DC-VA-MD-WV,5
20428,-77.0369,38.8951,DC,District of Columbia,WASHINGTON,DISTRICT OF COLUMBIA,South,Washington-Arlington-Alexandria DC-VA-MD-WV,5
20429,-77.0369,38.8951,DC,District of Columbia,WASHINGTON,DISTRICT OF COLUMBIA,South,Washington-Arlington-Alexandria DC-VA-MD-WV,5
20431,-77.0369,38.8951,DC,District of Columbia,WASHINGTON,DISTRICT OF COLUMBIA,South,Washington-Arlington-Alexandria DC-VA-MD-WV,5
20433,-77.0369,38.8951,DC,District of Columbia,WASHINGTON,DISTRICT OF COLUMBIA,South,Washington-Arlington-Alexandria DC-VA-MD-WV,5
20434,-77.0369,38.8951,DC,District of Columbia,WASHINGTON,DISTRICT OF COLUMBIA,South,Washington-Arlington-Alexandria DC-VA-MD-WV,5
20435,-77.0369,38.8951,DC,District of Columbia,WASHINGTON,DISTRICT OF COLUMBIA,South,Washington-Arlington-Alexandria DC-VA-MD-WV,5
20436,-77.0369,38.8951,DC,District of Columbia,WASHINGTON,DISTRICT OF COLUMBIA,South,Washington-Arlington-Alexandria DC-VA-MD-WV,5
20437,-77.0369,38.8951,DC,District of Columbia,WASHINGTON,DISTRICT OF COLUMBIA,South,Washington-Arlington-Alexandria DC-VA-MD-WV,5
20439,-77.0369,38.8951,DC,District of Columbia,WASHINGTON,DISTRICT OF COLUMBIA,South,Washington-Arlington-Alexandria DC-VA-MD-WV,5
20440,-77.0369,38.8951,DC,District of Columbia,WASHINGTON,DISTRICT OF COLUMBIA,South,Washington-Arlington-Alexandria DC-VA-MD-WV,5
20441,-77.0369,38.8951,DC,District of Columbia,WASHINGTON,DISTRICT OF COLUMBIA,South,Washington-Arlington-Alexandria DC-VA-MD-WV,5
20442,-77.0369,38.8951,DC,District of Columbia,WASHINGTON,DISTRICT OF COLUMBIA,South,Washington-Arlington-Alexandria DC-VA-MD-WV,5
20444,-77.0369,38.8951,DC,District of Columbia,WASHINGTON,DISTRICT OF COLUMBIA,South,Washington-Arlington-Alexandria DC-VA-MD-WV,5
20447,-77.0369,38.8951,DC,District of Columbia,WASHINGTON,DISTRICT OF COLUMBIA,South,Washington-Arlington-Alexandria DC-VA-MD-WV,5
20451,-77.0369,38.8951,DC,District of Columbia,WASHINGTON,DISTRICT OF COLUMBIA,South,Washington-Arlington-Alexandria DC-VA-MD-WV,5
20453,-77.0369,38.8951,DC,District of Columbia,WASHINGTON,DISTRICT OF COLUMBIA,South,Washington-Arlington-Alexandria DC-VA-MD-WV,5
20456,-77.0369,38.8951,DC,District of Columbia,WASHINGTON,DISTRICT OF COLUMBIA,South,Washington-Arlington-Alexandria DC-VA-MD-WV,5
20460,-77.0369,38.8951,DC,District of Columbia,WASHINGTON,DISTRICT OF COLUMBIA,South,Washington-Arlington-Alexandria DC-VA-MD-WV,5
20463,-77.0369,38.8951,DC,District of Columbia,WASHINGTON,DISTRICT OF COLUMBIA,South,Washington-Arlington-Alexandria DC-VA-MD-WV,5
20468,-77.0369,38.8951,DC,District of Columbia,WASHINGTON,DISTRICT OF COLUMBIA,South,Washington-Arlington-Alexandria DC-VA-MD-WV,5
20469,-77.0369,38.8951,DC,District of Columbia,WASHINGTON,DISTRICT OF COLUMBIA,South,Washington-Arlington-Alexandria DC-VA-MD-WV,5
20470,-77.0369,38.8951,DC,District of Columbia,WASHINGTON,DISTRICT OF COLUMBIA,South,Washington-Arlington-Alexandria DC-VA-MD-WV,5
20472,-77.0369,38.8951,DC,District of Columbia,WASHINGTON,DISTRICT OF COLUMBIA,South,Washington-Arlington-Alexandria DC-VA-MD-WV,5
20501,-77.0369,38.8951,DC,District of Columbia,WASHINGTON,DISTRICT OF COLUMBIA,South,Washington-Arlington-Alexandria DC-VA-MD-WV,5
20502,-77.0369,38.8951,DC,District of Columbia,WASHINGTON,DISTRICT OF COLUMBIA,South,Washington-Arlington-Alexandria DC-VA-MD-WV,5
20503,-77.0369,38.8951,DC,District of Columbia,WASHINGTON,DISTRICT OF COLUMBIA,South,Washington-Arlington-Alexandria DC-VA-MD-WV,5
20504,-77.0425,38.8986,DC,District of Columbia,WASHINGTON,DISTRICT OF COLUMBIA,South,Washington-Arlington-Alexandria DC-VA-MD-WV,5
20505,-77.0369,38.8951,DC,District of Columbia,WASHINGTON,DISTRICT OF COLUMBIA,South,Washington-Arlington-Alexandria DC-VA-MD-WV,5
20506,-77.0369,38.8951,DC,District of Columbia,WASHINGTON,DISTRICT OF COLUMBIA,South,Washington-Arlington-Alexandria DC-VA-MD-WV,5
20507,-77.0369,38.8951,DC,District of Columbia,WASHINGTON,DISTRICT OF COLUMBIA,South,Washington-Arlington-Alexandria DC-VA-MD-WV,5
20508,-77.0367,38.8926,DC,District of Columbia,WASHINGTON,DISTRICT OF COLUMBIA,South,Washington-Arlington-Alexandria DC-VA-MD-WV,5
20509,-77.0369,38.8951,DC,District of Columbia,WASHINGTON,DISTRICT OF COLUMBIA,South,Washington-Arlington-Alexandria DC-VA-MD-WV,5
20510,-77.0369,38.8951,DC,District of Columbia,WASHINGTON,DISTRICT OF COLUMBIA,South,Washington-Arlington-Alexandria DC-VA-MD-WV,5
20511,-77.05,38.98,DC,District of Columbia,WASHINGTON,DISTRICT OF COLUMBIA,South,Washington-Arlington-Alexandria DC-VA-MD-WV,5
20515,-77.0369,38.8951,DC,District of Columbia,WASHINGTON,DISTRICT OF COLUMBIA,South,Washington-Arlington-Alexandria DC-VA-MD-WV,5
20520,-77.0369,38.8951,DC,District of Columbia,WASHINGTON,DISTRICT OF COLUMBIA,South,Washington-Arlington-Alexandria DC-VA-MD-WV,5
20521,-77.0496,38.8943,DC,District of Columbia,WASHINGTON,DISTRICT OF COLUMBIA,South,Washington-Arlington-Alexandria DC-VA-MD-WV,5
20522,-77.0366,38.8927,DC,District of Columbia,WASHINGTON,DISTRICT OF COLUMBIA,South,Washington-Arlington-Alexandria DC-VA-MD-WV,5
20523,-77.0369,38.8951,DC,District of Columbia,WASHINGTON,DISTRICT OF COLUMBIA,South,Washington-Arlington-Alexandria DC-VA-MD-WV,5
20524,-77.0369,38.8951,DC,District of Columbia,WASHINGTON,DISTRICT OF COLUMBIA,South,Washington-Arlington-Alexandria DC-VA-MD-WV,5
20525,-77.0369,38.8951,DC,District of Columbia,WASHINGTON,DISTRICT OF COLUMBIA,South,Washington-Arlington-Alexandria DC-VA-MD-WV,5
20526,-77.0369,38.8951,DC,District of Columbia,WASHINGTON,DISTRICT OF COLUMBIA,South,Washington-Arlington-Alexandria DC-VA-MD-WV,5
20527,-77.0369,38.8951,DC,District of Columbia,WASHINGTON,DISTRICT OF COLUMBIA,South,Washington-Arlington-Alexandria DC-VA-MD-WV,5
20528,-77.026961,38.896802,DC,District of Columbia,WASHINGTON,DISTRICT OF COLUMBIA,South,Washington-Arlington-Alexandria DC-VA-MD-WV,5
20529,-77.00985,38.897648,DC,District of Columbia,WASHINGTON,DISTRICT OF COLUMBIA,South,Washington-Arlington-Alexandria DC-VA-MD-WV,5
20530,-77.0369,38.8951,DC,District of Columbia,WASHINGTON,DISTRICT OF COLUMBIA,South,Washington-Arlington-Alexandria DC-VA-MD-WV,5
20531,-77.0369,38.8951,DC,District of Columbia,WASHINGTON,DISTRICT OF COLUMBIA,South,Washington-Arlington-Alexandria DC-VA-MD-WV,5
20532,-77.0369,38.8951,DC,District of Columbia,WASHINGTON,DISTRICT OF COLUMBIA,South,Washington-Arlington-Alexandria DC-VA-MD-WV,5
20533,-77.0369,38.8951,DC,District of Columbia,WASHINGTON,DISTRICT OF COLUMBIA,South,Washington-Arlington-Alexandria DC-VA-MD-WV,5
20534,-77.0369,38.8951,DC,District of Columbia,WASHINGTON,DISTRICT OF COLUMBIA,South,Washington-Arlington-Alexandria DC-VA-MD-WV,5
20535,-77.0369,38.8951,DC,District of Columbia,WASHINGTON,DISTRICT OF COLUMBIA,South,Washington-Arlington-Alexandria DC-VA-MD-WV,5
20536,-77.0369,38.8951,DC,District of Columbia,WASHINGTON,DISTRICT OF COLUMBIA,South,Washington-Arlington-Alexandria DC-VA-MD-WV,5
20537,-77.0369,38.8951,DC,District of Columbia,WASHINGTON,DISTRICT OF COLUMBIA,South,Washington-Arlington-Alexandria DC-VA-MD-WV,5
20538,-77.0369,38.8951,DC,District of Columbia,WASHINGTON,DISTRICT OF COLUMBIA,South,Washington-Arlington-Alexandria DC-VA-MD-WV,5
20539,-77.0369,38.8951,DC,District of Columbia,WASHINGTON,DISTRICT OF COLUMBIA,South,Washington-Arlington-Alexandria DC-VA-MD-WV,5
20540,-77.0369,38.8951,DC,District of Columbia,WASHINGTON,DISTRICT OF COLUMBIA,South,Washington-Arlington-Alexandria DC-VA-MD-WV,5
20541,-77.0369,38.8951,DC,District of Columbia,WASHINGTON,DISTRICT OF COLUMBIA,South,Washington-Arlington-Alexandria DC-VA-MD-WV,5
20542,-77.0369,38.8951,DC,District of Columbia,WASHINGTON,DISTRICT OF COLUMBIA,South,Washington-Arlington-Alexandria DC-VA-MD-WV,5
20543,-77.0369,38.8951,DC,District of Columbia,WASHINGTON,DISTRICT OF COLUMBIA,South,Washington-Arlington-Alexandria DC-VA-MD-WV,5
20544,-77.0369,38.8951,DC,District of Columbia,WASHINGTON,DISTRICT OF COLUMBIA,South,Washington-Arlington-Alexandria DC-VA-MD-WV,5
20546,-77.0369,38.8951,DC,District of Columbia,WASHINGTON,DISTRICT OF COLUMBIA,South,Washington-Arlington-Alexandria DC-VA-MD-WV,5
20547,-77.0369,38.8951,DC,District of Columbia,WASHINGTON,DISTRICT OF COLUMBIA,South,Washington-Arlington-Alexandria DC-VA-MD-WV,5
20548,-77.0369,38.8951,DC,District of Columbia,WASHINGTON,DISTRICT OF COLUMBIA,South,Washington-Arlington-Alexandria DC-VA-MD-WV,5
20549,-77.0369,38.8951,DC,District of Columbia,WASHINGTON,DISTRICT OF COLUMBIA,South,Washington-Arlington-Alexandria DC-VA-MD-WV,5
20551,-77.0369,38.8951,DC,District of Columbia,WASHINGTON,DISTRICT OF COLUMBIA,South,Washington-Arlington-Alexandria DC-VA-MD-WV,5
20552,-77.0369,38.8951,DC,District of Columbia,WASHINGTON,DISTRICT OF COLUMBIA,South,Washington-Arlington-Alexandria DC-VA-MD-WV,5
20553,-77.0369,38.8951,DC,District of Columbia,WASHINGTON,DISTRICT OF COLUMBIA,South,Washington-Arlington-Alexandria DC-VA-MD-WV,5
20554,-77.0369,38.8951,DC,District of Columbia,WASHINGTON,DISTRICT OF COLUMBIA,South,Washington-Arlington-Alexandria DC-VA-MD-WV,5
20555,-77.0369,38.8951,DC,District of Columbia,WASHINGTON,DISTRICT OF COLUMBIA,South,Washington-Arlington-Alexandria DC-VA-MD-WV,5
20557,-77.0369,38.8951,DC,District of Columbia,WASHINGTON,DISTRICT OF COLUMBIA,South,Washington-Arlington-Alexandria DC-VA-MD-WV,5
20558,-77.0369,38.8951,DC,District of Columbia,WASHINGTON,DISTRICT OF COLUMBIA,South,Washington-Arlington-Alexandria DC-VA-MD-WV,5
20559,-77.0369,38.8951,DC,District of Columbia,WASHINGTON,DISTRICT OF COLUMBIA,South,Washington-Arlington-Alexandria DC-VA-MD-WV,5
20560,-77.0369,38.8951,DC,District of Columbia,WASHINGTON,DISTRICT OF COLUMBIA,South,Washington-Arlington-Alexandria DC-VA-MD-WV,5
20565,-77.0369,38.8951,DC,District of Columbia,WASHINGTON,DISTRICT OF COLUMBIA,South,Washington-Arlington-Alexandria DC-VA-MD-WV,5
20566,-77.0369,38.8951,DC,District of Columbia,WASHINGTON,DISTRICT OF COLUMBIA,South,Washington-Arlington-Alexandria DC-VA-MD-WV,5
20570,-77.0369,38.8951,DC,District of Columbia,WASHINGTON,DISTRICT OF COLUMBIA,South,Washington-Arlington-Alexandria DC-VA-MD-WV,5
20571,-77.0369,38.8951,DC,District of Columbia,WASHINGTON,DISTRICT OF COLUMBIA,South,Washington-Arlington-Alexandria DC-VA-MD-WV,5
20572,-77.0369,38.8951,DC,District of Columbia,WASHINGTON,DISTRICT OF COLUMBIA,South,Washington-Arlington-Alexandria DC-VA-MD-WV,5
20573,-77.0369,38.8951,DC,District of Columbia,WASHINGTON,DISTRICT OF COLUMBIA,South,Washington-Arlington-Alexandria DC-VA-MD-WV,5
20575,-77.0369,38.8951,DC,District of Columbia,WASHINGTON,DISTRICT OF COLUMBIA,South,Washington-Arlington-Alexandria DC-VA-MD-WV,5
20576,-77.0369,38.8951,DC,District of Columbia,WASHINGTON,DISTRICT OF COLUMBIA,South,Washington-Arlington-Alexandria DC-VA-MD-WV,5
20577,-77.0369,38.8951,DC,District of Columbia,WASHINGTON,DISTRICT OF COLUMBIA,South,Washington-Arlington-Alexandria DC-VA-MD-WV,5
20578,-77.0369,38.8951,DC,District of Columbia,WASHINGTON,DISTRICT OF COLUMBIA,South,Washington-Arlington-Alexandria DC-VA-MD-WV,5
20579,-77.0369,38.8951,DC,District of Columbia,WASHINGTON,DISTRICT OF COLUMBIA,South,Washington-Arlington-Alexandria DC-VA-MD-WV,5
20580,-77.0369,38.8951,DC,District of Columbia,WASHINGTON,DISTRICT OF COLUMBIA,South,Washington-Arlington-Alexandria DC-VA-MD-WV,5
20581,-77.0369,38.8951,DC,District of Columbia,WASHINGTON,DISTRICT OF COLUMBIA,South,Washington-Arlington-Alexandria DC-VA-MD-WV,5
20585,-77.0369,38.8951,DC,District of Columbia,WASHINGTON,DISTRICT OF COLUMBIA,South,Washington-Arlington-Alexandria DC-VA-MD-WV,5
20586,-77.0369,38.8951,DC,District of Columbia,WASHINGTON,DISTRICT OF COLUMBIA,South,Washington-Arlington-Alexandria DC-VA-MD-WV,5
20588,0,0,MD,Maryland,DHS,HOWARD,South,Baltimore-Columbia-Towson MD,5
20590,-77.0369,38.8951,DC,District of Columbia,WASHINGTON,DISTRICT OF COLUMBIA,South,Washington-Arlington-Alexandria DC-VA-MD-WV,5
20591,-77.0369,38.8951,DC,District of Columbia,WASHINGTON,DISTRICT OF COLUMBIA,South,Washington-Arlington-Alexandria DC-VA-MD-WV,5
20593,-77.0369,38.8951,DC,District of Columbia,WASHINGTON,DISTRICT OF COLUMBIA,South,Washington-Arlington-Alexandria DC-VA-MD-WV,5
20594,-77.0369,38.8951,DC,District of Columbia,WASHINGTON,DISTRICT OF COLUMBIA,South,Washington-Arlington-Alexandria DC-VA-MD-WV,5
20597,-77.0369,38.8951,DC,District of Columbia,WASHINGTON,DISTRICT OF COLUMBIA,South,Washington-Arlington-Alexandria DC-VA-MD-WV,5
20598,0,0,VA,Virginia,DHS,LOUDOUN,South,Washington-Arlington-Alexandria DC-VA-MD-WV,5
20599,-77.0369,38.8951,DC,District of Columbia,WASHINGTON,DISTRICT OF COLUMBIA,South,Washington-Arlington-Alexandria DC-VA-MD-WV,5
20697,-76.9083,39.0314,MD,Maryland,SOUTHERN MD FACILITY,PRINCE GEORGES,South,Washington-Arlington-Alexandria DC-VA-MD-WV,5
20742,-76.9421,38.989984,MD,Maryland,COLLEGE PARK,PRINCE GEORGES,South,Washington-Arlington-Alexandria DC-VA-MD-WV,5
20771,-76.853014,38.99743,MD,Maryland,GREENBELT,PRINCE GEORGES,South,Washington-Arlington-Alexandria DC-VA-MD-WV,5
20797,-76.8427,39.0914,MD,Maryland,SOUTHERN MD FACILITY,PRINCE GEORGES,South,Washington-Arlington-Alexandria DC-VA-MD-WV,5
20799,-76.8536,38.8807,MD,Maryland,CAPITOL HEIGHTS,PRINCE GEORGES,South,Washington-Arlington-Alexandria DC-VA-MD-WV,5
20810,-77.1008,38.9806,MD,Maryland,BETHESDA,MONTGOMERY,South,Washington-Arlington-Alexandria DC-VA-MD-WV,5
20811,-77.1008,38.9806,MD,Maryland,BETHESDA,MONTGOMERY,South,Washington-Arlington-Alexandria DC-VA-MD-WV,5
20857,-77.1534,39.0839,MD,Maryland,ROCKVILLE,MONTGOMERY,South,Washington-Arlington-Alexandria DC-VA-MD-WV,5
20889,-77.1006,38.9808,MD,Maryland,BETHESDA,MONTGOMERY,South,Washington-Arlington-Alexandria DC-VA-MD-WV,5
20892,-77.1056,39.0003,MD,Maryland,BETHESDA,MONTGOMERY,South,Washington-Arlington-Alexandria DC-VA-MD-WV,5
20894,-77.1006,38.9808,MD,Maryland,BETHESDA,MONTGOMERY,South,Washington-Arlington-Alexandria DC-VA-MD-WV,5
20897,-77.0578,39.0876,MD,Maryland,SUBURB MARYLAND FAC,MONTGOMERY,South,Washington-Arlington-Alexandria DC-VA-MD-WV,5
20899,-77.2018,39.1434,MD,Maryland,GAITHERSBURG,MONTGOMERY,South,Washington-Arlington-Alexandria DC-VA-MD-WV,5
20993,-76.986628,39.033471,MD,Maryland,SILVER SPRING,MONTGOMERY,South,Washington-Arlington-Alexandria DC-VA-MD-WV,5
20997,-77.0263,38.9936,MD,Maryland,SILVER SPRING,MONTGOMERY,South,Washington-Arlington-Alexandria DC-VA-MD-WV,5
21062,-76.625,39.1626,MD,Maryland,GLEN BURNIE,ANNE ARUNDEL,South,Baltimore-Columbia-Towson MD,5
21065,-76.6448,39.4808,MD,Maryland,HUNT VALLEY,BALTIMORE,South,Baltimore-Columbia-Towson MD,5
21235,-76.7326,39.3118,MD,Maryland,BALTIMORE,BALTIMORE CITY,South,Baltimore-Columbia-Towson MD,5
21241,-76.6125,39.2905,MD,Maryland,BALTIMORE,BALTIMORE CITY,South,Baltimore-Columbia-Towson MD,5
21250,-76.708412,39.252078,MD,Maryland,BALTIMORE,BALTIMORE,South,Baltimore-Columbia-Towson MD,5
21251,-76.582096,39.34227,MD,Maryland,BALTIMORE,BALTIMORE CITY,South,Baltimore-Columbia-Towson MD,5
21252,-76.617784,39.387026,MD,Maryland,TOWSON,BALTIMORE,South,Baltimore-Columbia-Towson MD,5
21263,-76.6125,39.2905,MD,Maryland,BALTIMORE,BALTIMORE CITY,South,Baltimore-Columbia-Towson MD,5
21264,-76.6125,39.2905,MD,Maryland,BALTIMORE,BALTIMORE CITY,South,Baltimore-Columbia-Towson MD,5
21273,-76.6125,39.2905,MD,Maryland,BALTIMORE,BALTIMORE CITY,South,Baltimore-Columbia-Towson MD,5
21275,-76.6125,39.2905,MD,Maryland,BALTIMORE,BALTIMORE CITY,South,Baltimore-Columbia-Towson MD,5
21278,-76.6125,39.2905,MD,Maryland,BALTIMORE,BALTIMORE CITY,South,Baltimore-Columbia-Towson MD,5
21279,-76.6125,39.2905,MD,Maryland,BALTIMORE,BALTIMORE CITY,South,Baltimore-Columbia-Towson MD,5
21280,-76.6125,39.2905,MD,Maryland,BALTIMORE,BALTIMORE CITY,South,Baltimore-Columbia-Towson MD,5
21287,-76.6125,39.2905,MD,Maryland,BALTIMORE,BALTIMORE CITY,South,Baltimore-Columbia-Towson MD,5
21288,-76.6125,39.2905,MD,Maryland,BALTIMORE,BALTIMORE CITY,South,Baltimore-Columbia-Towson MD,5
21289,-76.6125,39.2905,MD,Maryland,BALTIMORE,BALTIMORE CITY,South,Baltimore-Columbia-Towson MD,5
21290,-76.6125,39.2905,MD,Maryland,BALTIMORE,BALTIMORE CITY,South,Baltimore-Columbia-Towson MD,5
21298,-76.6125,39.2905,MD,Maryland,BALTIMORE,BALTIMORE CITY,South,Baltimore-Columbia-Towson MD,5
21411,-76.4928,38.9785,MD,Maryland,ANNAPOLIS,ANNE ARUNDEL,South,Baltimore-Columbia-Towson MD,5
21412,-76.4928,38.9785,MD,Maryland,ANNAPOLIS,ANNE ARUNDEL,South,Baltimore-Columbia-Towson MD,5
21690,-76.0668,39.2091,MD,Maryland,CHESTERTOWN,QUEEN ANNES,South,Baltimore-Columbia-Towson MD,5
21709,-77.4105,39.4142,MD,Maryland,FREDERICK,FREDERICK,South,Washington-Arlington-Alexandria DC-VA-MD-WV,5
21746,-77.7151,39.6425,MD,Maryland,HAGERSTOWN,WASHINGTON,South,Hagerstown-Martinsburg MD-WV,5
21749,-77.7197,39.6447,MD,Maryland,HAGERSTOWN,WASHINGTON,South,Hagerstown-Martinsburg MD-WV,5
21890,-75.8286,38.0897,MD,Maryland,WESTOVER,SOMERSET,South,Salisbury MD-DE,5
22037,-77.2269,38.8596,VA,Virginia,FAIRFAX,FAIRFAX,South,Washington-Arlington-Alexandria DC-VA-MD-WV,5
22082,-77.2272,38.8745,VA,Virginia,MERRIFIELD,FAIRFAX,South,Washington-Arlington-Alexandria DC-VA-MD-WV,5
22095,-77.3866,38.9696,VA,Virginia,HERNDON,FAIRFAX,South,Washington-Arlington-Alexandria DC-VA-MD-WV,5
22096,-77.3373,38.9627,VA,Virginia,RESTON,FAIRFAX,South,Washington-Arlington-Alexandria DC-VA-MD-WV,5
22107,-77.1828,38.9327,VA,Virginia,MC LEAN,FAIRFAX,South,Washington-Arlington-Alexandria DC-VA-MD-WV,5
22108,-77.1828,38.9327,VA,Virginia,MC LEAN,FAIRFAX,South,Washington-Arlington-Alexandria DC-VA-MD-WV,5
22109,-77.1828,38.9327,VA,Virginia,MC LEAN,FAIRFAX,South,Washington-Arlington-Alexandria DC-VA-MD-WV,5
22118,-77.2272,38.8745,VA,Virginia,MERRIFIELD,FAIRFAX,South,Washington-Arlington-Alexandria DC-VA-MD-WV,5
22119,-77.2272,38.8745,VA,Virginia,MERRIFIELD,FAIRFAX,South,Washington-Arlington-Alexandria DC-VA-MD-WV,5
22135,-77.2938,38.5225,VA,Virginia,QUANTICO,STAFFORD,South,Washington-Arlington-Alexandria DC-VA-MD-WV,5
22156,-77.1878,38.7893,VA,Virginia,SPRINGFIELD,FAIRFAX,South,Washington-Arlington-Alexandria DC-VA-MD-WV,5
22158,-77.1878,38.7893,VA,Virginia,SPRINGFIELD,FAIRFAX,South,Washington-Arlington-Alexandria DC-VA-MD-WV,5
22159,-77.1878,38.7893,VA,Virginia,SPRINGFIELD,FAIRFAX,South,Washington-Arlington-Alexandria DC-VA-MD-WV,5
22160,-77.1878,38.7893,VA,Virginia,SPRINGFIELD,FAIRFAX,South,Washington-Arlington-Alexandria DC-VA-MD-WV,5
22161,-77.1878,38.7893,VA,Virginia,SPRINGFIELD,FAIRFAX,South,Washington-Arlington-Alexandria DC-VA-MD-WV,5
22185,-77.2656,38.9014,VA,Virginia,VIENNA,FAIRFAX,South,Washington-Arlington-Alexandria DC-VA-MD-WV,5
22212,-77.1035,38.8675,VA,Virginia,ARLINGTON,ARLINGTON,South,Washington-Arlington-Alexandria DC-VA-MD-WV,5
22217,-77.1039,38.869,VA,Virginia,ARLINGTON,ARLINGTON,South,Washington-Arlington-Alexandria DC-VA-MD-WV,5
22225,-77.0576,38.8696,VA,Virginia,ARLINGTON,ARLINGTON,South,Washington-Arlington-Alexandria DC-VA-MD-WV,5
22226,-77.1117,38.8797,VA,Virginia,ARLINGTON,ARLINGTON,South,Washington-Arlington-Alexandria DC-VA-MD-WV,5
22227,-77.1118,38.8801,VA,Virginia,ARLINGTON,ARLINGTON,South,Washington-Arlington-Alexandria DC-VA-MD-WV,5
22230,-77.1154,38.8803,VA,Virginia,ARLINGTON,ARLINGTON,South,Washington-Arlington-Alexandria DC-VA-MD-WV,5
22240,-77.1154,38.8803,VA,Virginia,ARLINGTON,ARLINGTON,South,Washington-Arlington-Alexandria DC-VA-MD-WV,5
22241,-77.1154,38.8803,VA,Virginia,ARLINGTON,ARLINGTON,South,Washington-Arlington-Alexandria DC-VA-MD-WV,5
22242,-77.1154,38.8803,VA,Virginia,ARLINGTON,ARLINGTON,South,Washington-Arlington-Alexandria DC-VA-MD-WV,5
22243,-77.1154,38.8803,VA,Virginia,ARLINGTON,ARLINGTON,South,Washington-Arlington-Alexandria DC-VA-MD-WV,5
22244,-77.1154,38.8803,VA,Virginia,ARLINGTON,ARLINGTON,South,Washington-Arlington-Alexandria DC-VA-MD-WV,5
22245,-77.1154,38.8803,VA,Virginia,ARLINGTON,ARLINGTON,South,Washington-Arlington-Alexandria DC-VA-MD-WV,5
22246,-77.0952,38.8862,VA,Virginia,ARLINGTON,ARLINGTON,South,Washington-Arlington-Alexandria DC-VA-MD-WV,5
22333,-77.0475,38.8049,VA,Virginia,ALEXANDRIA,ALEXANDRIA CITY,South,Washington-Arlington-Alexandria DC-VA-MD-WV,5
22334,-77.0475,38.8049,VA,Virginia,ALEXANDRIA,ALEXANDRIA CITY,South,Washington-Arlington-Alexandria DC-VA-MD-WV,5
22350,-77.049179,38.799584,VA,Virginia,ALEXANDRIA,ALEXANDRIA CITY,South,Washington-Arlington-Alexandria DC-VA-MD-WV,5
22412,-77.4984,38.2834,VA,Virginia,FREDERICKSBURG,STAFFORD,South,Washington-Arlington-Alexandria DC-VA-MD-WV,5
22428,-77.3467,38.0496,VA,Virginia,BOWLING GREEN,CAROLINE,South,Richmond VA,5
22807,-78.866333,38.43324,VA,Virginia,HARRISONBURG,HARRISONBURG CITY,South,Harrisonburg VA,5
22907,-78.4769,38.0295,VA,Virginia,CHARLOTTESVILLE,CHARLOTTESVILLE CITY,South,Charlottesville VA,5
22908,-78.4769,38.0295,VA,Virginia,CHARLOTTESVILLE,CHARLOTTESVILLE CITY,South,Charlottesville VA,5
22909,-78.4726,38.0446,VA,Virginia,CHARLOTTESVILLE,ALBEMARLE,South,Charlottesville VA,5
22910,-78.4769,38.0295,VA,Virginia,CHARLOTTESVILLE,CHARLOTTESVILLE CITY,South,Charlottesville VA,5
23173,-77.542178,37.575548,VA,Virginia,RICHMOND,RICHMOND CITY,South,Richmond VA,5
23186,-76.725121,37.269465,VA,Virginia,WILLIAMSBURG,WILLIAMSBURG CITY,South,Virginia Beach-Norfolk-Newport News VA-NC,5
23249,-77.4609,37.5537,VA,Virginia,RICHMOND,RICHMOND CITY,South,Richmond VA,5
23269,-77.4609,37.5537,VA,Virginia,RICHMOND,RICHMOND CITY,South,Richmond VA,5
23273,-77.4609,37.5537,VA,Virginia,HENRICO,RICHMOND CITY,South,Richmond VA,5
23274,-77.4609,37.5537,VA,Virginia,RICHMOND,RICHMOND CITY,South,Richmond VA,5
23276,-77.4609,37.5537,VA,Virginia,RICHMOND,RICHMOND CITY,South,Richmond VA,5
23278,-77.4609,37.5537,VA,Virginia,RICHMOND,RICHMOND CITY,South,Richmond VA,5
23279,-77.4609,37.5537,VA,Virginia,RICHMOND,RICHMOND CITY,South,Richmond VA,5
23282,-77.4609,37.5537,VA,Virginia,RICHMOND,RICHMOND CITY,South,Richmond VA,5
23286,-77.4609,37.5537,VA,Virginia,RICHMOND,RICHMOND CITY,South,Richmond VA,5
23288,-77.5568,37.5944,VA,Virginia,HENRICO,HENRICO,South,Richmond VA,5
23289,-77.4487,37.5436,VA,Virginia,RICHMOND,RICHMOND CITY,South,Richmond VA,5
23290,-77.4609,37.5537,VA,Virginia,RICHMOND,RICHMOND CITY,South,Richmond VA,5
23291,-77.4609,37.5537,VA,Virginia,RICHMOND,RICHMOND CITY,South,Richmond VA,5
23292,-77.4609,37.5537,VA,Virginia,RICHMOND,RICHMOND CITY,South,Richmond VA,5
23293,-77.4609,37.5537,VA,Virginia,RICHMOND,RICHMOND CITY,South,Richmond VA,5
23295,-77.4609,37.5537,VA,Virginia,RICHMOND,RICHMOND CITY,South,Richmond VA,5
23297,-77.4743,37.4528,VA,Virginia,RICHMOND,CHESTERFIELD,South,Richmond VA,5
23326,-76.2753,36.8187,VA,Virginia,CHESAPEAKE,CHESAPEAKE CITY,South,Virginia Beach-Norfolk-Newport News VA-NC,5
23463,-76.192694,36.798551,VA,Virginia,VIRGINIA BEACH,VIRGINIA BEACH CITY,South,Virginia Beach-Norfolk-Newport News VA-NC,5
23465,-75.9783,36.8526,VA,Virginia,VIRGINIA BEACH,VIRGINIA BEACH CITY,South,Virginia Beach-Norfolk-Newport News VA-NC,5
23479,-75.9783,36.8526,VA,Virginia,VIRGINIA BEACH,VIRGINIA BEACH CITY,South,Virginia Beach-Norfolk-Newport News VA-NC,5
23515,-76.2859,36.8468,VA,Virginia,NORFOLK,NORFOLK CITY,South,Virginia Beach-Norfolk-Newport News VA-NC,5
23529,-76.305408,36.888004,VA,Virginia,NORFOLK,NORFOLK CITY,South,Virginia Beach-Norfolk-Newport News VA-NC,5
23551,-76.2859,36.8468,VA,Virginia,NORFOLK,NORFOLK CITY,South,Virginia Beach-Norfolk-Newport News VA-NC,5
23628,-76.4284,36.9786,VA,Virginia,NEWPORT NEWS,NEWPORT NEWS CITY,South,Virginia Beach-Norfolk-Newport News VA-NC,5
23630,-76.4284,36.9786,VA,Virginia,HAMPTON,HAMPTON CITY,South,Virginia Beach-Norfolk-Newport News VA-NC,5
23667,-76.3561,37.019,VA,Virginia,HAMPTON,HAMPTON CITY,South,Virginia Beach-Norfolk-Newport News VA-NC,5
23668,-76.332127,37.020366,VA,Virginia,HAMPTON,HAMPTON CITY,South,Virginia Beach-Norfolk-Newport News VA-NC,5
23681,-76.3403,37.0301,VA,Virginia,HAMPTON,HAMPTON CITY,South,Virginia Beach-Norfolk-Newport News VA-NC,5
23806,-77.419735,37.238228,VA,Virginia,VIRGINIA STATE UNIVERSITY,PETERSBURG CITY,South,Richmond VA,5
23870,-77.4645,36.8086,VA,Virginia,JARRATT,GREENSVILLE,South,,5
23891,-77.1013,37.0394,VA,Virginia,WAVERLY,SUSSEX,South,Richmond VA,5
23909,-78.397849,37.300518,VA,Virginia,FARMVILLE,PRINCE EDWARD,South,,5
24040,-79.9418,37.2709,VA,Virginia,ROANOKE,ROANOKE CITY,South,Roanoke VA,5
24042,-79.9418,37.2709,VA,Virginia,ROANOKE,ROANOKE CITY,South,Roanoke VA,5
24043,-79.9418,37.2709,VA,Virginia,ROANOKE,ROANOKE CITY,South,Roanoke VA,5
24050,-79.9616,37.3334,VA,Virginia,ROANOKE,BOTETOURT,South,Roanoke VA,5
24061,-80.4149,37.2286,VA,Virginia,BLACKSBURG,MONTGOMERY,South,Blacksburg-Christiansburg-Radford VA,5
24155,-80.0553,37.2935,VA,Virginia,ROANOKE,SALEM,South,Roanoke VA,5
24157,-80.0553,37.2935,VA,Virginia,ROANOKE,SALEM,South,Roanoke VA,5
24205,0,0,VA,Virginia,BRISTOL,BRISTOL CITY,South,Kingsport-Bristol-Bristol TN-VA,5
24513,-79.1401,37.414,VA,Virginia,LYNCHBURG,LYNCHBURG CITY,South,Lynchburg VA,5
24514,-79.1427,37.4136,VA,Virginia,LYNCHBURG,LYNCHBURG CITY,South,Lynchburg VA,5
24515,-79.1427,37.4136,VA,Virginia,LYNCHBURG,LYNCHBURG CITY,South,Lynchburg VA,5
25185,-81.2335,38.2383,WV,West Virginia,MOUNT OLIVE,FAYETTE,South,Beckley WV,5
25317,-81.6329,38.3494,WV,West Virginia,CHARLESTON,KANAWHA,South,Charleston WV,5
25392,-81.6329,38.3494,WV,West Virginia,CHARLESTON,KANAWHA,South,Charleston WV,5
25396,-81.6329,38.3494,WV,West Virginia,CHARLESTON,KANAWHA,South,Charleston WV,5
25755,-82.427299,38.423483,WV,West Virginia,HUNTINGTON,CABELL,South,Huntington-Ashland WV-KY-OH,5
25888,0,0,WV,West Virginia,MOUNT HOPE,FAYETTE,South,Beckley WV,5
26106,-81.5617,39.2667,WV,West Virginia,PARKERSBURG,WOOD,South,Parkersburg-Vienna WV,5
26120,-81.5322,39.1904,WV,West Virginia,MINERAL WELLS,WOOD,South,Parkersburg-Vienna WV,5
26121,-81.5322,39.1904,WV,West Virginia,MINERAL WELLS,WOOD,South,Parkersburg-Vienna WV,5
26306,-80.3443,39.2764,WV,West Virginia,CLARKSBURG,HARRISON,South,Clarksburg WV,5
27094,-80.2936,36.2404,NC,North Carolina,RURAL HALL,FORSYTH,South,Winston-Salem NC,5
27098,-80.2936,36.2404,NC,North Carolina,RURAL HALL,FORSYTH,South,Winston-Salem NC,5
27099,-80.2936,36.2404,NC,North Carolina,RURAL HALL,FORSYTH,South,Winston-Salem NC,5
27110,-80.224365,36.089442,NC,North Carolina,WINSTON SALEM,FORSYTH,South,Winston-Salem NC,5
27111,-80.2468,36.0986,NC,North Carolina,WINSTON SALEM,FORSYTH,South,Winston-Salem NC,5
27150,-80.2088,36.1002,NC,North Carolina,WINSTON SALEM,FORSYTH,South,Winston-Salem NC,5
27152,-80.2083,36.1005,NC,North Carolina,WINSTON SALEM,FORSYTH,South,Winston-Salem NC,5
27155,-80.2053,36.1025,NC,North Carolina,WINSTON SALEM,FORSYTH,South,Winston-Salem NC,5
27157,-80.2096,36.0964,NC,North Carolina,WINSTON SALEM,FORSYTH,South,Winston-Salem NC,5
27198,-80.2498,36.1003,NC,North Carolina,WINSTON SALEM,FORSYTH,South,Winston-Salem NC,5
27199,-80.2508,36.0987,NC,North Carolina,WINSTON SALEM,FORSYTH,South,Winston-Salem NC,5
27294,-80.2538,35.8238,NC,North Carolina,LEXINGTON,DAVIDSON,South,Winston-Salem NC,5
27411,-79.770908,36.078398,NC,North Carolina,GREENSBORO,GUILFORD,South,Greensboro-High Point NC,5
27412,-79.7925,36.0726,NC,North Carolina,GREENSBORO,GUILFORD,South,Greensboro-High Point NC,5
27413,-79.81084,36.06992,NC,North Carolina,GREENSBORO,GUILFORD,South,Greensboro-High Point NC,5
27497,-79.954254,36.078598,NC,North Carolina,GREENSBORO,GUILFORD,South,Greensboro-High Point NC,5
27498,-79.7925,36.0726,NC,North Carolina,GREENSBORO,GUILFORD,South,Greensboro-High Point NC,5
27499,-79.7925,36.0726,NC,North Carolina,GREENSBORO,GUILFORD,South,Greensboro-High Point NC,5
27599,-79.0561,35.9134,NC,North Carolina,CHAPEL HILL,ORANGE,South,Durham-Chapel Hill NC,5
27634,-78.6388,35.7719,NC,North Carolina,RALEIGH,WAKE,South,Raleigh NC,5
27635,-78.6388,35.7719,NC,North Carolina,RALEIGH,WAKE,South,Raleigh NC,5
27640,-78.6388,35.7719,NC,North Carolina,RALEIGH,WAKE,South,Raleigh NC,5
27656,-78.6388,35.7719,NC,North Carolina,RALEIGH,WAKE,South,Raleigh NC,5
27668,-78.6388,35.7719,NC,North Carolina,RALEIGH,WAKE,South,Raleigh NC,5
27690,-78.6388,35.7719,NC,North Carolina,RALEIGH,WAKE,South,Raleigh NC,5
27695,-78.720216,35.814801,NC,North Carolina,RALEIGH,WAKE,South,Raleigh NC,5
27697,-78.6388,35.7719,NC,North Carolina,RALEIGH,WAKE,South,Raleigh NC,5
27698,-78.6388,35.7719,NC,North Carolina,RALEIGH,WAKE,South,Raleigh NC,5
27699,-78.6388,35.7719,NC,North Carolina,RALEIGH,WAKE,South,Raleigh NC,5
27708,-78.9206,36.0073,NC,North Carolina,DURHAM,DURHAM,South,Durham-Chapel Hill NC,5
27710,-78.8986,35.9939,NC,North Carolina,DURHAM,DURHAM,South,Durham-Chapel Hill NC,5
27711,-78.8986,35.9939,NC,North Carolina,DURHAM,DURHAM,South,Durham-Chapel Hill NC,5
27815,-77.693237,35.924688,NC,North Carolina,ROCKY MOUNT,EDGECOMBE,South,Rocky Mount NC,5
28223,-80.733927,35.303614,NC,North Carolina,CHARLOTTE,MECKLENBURG,South,Charlotte-Concord-Gastonia NC-SC,5
28228,-80.8434,35.2267,NC,North Carolina,CHARLOTTE,MECKLENBURG,South,Charlotte-Concord-Gastonia NC-SC,5
28242,-80.8434,35.2267,NC,North Carolina,CHARLOTTE,MECKLENBURG,South,Charlotte-Concord-Gastonia NC-SC,5
28243,-80.8434,35.2267,NC,North Carolina,CHARLOTTE,MECKLENBURG,South,Charlotte-Concord-Gastonia NC-SC,5
28250,-80.8434,35.2267,NC,North Carolina,CHARLOTTE,MECKLENBURG,South,Charlotte-Concord-Gastonia NC-SC,5
28253,-80.8434,35.2267,NC,North Carolina,CHARLOTTE,MECKLENBURG,South,Charlotte-Concord-Gastonia NC-SC,5
28255,-80.8434,35.2267,NC,North Carolina,CHARLOTTE,MECKLENBURG,South,Charlotte-Concord-Gastonia NC-SC,5
28258,-80.8434,35.2267,NC,North Carolina,CHARLOTTE,MECKLENBURG,South,Charlotte-Concord-Gastonia NC-SC,5
28263,-80.69,35.21,NC,North Carolina,CHARLOTTE,MECKLENBURG,South,Charlotte-Concord-Gastonia NC-SC,5
28274,-80.834012,35.189283,NC,North Carolina,CHARLOTTE,MECKLENBURG,South,Charlotte-Concord-Gastonia NC-SC,5
28288,-80.8434,35.2267,NC,North Carolina,CHARLOTTE,MECKLENBURG,South,Charlotte-Concord-Gastonia NC-SC,5
28289,-80.8434,35.2267,NC,North Carolina,CHARLOTTE,MECKLENBURG,South,Charlotte-Concord-Gastonia NC-SC,5
28290,-80.8434,35.2267,NC,North Carolina,CHARLOTTE,MECKLENBURG,South,Charlotte-Concord-Gastonia NC-SC,5
28296,-80.8434,35.2267,NC,North Carolina,CHARLOTTE,MECKLENBURG,South,Charlotte-Concord-Gastonia NC-SC,5
28310,-79.165988,35.12672,NC,North Carolina,FORT BRAGG,CUMBERLAND,South,Fayetteville NC,5
28410,-77.9451,34.2257,NC,North Carolina,WILMINGTON,NEW HANOVER,South,Wilmington NC,5
28608,-81.678913,36.21414,NC,North Carolina,BOONE,WATAUGA,South,Boone NC,5
28633,-81.5393,35.9137,NC,North Carolina,LENOIR,CALDWELL,South,Hickory-Lenoir-Morganton NC,5
28656,-81.1478,36.1585,NC,North Carolina,NORTH WILKESBORO,WILKES,South,North Wilkesboro NC,5
29117,-80.84809,33.498438,SC,South Carolina,ORANGEBURG,ORANGEBURG,South,Orangeburg SC,5
29208,-81.028028,33.998363,SC,South Carolina,COLUMBIA,RICHLAND,South,Columbia SC,5
29214,-81.0353,34.0009,SC,South Carolina,COLUMBIA,RICHLAND,South,Columbia SC,5
29215,-81.0353,34.0009,SC,South Carolina,COLUMBIA,RICHLAND,South,Columbia SC,5
29216,-81.0353,34.0009,SC,South Carolina,COLUMBIA,RICHLAND,South,Columbia SC,5
29217,-81.0353,34.0009,SC,South Carolina,COLUMBIA,RICHLAND,South,Columbia SC,5
29218,-81.0353,34.0009,SC,South Carolina,COLUMBIA,RICHLAND,South,Columbia SC,5
29219,-81.0353,34.0009,SC,South Carolina,COLUMBIA,RICHLAND,South,Columbia SC,5
29220,-81.0353,34.0009,SC,South Carolina,COLUMBIA,RICHLAND,South,Columbia SC,5
29225,-81.0353,34.0009,SC,South Carolina,COLUMBIA,RICHLAND,South,Columbia SC,5
29226,-81.0353,34.0009,SC,South Carolina,COLUMBIA,RICHLAND,South,Columbia SC,5
29227,-81.0353,34.0009,SC,South Carolina,COLUMBIA,RICHLAND,South,Columbia SC,5
29319,-81.9325,34.9497,SC,South Carolina,SPARTANBURG,SPARTANBURG,South,Spartanburg SC,5
29395,-81.6924,34.8362,SC,South Carolina,JONESVILLE,UNION,South,Spartanburg SC,5
29409,-79.9312,32.7765,SC,South Carolina,CHARLESTON,CHARLESTON,South,Charleston-North Charleston SC,5
29424,-79.9308,32.7865,SC,South Carolina,CHARLESTON,CHARLESTON,South,Charleston-North Charleston SC,5
29425,-79.9416,32.7799,SC,South Carolina,CHARLESTON,CHARLESTON,South,Charleston-North Charleston SC,5
29613,-82.44066,34.924854,SC,South Carolina,GREENVILLE,GREENVILLE,South,Greenville-Anderson-Mauldin SC,5
29614,-82.4065,34.8483,SC,South Carolina,GREENVILLE,GREENVILLE,South,Greenville-Anderson-Mauldin SC,5
29632,-82.834174,34.674757,SC,South Carolina,CLEMSON,PICKENS,South,Greenville-Anderson-Mauldin SC,5
29634,-82.8161,34.6825,SC,South Carolina,CLEMSON,PICKENS,South,Greenville-Anderson-Mauldin SC,5
29647,-82.1616,34.1954,SC,South Carolina,GREENWOOD,GREENWOOD,South,Greenwood SC,5
29695,-82.2444,34.2876,SC,South Carolina,HODGES,GREENWOOD,South,Greenwood SC,5
29722,-80.7711,34.7206,SC,South Carolina,LANCASTER,LANCASTER,South,Charlotte-Concord-Gastonia NC-SC,5
29733,-81.0277,34.9379,SC,South Carolina,ROCK HILL,YORK,South,Charlotte-Concord-Gastonia NC-SC,5
29808,-81.613174,33.248356,SC,South Carolina,AIKEN,AIKEN,South,Augusta-Richmond County GA-SC,5
29899,-82.3003,33.9076,SC,South Carolina,MC CORMICK,MCCORMICK,South,,5
30063,-84.55,33.9525,GA,Georgia,MARIETTA,COBB,South,Atlanta-Sandy Springs-Roswell GA,5
30069,-84.5191,33.914478,GA,Georgia,MARIETTA,COBB,South,Atlanta-Sandy Springs-Roswell GA,5
30098,-84.1531,33.9906,GA,Georgia,DULUTH,FULTON,South,Atlanta-Sandy Springs-Roswell GA,5
30099,-84.1531,33.9906,GA,Georgia,DULUTH,GWINNETT,South,Atlanta-Sandy Springs-Roswell GA,5
30118,-85.103328,33.572128,GA,Georgia,CARROLLTON,CARROLL,South,Atlanta-Sandy Springs-Roswell GA,5
30119,-85.0756,33.5665,GA,Georgia,CARROLLTON,CARROLL,South,Atlanta-Sandy Springs-Roswell GA,5
30270,-84.6,33.4,GA,Georgia,PEACHTREE CITY,FAYETTE,South,Atlanta-Sandy Springs-Roswell GA,5
30322,-84.328337,33.795903,GA,Georgia,ATLANTA,DEKALB,South,Atlanta-Sandy Springs-Roswell GA,5
30332,-84.3927,33.7759,GA,Georgia,ATLANTA,FULTON,South,Atlanta-Sandy Springs-Roswell GA,5
30368,-84.3884,33.7486,GA,Georgia,ATLANTA,FULTON,South,Atlanta-Sandy Springs-Roswell GA,5
30375,-84.3884,33.7486,GA,Georgia,ATLANTA,FULTON,South,Atlanta-Sandy Springs-Roswell GA,5
30380,-84.3884,33.7486,GA,Georgia,ATLANTA,FULTON,South,Atlanta-Sandy Springs-Roswell GA,5
30384,-84.3884,33.7486,GA,Georgia,ATLANTA,FULTON,South,Atlanta-Sandy Springs-Roswell GA,5
30385,-84.3884,33.7486,GA,Georgia,ATLANTA,FULTON,South,Atlanta-Sandy Springs-Roswell GA,5
30388,-84.3884,33.7486,GA,Georgia,ATLANTA,FULTON,South,Atlanta-Sandy Springs-Roswell GA,5
30396,-84.3884,33.7486,GA,Georgia,ATLANTA,FULTON,South,Atlanta-Sandy Springs-Roswell GA,5
30398,-84.3884,33.7486,GA,Georgia,ATLANTA,FULTON,South,Atlanta-Sandy Springs-Roswell GA,5
30460,-81.7835,32.4352,GA,Georgia,STATESBORO,BULLOCH,South,Statesboro GA,5
30499,-82.1181,32.0864,GA,Georgia,REIDSVILLE,TATTNALL,South,,5
30597,-83.984592,34.528686,GA,Georgia,DAHLONEGA,LUMPKIN,South,,5
30599,-83.4573,34.2038,GA,Georgia,COMMERCE,JACKSON,South,Jefferson GA,5
30602,-83.376226,33.949416,GA,Georgia,ATHENS,CLARKE,South,Athens-Clarke County GA,5
30609,-83.374496,33.89559,GA,Georgia,ATHENS,CLARKE,South,Athens-Clarke County GA,5
30912,-81.98618,33.471546,GA,Georgia,AUGUSTA,RICHMOND,South,Augusta-Richmond County GA-SC,5
30999,-82.0167,33.4667,GA,Georgia,AUGUSTA,RICHMOND,South,Augusta-Richmond County GA-SC,5
31026,-83.378,33.321,GA,Georgia,EATONTON,PUTNAM,South,,5
31062,-83.2322,33.08,GA,Georgia,MILLEDGEVILLE,BALDWIN,South,Milledgeville GA,5
31136,-84.585199,33.720034,GA,Georgia,ATLANTA,FULTON,South,Atlanta-Sandy Springs-Roswell GA,5
31144,0,0,GA,Georgia,KENNESAW,COBB,South,Atlanta-Sandy Springs-Roswell GA,5
31169,0,0,GA,Georgia,PEACHTREE CITY,FAYETTE,South,Atlanta-Sandy Springs-Roswell GA,5
31192,-84.3883,33.7488,GA,Georgia,ATLANTA,FULTON,South,Atlanta-Sandy Springs-Roswell GA,5
31193,-84.3883,33.7488,GA,Georgia,ATLANTA,FULTON,South,Atlanta-Sandy Springs-Roswell GA,5
31195,-84.3883,33.7488,GA,Georgia,ATLANTA,FULTON,South,Atlanta-Sandy Springs-Roswell GA,5
31196,-84.3883,33.7488,GA,Georgia,ATLANTA,FULTON,South,Atlanta-Sandy Springs-Roswell GA,5
31207,-83.651585,32.828208,GA,Georgia,MACON,BIBB,South,Macon GA,5
31213,-83.6325,32.8407,GA,Georgia,MACON,BIBB,South,Macon GA,5
31294,-83.6325,32.8407,GA,Georgia,MACON,BIBB,South,Macon GA,5
31295,-83.6325,32.8407,GA,Georgia,MACON,BIBB,South,Macon GA,5
31296,-83.6325,32.8407,GA,Georgia,MACON,BIBB,South,Macon GA,5
31524,-81.4917,31.1497,GA,Georgia,BRUNSWICK,GLYNN,South,Brunswick GA,5
31599,-81.884,31.5988,GA,Georgia,JESUP,WAYNE,South,Jesup GA,5
31698,-83.287363,30.866022,GA,Georgia,VALDOSTA,LOWNDES,South,Valdosta GA,5
31699,-83.19855,30.966782,GA,Georgia,MOODY AFB,LOWNDES,South,Valdosta GA,5
31704,-84.064632,31.551224,GA,Georgia,ALBANY,DOUGHERTY,South,Albany GA,5
31993,-84.9876,32.4608,GA,Georgia,COLUMBUS,MUSCOGEE,South,Columbus GA-AL,5
31997,-84.9876,32.4608,GA,Georgia,COLUMBUS,MUSCOGEE,South,Columbus GA-AL,5
31998,-84.9876,32.4608,GA,Georgia,COLUMBUS,MUSCOGEE,South,Columbus GA-AL,5
31999,-84.9876,32.4608,GA,Georgia,COLUMBUS,MUSCOGEE,South,Columbus GA-AL,5
32026,-82.2373,30.0639,FL,Florida,RAIFORD,UNION,South,,5
32198,-81.0233,29.2107,FL,Florida,DAYTONA BEACH,VOLUSIA,South,Deltona-Daytona Beach-Ormond Beach FL,5
32214,-81.688882,30.217512,FL,Florida,JACKSONVILLE,DUVAL,South,Jacksonville FL,5
32306,-84.302295,30.441412,FL,Florida,TALLAHASSEE,LEON,South,Tallahassee FL,5
32307,-84.287631,30.425322,FL,Florida,TALLAHASSEE,LEON,South,Tallahassee FL,5
32313,-84.2807,30.4396,FL,Florida,TALLAHASSEE,LEON,South,Tallahassee FL,5
32395,-84.2808,30.4382,FL,Florida,TALLAHASSEE,LEON,South,Tallahassee FL,5
32399,-84.23328,30.419694,FL,Florida,TALLAHASSEE,LEON,South,Tallahassee FL,5
32509,-87.3366,30.4729,FL,Florida,PENSACOLA,ESCAMBIA,South,Pensacola-Ferry Pass-Brent FL,6
32511,-87.2918,30.4045,FL,Florida,PENSACOLA,ESCAMBIA,South,Pensacola-Ferry Pass-Brent FL,6
32512,-87.3242,30.3529,FL,Florida,PENSACOLA,ESCAMBIA,South,Pensacola-Ferry Pass-Brent FL,6
32520,-87.2161,30.4182,FL,Florida,PENSACOLA,ESCAMBIA,South,Pensacola-Ferry Pass-Brent FL,6
32521,-87.2168,30.4213,FL,Florida,PENSACOLA,ESCAMBIA,South,Pensacola-Ferry Pass-Brent FL,6
32559,-87.2168,30.4213,FL,Florida,PENSACOLA,ESCAMBIA,South,Pensacola-Ferry Pass-Brent FL,6
32610,-82.3252,29.6514,FL,Florida,GAINESVILLE,ALACHUA,South,Gainesville FL,5
32611,-82.354374,29.644871,FL,Florida,GAINESVILLE,ALACHUA,South,Gainesville FL,5
32612,-82.3276,29.6557,FL,Florida,GAINESVILLE,ALACHUA,South,Gainesville FL,5
32723,-81.304655,29.036326,FL,Florida,DELAND,VOLUSIA,South,Deltona-Daytona Beach-Ormond Beach FL,5
32816,-81.205061,28.601567,FL,Florida,ORLANDO,ORANGE,South,Orlando-Kissimmee-Sanford FL,5
32885,-81.3795,28.5382,FL,Florida,ORLANDO,ORANGE,South,Orlando-Kissimmee-Sanford FL,5
32886,-81.3795,28.5382,FL,Florida,ORLANDO,ORANGE,South,Orlando-Kissimmee-Sanford FL,5
32887,-81.3795,28.5382,FL,Florida,ORLANDO,ORANGE,South,Orlando-Kissimmee-Sanford FL,5
32891,-81.3795,28.5382,FL,Florida,ORLANDO,ORANGE,South,Orlando-Kissimmee-Sanford FL,5
32896,0,0,FL,Florida,ORLANDO,ORANGE,South,Orlando-Kissimmee-Sanford FL,5
32897,-81.3795,28.5382,FL,Florida,ORLANDO,ORANGE,South,Orlando-Kissimmee-Sanford FL,5
32899,-80.60214,28.38702,FL,Florida,ORLANDO,BREVARD,South,Palm Bay-Melbourne-Titusville FL,5
32919,-80.6026,28.0786,FL,Florida,MELBOURNE,BREVARD,South,Palm Bay-Melbourne-Titusville FL,5
33039,-80.388883,25.496133,FL,Florida,HOMESTEAD,MIAMI-DADE,South,Miami-Fort Lauderdale-West Palm Beach FL,5
33106,-80.448876,25.695039,FL,Florida,MIAMI,MIAMI-DADE,South,Miami-Fort Lauderdale-West Palm Beach FL,5
33112,-80.1936,25.7738,FL,Florida,MIAMI,MIAMI-DADE,South,Miami-Fort Lauderdale-West Palm Beach FL,5
33188,-80.1937,25.7736,FL,Florida,MIAMI,MIAMI-DADE,South,Miami-Fort Lauderdale-West Palm Beach FL,5
33199,-80.376253,25.75719,FL,Florida,MIAMI,MIAMI-DADE,South,Miami-Fort Lauderdale-West Palm Beach FL,5
33206,0,0,FL,Florida,MIAMI,MIAMI-DADE,South,Miami-Fort Lauderdale-West Palm Beach FL,5
33336,-80.27,26.11,FL,Florida,FORT LAUDERDALE,BROWARD,South,Miami-Fort Lauderdale-West Palm Beach FL,5
33337,-80.260707,26.131816,FL,Florida,FORT LAUDERDALE,BROWARD,South,Miami-Fort Lauderdale-West Palm Beach FL,5
33464,-80.0573,26.6156,FL,Florida,BOCA RATON,PALM BEACH,South,Miami-Fort Lauderdale-West Palm Beach FL,5
33499,-80.0835,26.3583,FL,Florida,BOCA RATON,PALM BEACH,South,Miami-Fort Lauderdale-West Palm Beach FL,5
33620,-82.412479,28.061832,FL,Florida,TAMPA,HILLSBOROUGH,South,Tampa-St. Petersburg-Clearwater FL,5
33633,-82.4588,27.9473,FL,Florida,TAMPA,HILLSBOROUGH,South,Tampa-St. Petersburg-Clearwater FL,5
33650,-82.4588,27.9473,FL,Florida,TAMPA,HILLSBOROUGH,South,Tampa-St. Petersburg-Clearwater FL,5
33655,-82.4588,27.9473,FL,Florida,TAMPA,HILLSBOROUGH,South,Tampa-St. Petersburg-Clearwater FL,5
33660,-82.4588,27.9473,FL,Florida,TAMPA,HILLSBOROUGH,South,Tampa-St. Petersburg-Clearwater FL,5
33661,-82.4588,27.9473,FL,Florida,TAMPA,HILLSBOROUGH,South,Tampa-St. Petersburg-Clearwater FL,5
33662,-82.4588,27.9473,FL,Florida,TAMPA,HILLSBOROUGH,South,Tampa-St. Petersburg-Clearwater FL,5
33663,-82.5056,27.9453,FL,Florida,TAMPA,HILLSBOROUGH,South,Tampa-St. Petersburg-Clearwater FL,5
33664,-82.5056,27.9453,FL,Florida,TAMPA,HILLSBOROUGH,South,Tampa-St. Petersburg-Clearwater FL,5
33729,-82.667247,27.882938,FL,Florida,SAINT PETERSBURG,PINELLAS,South,Tampa-St. Petersburg-Clearwater FL,5
33769,-82.8248,27.9846,FL,Florida,CLEARWATER,PINELLAS,South,Tampa-St. Petersburg-Clearwater FL,5
33888,-81.7332,28.0218,FL,Florida,WINTER HAVEN,POLK,South,Lakeland-Winter Haven FL,5
33965,-81.8463,26.5929,FL,Florida,FORT MYERS,LEE,South,Cape Coral-Fort Myers FL,5
35229,-86.79529,33.464942,AL,Alabama,BIRMINGHAM,JEFFERSON,South,Birmingham-Hoover AL,6
35246,-86.8027,33.5208,AL,Alabama,BIRMINGHAM,JEFFERSON,South,Birmingham-Hoover AL,6
35249,-86.8027,33.5208,AL,Alabama,BIRMINGHAM,JEFFERSON,South,Birmingham-Hoover AL,6
35254,-86.854418,33.514326,AL,Alabama,BIRMINGHAM,JEFFERSON,South,Birmingham-Hoover AL,6
35270,0,0,AL,Alabama,BIRMINGHAM,JEFFERSON,South,Birmingham-Hoover AL,6
35282,-86.8027,33.5208,AL,Alabama,BIRMINGHAM,JEFFERSON,South,Birmingham-Hoover AL,6
35285,-86.8027,33.5208,AL,Alabama,BIRMINGHAM,JEFFERSON,South,Birmingham-Hoover AL,6
35287,-86.8027,33.5208,AL,Alabama,BIRMINGHAM,JEFFERSON,South,Birmingham-Hoover AL,6
35288,-86.8027,33.5208,AL,Alabama,BIRMINGHAM,JEFFERSON,South,Birmingham-Hoover AL,6
35290,-86.8027,33.5208,AL,Alabama,BIRMINGHAM,JEFFERSON,South,Birmingham-Hoover AL,6
35291,-86.8027,33.5208,AL,Alabama,BIRMINGHAM,JEFFERSON,South,Birmingham-Hoover AL,6
35292,-86.8027,33.5208,AL,Alabama,BIRMINGHAM,JEFFERSON,South,Birmingham-Hoover AL,6
35293,-86.8027,33.5208,AL,Alabama,BIRMINGHAM,JEFFERSON,South,Birmingham-Hoover AL,6
35294,-86.8027,33.5208,AL,Alabama,BIRMINGHAM,JEFFERSON,South,Birmingham-Hoover AL,6
35295,-86.8027,33.5208,AL,Alabama,BIRMINGHAM,JEFFERSON,South,Birmingham-Hoover AL,6
35296,-86.8027,33.5208,AL,Alabama,BIRMINGHAM,JEFFERSON,South,Birmingham-Hoover AL,6
35297,-86.8027,33.5208,AL,Alabama,BIRMINGHAM,JEFFERSON,South,Birmingham-Hoover AL,6
35298,-86.8027,33.5208,AL,Alabama,BIRMINGHAM,JEFFERSON,South,Birmingham-Hoover AL,6
35487,-87.545291,33.218225,AL,Alabama,TUSCALOOSA,TUSCALOOSA,South,Tuscaloosa AL,6
35632,-87.6774,34.7999,AL,Alabama,FLORENCE,LAUDERDALE,South,Florence-Muscle Shoals AL,6
35699,-86.9836,34.6059,AL,Alabama,DECATUR,MORGAN,South,Decatur AL,6
35893,-86.5863,34.7305,AL,Alabama,HUNTSVILLE,MADISON,South,Huntsville AL,6
35894,-86.5863,34.7305,AL,Alabama,HUNTSVILLE,MADISON,South,Huntsville AL,6
35895,-86.5685,34.7186,AL,Alabama,HUNTSVILLE,MADISON,South,Huntsville AL,6
35896,-86.5863,34.7305,AL,Alabama,HUNTSVILLE,MADISON,South,Huntsville AL,6
35897,-86.5863,34.7305,AL,Alabama,HUNTSVILLE,MADISON,South,Huntsville AL,6
35898,-86.65491,34.62855,AL,Alabama,HUNTSVILLE,MADISON,South,Huntsville AL,6
35899,-86.5863,34.7305,AL,Alabama,HUNTSVILLE,MADISON,South,Huntsville AL,6
36082,-85.956644,31.801029,AL,Alabama,TROY,PIKE,South,Troy AL,6
36118,-86.3002,32.3667,AL,Alabama,MONTGOMERY,MONTGOMERY,South,Montgomery AL,6
36130,-86.3002,32.3667,AL,Alabama,MONTGOMERY,MONTGOMERY,South,Montgomery AL,6
36131,-86.3002,32.3667,AL,Alabama,MONTGOMERY,MONTGOMERY,South,Montgomery AL,6
36132,-86.3002,32.3667,AL,Alabama,MONTGOMERY,MONTGOMERY,South,Montgomery AL,6
36133,-86.3002,32.3667,AL,Alabama,MONTGOMERY,MONTGOMERY,South,Montgomery AL,6
36134,-86.3002,32.3667,AL,Alabama,MONTGOMERY,MONTGOMERY,South,Montgomery AL,6
36135,-86.3002,32.3667,AL,Alabama,MONTGOMERY,MONTGOMERY,South,Montgomery AL,6
36140,-86.3002,32.3667,AL,Alabama,MONTGOMERY,MONTGOMERY,South,Montgomery AL,6
36141,-86.3002,32.3667,AL,Alabama,MONTGOMERY,MONTGOMERY,South,Montgomery AL,6
36142,-86.3002,32.3667,AL,Alabama,MONTGOMERY,MONTGOMERY,South,Montgomery AL,6
36177,-86.3002,32.3667,AL,Alabama,MONTGOMERY,MONTGOMERY,South,Montgomery AL,6
36191,-86.3002,32.3667,AL,Alabama,MONTGOMERY,MONTGOMERY,South,Montgomery AL,6
36628,-88.0431,30.6945,AL,Alabama,MOBILE,MOBILE,South,Mobile AL,6
36630,-88.0431,30.6945,AL,Alabama,MOBILE,MOBILE,South,Mobile AL,6
36644,-88.0431,30.6945,AL,Alabama,MOBILE,MOBILE,South,Mobile AL,6
36675,-88.0431,30.6945,AL,Alabama,MOBILE,MOBILE,South,Mobile AL,6
36688,-88.182407,30.695894,AL,Alabama,MOBILE,MOBILE,South,Mobile AL,6
36849,-85.488958,32.599435,AL,Alabama,AUBURN UNIVERSITY,LEE,South,Auburn-Opelika AL,6
37044,-87.3543,36.5324,TN,Tennessee,CLARKSVILLE,MONTGOMERY,South,Clarksville TN-KY,6
37089,-86.5819,36.0156,TN,Tennessee,LA VERGNE,RUTHERFORD,South,Nashville-Davidson--Murfreesboro--Franklin TN,6
37131,-86.3903,35.8457,TN,Tennessee,MURFREESBORO,RUTHERFORD,South,Nashville-Davidson--Murfreesboro--Franklin TN,6
37132,-86.362076,35.848843,TN,Tennessee,MURFREESBORO,RUTHERFORD,South,Nashville-Davidson--Murfreesboro--Franklin TN,6
37161,-86.4603,35.4835,TN,Tennessee,SHELBYVILLE,BEDFORD,South,Shelbyville TN,6
37232,-86.7845,36.1656,TN,Tennessee,NASHVILLE,DAVIDSON,South,Nashville-Davidson--Murfreesboro--Franklin TN,6
37234,-86.7845,36.1656,TN,Tennessee,NASHVILLE,DAVIDSON,South,Nashville-Davidson--Murfreesboro--Franklin TN,6
37235,-86.7814,36.1649,TN,Tennessee,NASHVILLE,DAVIDSON,South,Nashville-Davidson--Murfreesboro--Franklin TN,6
37236,-86.7845,36.1656,TN,Tennessee,NASHVILLE,DAVIDSON,South,Nashville-Davidson--Murfreesboro--Franklin TN,6
37240,-86.803816,36.146787,TN,Tennessee,NASHVILLE,DAVIDSON,South,Nashville-Davidson--Murfreesboro--Franklin TN,6
37241,-86.7845,36.1656,TN,Tennessee,NASHVILLE,DAVIDSON,South,Nashville-Davidson--Murfreesboro--Franklin TN,6
37242,-86.7798,36.1663,TN,Tennessee,NASHVILLE,DAVIDSON,South,Nashville-Davidson--Murfreesboro--Franklin TN,6
37243,-86.7847,36.1623,TN,Tennessee,NASHVILLE,DAVIDSON,South,Nashville-Davidson--Murfreesboro--Franklin TN,6
37246,-86.7845,36.1656,TN,Tennessee,NASHVILLE,DAVIDSON,South,Nashville-Davidson--Murfreesboro--Franklin TN,6
37250,-86.7845,36.1656,TN,Tennessee,NASHVILLE,DAVIDSON,South,Nashville-Davidson--Murfreesboro--Franklin TN,6
37383,-85.919158,35.206633,TN,Tennessee,SEWANEE,FRANKLIN,South,Tullahoma-Manchester TN,6
37501,-90.0487,35.1496,TN,Tennessee,MEMPHIS,SHELBY,South,Memphis TN-MS-AR,6
37544,-90.05,35.15,TN,Tennessee,MEMPHIS,SHELBY,South,Memphis TN-MS-AR,6
37669,-82.5619,36.5486,TN,Tennessee,KINGSPORT,SULLIVAN,South,Kingsport-Bristol-Bristol TN-VA,5
37699,-82.3042,36.4194,TN,Tennessee,PINEY FLATS,SULLIVAN,South,Kingsport-Bristol-Bristol TN-VA,5
37995,-83.9206,35.9609,TN,Tennessee,KNOXVILLE,KNOX,South,Knoxville TN,5
37996,-83.9206,35.9609,TN,Tennessee,KNOXVILLE,KNOX,South,Knoxville TN,5
37997,-83.9206,35.9609,TN,Tennessee,KNOXVILLE,KNOX,South,Knoxville TN,5
37998,-83.748466,35.937674,TN,Tennessee,KNOXVILLE,KNOX,South,Knoxville TN,5
38055,-89.8985,35.3305,TN,Tennessee,MILLINGTON,SHELBY,South,Memphis TN-MS-AR,6
38136,-90.0487,35.1497,TN,Tennessee,MEMPHIS,SHELBY,South,Memphis TN-MS-AR,6
38145,-90.0487,35.1497,TN,Tennessee,MEMPHIS,SHELBY,South,Memphis TN-MS-AR,6
38147,-90.0487,35.1497,TN,Tennessee,MEMPHIS,SHELBY,South,Memphis TN-MS-AR,6
38148,-90.0487,35.1497,TN,Tennessee,MEMPHIS,SHELBY,South,Memphis TN-MS-AR,6
38150,-90.0487,35.1497,TN,Tennessee,MEMPHIS,SHELBY,South,Memphis TN-MS-AR,6
38151,-90.0487,35.1497,TN,Tennessee,MEMPHIS,SHELBY,South,Memphis TN-MS-AR,6
38152,-89.93724,35.118968,TN,Tennessee,MEMPHIS,SHELBY,South,Memphis TN-MS-AR,6
38159,-90.0487,35.1497,TN,Tennessee,MEMPHIS,SHELBY,South,Memphis TN-MS-AR,6
38161,-90.0487,35.1497,TN,Tennessee,MEMPHIS,SHELBY,South,Memphis TN-MS-AR,6
38163,-90.0487,35.1497,TN,Tennessee,MEMPHIS,SHELBY,South,Memphis TN-MS-AR,6
38166,-90.0487,35.1497,TN,Tennessee,MEMPHIS,SHELBY,South,Memphis TN-MS-AR,6
38188,-90.0487,35.1497,TN,Tennessee,MEMPHIS,SHELBY,South,Memphis TN-MS-AR,6
38193,-90.0487,35.1497,TN,Tennessee,MEMPHIS,SHELBY,South,Memphis TN-MS-AR,6
38194,-90.0487,35.1497,TN,Tennessee,MEMPHIS,SHELBY,South,Memphis TN-MS-AR,6
38197,-90.0487,35.1497,TN,Tennessee,MEMPHIS,SHELBY,South,Memphis TN-MS-AR,6
38238,-88.863376,36.3431,TN,Tennessee,MARTIN,WEAKLEY,South,Martin TN,6
38505,-85.505928,36.175503,TN,Tennessee,COOKEVILLE,PUTNAM,South,Cookeville TN,6
38686,-90.1514,34.9575,MS,Mississippi,WALLS,DESOTO,South,Memphis TN-MS-AR,6
39058,-90.332378,32.33515,MS,Mississippi,CLINTON,HINDS,South,Jackson MS,6
39210,-90.178926,32.322649,MS,Mississippi,JACKSON,HINDS,South,Jackson MS,6
39217,-90.210022,32.296428,MS,Mississippi,JACKSON,HINDS,South,Jackson MS,6
39250,-90.1849,32.2986,MS,Mississippi,JACKSON,HINDS,South,Jackson MS,6
39271,-90.1849,32.2986,MS,Mississippi,JACKSON,HINDS,South,Jackson MS,6
39309,-88.568414,32.5569,MS,Mississippi,MERIDIAN,LAUDERDALE,South,Meridian MS,6
39406,-89.33671,31.328638,MS,Mississippi,HATTIESBURG,FORREST,South,Hattiesburg MS,6
39407,-89.2905,31.3268,MS,Mississippi,HATTIESBURG,FORREST,South,Hattiesburg MS,6
39522,-89.326,30.3127,MS,Mississippi,STENNIS SPACE CENTER,HANCOCK,South,Gulfport-Biloxi-Pascagoula MS,6
39529,-89.613906,30.386707,MS,Mississippi,STENNIS SPACE CENTER,HANCOCK,South,Gulfport-Biloxi-Pascagoula MS,6
39595,-88.5463,30.3627,MS,Mississippi,PASCAGOULA,JACKSON,South,Gulfport-Biloxi-Pascagoula MS,6
39710,-88.44719,33.62896,MS,Mississippi,COLUMBUS,LOWNDES,South,Columbus MS,6
39901,-84.3944,33.7512,GA,Georgia,ATLANTA,DEKALB,South,Atlanta-Sandy Springs-Roswell GA,5
40032,-85.3786,38.4075,KY,Kentucky,LA GRANGE,OLDHAM,South,Louisville/Jefferson County KY-IN,5
40166,-85.686042,37.981378,KY,Kentucky,SHEPHERDSVILLE,BULLITT,South,Louisville/Jefferson County KY-IN,6
40225,-85.7595,38.2545,KY,Kentucky,LOUISVILLE,JEFFERSON,South,Louisville/Jefferson County KY-IN,5
40266,-85.7595,38.2545,KY,Kentucky,LOUISVILLE,JEFFERSON,South,Louisville/Jefferson County KY-IN,5
40280,-85.7595,38.2545,KY,Kentucky,LOUISVILLE,JEFFERSON,South,Louisville/Jefferson County KY-IN,5
40281,-85.7595,38.2545,KY,Kentucky,LOUISVILLE,JEFFERSON,South,Louisville/Jefferson County KY-IN,5
40282,-85.7595,38.2545,KY,Kentucky,LOUISVILLE,JEFFERSON,South,Louisville/Jefferson County KY-IN,5
40283,-85.7595,38.2545,KY,Kentucky,LOUISVILLE,JEFFERSON,South,Louisville/Jefferson County KY-IN,5
40287,-85.7595,38.2545,KY,Kentucky,LOUISVILLE,JEFFERSON,South,Louisville/Jefferson County KY-IN,5
40289,-85.7595,38.2545,KY,Kentucky,LOUISVILLE,JEFFERSON,South,Louisville/Jefferson County KY-IN,5
40292,-85.759437,38.216345,KY,Kentucky,LOUISVILLE,JEFFERSON,South,Louisville/Jefferson County KY-IN,5
40294,-85.7595,38.2545,KY,Kentucky,LOUISVILLE,JEFFERSON,South,Louisville/Jefferson County KY-IN,5
40296,-85.7595,38.2545,KY,Kentucky,LOUISVILLE,JEFFERSON,South,Louisville/Jefferson County KY-IN,5
40297,-85.7595,38.2545,KY,Kentucky,LOUISVILLE,JEFFERSON,South,Louisville/Jefferson County KY-IN,5
40384,-84.7299,38.0527,KY,Kentucky,VERSAILLES,WOODFORD,South,Lexington-Fayette KY,5
40404,-84.2965,37.5687,KY,Kentucky,BEREA,MADISON,South,Richmond-Berea KY,5
40446,-84.5781,37.6194,KY,Kentucky,LANCASTER,GARRARD,South,,5
40506,-84.5004,38.0494,KY,Kentucky,LEXINGTON,FAYETTE,South,Lexington-Fayette KY,5
40526,-84.5004,38.0494,KY,Kentucky,LEXINGTON,FAYETTE,South,Lexington-Fayette KY,5
40536,-84.5004,38.0494,KY,Kentucky,LEXINGTON,FAYETTE,South,Lexington-Fayette KY,5
40546,-84.5004,38.0494,KY,Kentucky,LEXINGTON,FAYETTE,South,Lexington-Fayette KY,5
40550,-84.5004,38.0494,KY,Kentucky,LEXINGTON,FAYETTE,South,Lexington-Fayette KY,5
40598,-84.5004,38.0494,KY,Kentucky,LEXINGTON,FAYETTE,South,Lexington-Fayette KY,5
40618,-84.8734,38.2009,KY,Kentucky,FRANKFORT,FRANKLIN,South,Frankfort KY,5
40619,-84.8734,38.2009,KY,Kentucky,FRANKFORT,FRANKLIN,South,Frankfort KY,5
40620,-84.8734,38.2009,KY,Kentucky,FRANKFORT,FRANKLIN,South,Frankfort KY,5
40621,-84.8734,38.2009,KY,Kentucky,FRANKFORT,FRANKLIN,South,Frankfort KY,5
40622,-84.8734,38.2009,KY,Kentucky,FRANKFORT,FRANKLIN,South,Frankfort KY,5
40750,0,0,KY,Kentucky,LONDON,LAUREL,South,London KY,5
41019,-84.5086,39.0836,KY,Kentucky,COVINGTON,KENTON,South,Cincinnati OH-KY-IN,5
41021,0,0,KY,Kentucky,HEBRON,BOONE,South,Cincinnati OH-KY-IN,5
41025,0,0,KY,Kentucky,ERLANGER,KENTON,South,Cincinnati OH-KY-IN,5
41099,-84.462952,39.031083,KY,Kentucky,NEWPORT,CAMPBELL,South,Cincinnati OH-KY-IN,5
41114,-82.6381,38.4785,KY,Kentucky,ASHLAND,BOYD,South,Huntington-Ashland WV-KY-OH,5
43041,-83.3674,40.2365,OH,Ohio,MARYSVILLE,UNION,Midwest,Columbus OH,5
43069,-82.81,39.95,OH,Ohio,REYNOLDSBURG,FRANKLIN,Midwest,Columbus OH,5
43093,-82.4014,40.0581,OH,Ohio,NEWARK,LICKING,Midwest,Columbus OH,5
43194,-82.958113,39.839336,OH,Ohio,LOCKBOURNE,FRANKLIN,Midwest,Columbus OH,5
43195,-82.8916,39.8614,OH,Ohio,GROVEPORT,FRANKLIN,Midwest,Columbus OH,5
43199,-82.8916,39.8614,OH,Ohio,GROVEPORT,FRANKLIN,Midwest,Columbus OH,5
43251,-82.9989,39.9602,OH,Ohio,COLUMBUS,FRANKLIN,Midwest,Columbus OH,5
43260,-82.9989,39.9602,OH,Ohio,COLUMBUS,FRANKLIN,Midwest,Columbus OH,5
43266,-82.9989,39.9602,OH,Ohio,COLUMBUS,FRANKLIN,Midwest,Columbus OH,5
43268,-82.9989,39.9602,OH,Ohio,COLUMBUS,FRANKLIN,Midwest,Columbus OH,5
43270,-82.9989,39.9602,OH,Ohio,COLUMBUS,FRANKLIN,Midwest,Columbus OH,5
43271,-82.9989,39.9602,OH,Ohio,COLUMBUS,FRANKLIN,Midwest,Columbus OH,5
43272,-82.9989,39.9602,OH,Ohio,COLUMBUS,FRANKLIN,Midwest,Columbus OH,5
43279,-82.9986,39.9615,OH,Ohio,COLUMBUS,FRANKLIN,Midwest,Columbus OH,5
43287,-82.9989,39.9602,OH,Ohio,COLUMBUS,FRANKLIN,Midwest,Columbus OH,5
43291,-82.9989,39.9602,OH,Ohio,COLUMBUS,FRANKLIN,Midwest,Columbus OH,5
43403,-83.623002,41.3773,OH,Ohio,BOWLING GREEN,WOOD,Midwest,Toledo OH,5
43652,-83.5554,41.6639,OH,Ohio,TOLEDO,LUCAS,Midwest,Toledo OH,5
43654,-83.5554,41.6639,OH,Ohio,TOLEDO,WOOD,Midwest,Toledo OH,5
43656,-83.5554,41.6639,OH,Ohio,TOLEDO,LUCAS,Midwest,Toledo OH,5
43657,-83.5554,41.6639,OH,Ohio,TOLEDO,LUCAS,Midwest,Toledo OH,5
43659,-83.5554,41.6639,OH,Ohio,TOLEDO,LUCAS,Midwest,Toledo OH,5
43660,-83.5554,41.6639,OH,Ohio,TOLEDO,LUCAS,Midwest,Toledo OH,5
43661,-83.5554,41.6639,OH,Ohio,TOLEDO,LUCAS,Midwest,Toledo OH,5
43666,-83.5554,41.6639,OH,Ohio,TOLEDO,LUCAS,Midwest,Toledo OH,5
43667,-83.5554,41.6639,OH,Ohio,TOLEDO,LUCAS,Midwest,Toledo OH,5
43681,-83.5554,41.6639,OH,Ohio,TOLEDO,LUCAS,Midwest,Toledo OH,5
43682,-83.5554,41.6639,OH,Ohio,TOLEDO,LUCAS,Midwest,Toledo OH,5
44073,-81.3409,41.4944,OH,Ohio,NOVELTY,GEAUGA,Midwest,Cleveland-Elyria OH,5
44188,-81.6956,41.4997,OH,Ohio,CLEVELAND,CUYAHOGA,Midwest,Cleveland-Elyria OH,5
44190,-81.6956,41.4997,OH,Ohio,CLEVELAND,CUYAHOGA,Midwest,Cleveland-Elyria OH,5
44191,-81.6956,41.4997,OH,Ohio,CLEVELAND,CUYAHOGA,Midwest,Cleveland-Elyria OH,5
44192,-81.6956,41.4997,OH,Ohio,CLEVELAND,CUYAHOGA,Midwest,Cleveland-Elyria OH,5
44193,-81.6956,41.4997,OH,Ohio,CLEVELAND,CUYAHOGA,Midwest,Cleveland-Elyria OH,5
44194,-81.6956,41.4997,OH,Ohio,CLEVELAND,CUYAHOGA,Midwest,Cleveland-Elyria OH,5
44195,-81.6956,41.4997,OH,Ohio,CLEVELAND,CUYAHOGA,Midwest,Cleveland-Elyria OH,5
44197,-81.6956,41.4997,OH,Ohio,CLEVELAND,CUYAHOGA,Midwest,Cleveland-Elyria OH,5
44198,-81.6956,41.4997,OH,Ohio,CLEVELAND,CUYAHOGA,Midwest,Cleveland-Elyria OH,5
44237,-81.4409,41.2402,OH,Ohio,HUDSON,SUMMIT,Midwest,Akron OH,5
44242,-81.3582,41.1538,OH,Ohio,KENT,PORTAGE,Midwest,Akron OH,5
44315,-81.5192,41.0816,OH,Ohio,AKRON,SUMMIT,Midwest,Akron OH,5
44316,-81.5192,41.0816,OH,Ohio,AKRON,SUMMIT,Midwest,Akron OH,5
44317,-81.5192,41.0816,OH,Ohio,AKRON,SUMMIT,Midwest,Akron OH,5
44325,-81.51315,41.073452,OH,Ohio,AKRON,SUMMIT,Midwest,Akron OH,5
44326,-81.5192,41.0816,OH,Ohio,AKRON,SUMMIT,Midwest,Akron OH,5
44328,-81.5192,41.0816,OH,Ohio,AKRON,SUMMIT,Midwest,Akron OH,5
44396,-81.5192,41.0816,OH,Ohio,AKRON,SUMMIT,Midwest,Akron OH,5
44398,-81.5192,41.0816,OH,Ohio,AKRON,SUMMIT,Midwest,Akron OH,5
44486,-80.8186,41.2376,OH,Ohio,WARREN,TRUMBULL,Midwest,Youngstown-Warren-Boardman OH-PA,5
44488,-80.8186,41.2376,OH,Ohio,WARREN,TRUMBULL,Midwest,Youngstown-Warren-Boardman OH-PA,5
44555,-80.64854,41.105984,OH,Ohio,YOUNGSTOWN,MAHONING,Midwest,Youngstown-Warren-Boardman OH-PA,5
44750,-81.3788,40.7987,OH,Ohio,CANTON,STARK,Midwest,Canton-Massillon OH,5
44767,-81.3788,40.7987,OH,Ohio,CANTON,STARK,Midwest,Canton-Massillon OH,5
44799,-81.3788,40.7987,OH,Ohio,CANTON,STARK,Midwest,Canton-Massillon OH,5
44888,-82.7265,41.0531,OH,Ohio,WILLARD,HURON,Midwest,Norwalk OH,5
45221,-84.4569,39.1616,OH,Ohio,CINCINNATI,HAMILTON,Midwest,Cincinnati OH-KY-IN,5
45263,-84.4569,39.1616,OH,Ohio,CINCINNATI,HAMILTON,Midwest,Cincinnati OH-KY-IN,5
45264,-84.4569,39.1616,OH,Ohio,CINCINNATI,HAMILTON,Midwest,Cincinnati OH-KY-IN,5
45267,-84.4569,39.1616,OH,Ohio,CINCINNATI,HAMILTON,Midwest,Cincinnati OH-KY-IN,5
45268,-84.4569,39.1616,OH,Ohio,CINCINNATI,HAMILTON,Midwest,Cincinnati OH-KY-IN,5
45269,-84.4569,39.1616,OH,Ohio,CINCINNATI,HAMILTON,Midwest,Cincinnati OH-KY-IN,5
45270,-84.4569,39.1616,OH,Ohio,CINCINNATI,HAMILTON,Midwest,Cincinnati OH-KY-IN,5
45271,-84.4569,39.1616,OH,Ohio,CINCINNATI,HAMILTON,Midwest,Cincinnati OH-KY-IN,5
45273,-84.4569,39.1616,OH,Ohio,CINCINNATI,HAMILTON,Midwest,Cincinnati OH-KY-IN,5
45274,-84.4569,39.1616,OH,Ohio,CINCINNATI,HAMILTON,Midwest,Cincinnati OH-KY-IN,5
45277,-84.4569,39.1616,OH,Ohio,CINCINNATI,HAMILTON,Midwest,Cincinnati OH-KY-IN,5
45296,-84.4569,39.1616,OH,Ohio,CINCINNATI,HAMILTON,Midwest,Cincinnati OH-KY-IN,5
45298,-84.4569,39.1616,OH,Ohio,CINCINNATI,HAMILTON,Midwest,Cincinnati OH-KY-IN,5
45299,-84.4569,39.1616,OH,Ohio,CINCINNATI,HAMILTON,Midwest,Cincinnati OH-KY-IN,5
45367,-84.1558,40.2842,OH,Ohio,SIDNEY,SHELBY,Midwest,Sidney OH,5
45374,-84.2033,40.0394,OH,Ohio,TROY,MIAMI,Midwest,Dayton OH,5
45412,-84.1919,39.7587,OH,Ohio,DAYTON,MONTGOMERY,Midwest,Dayton OH,5
45422,-84.1935,39.7586,OH,Ohio,DAYTON,MONTGOMERY,Midwest,Dayton OH,5
45435,-84.066138,39.777786,OH,Ohio,DAYTON,GREENE,Midwest,Dayton OH,5
45448,-84.1902,39.7603,OH,Ohio,DAYTON,MONTGOMERY,Midwest,Dayton OH,5
45469,-84.1935,39.7579,OH,Ohio,DAYTON,MONTGOMERY,Midwest,Dayton OH,5
45470,-84.1919,39.7587,OH,Ohio,DAYTON,MONTGOMERY,Midwest,Dayton OH,5
45481,-84.1919,39.7587,OH,Ohio,DAYTON,MONTGOMERY,Midwest,Dayton OH,5
45482,-84.1919,39.7587,OH,Ohio,DAYTON,MONTGOMERY,Midwest,Dayton OH,5
45699,-82.9968,38.8797,OH,Ohio,LUCASVILLE,SCIOTO,Midwest,Portsmouth OH,5
45999,-84.4569,39.1619,OH,Ohio,CINCINNATI,HAMILTON,Midwest,Cincinnati OH-KY-IN,5
46085,-86.01,39.96,IN,Indiana,FISHERS,HAMILTON,Midwest,Indianapolis-Carmel-Anderson IN,5
46197,0,0,IN,Indiana,PLAINFIELD,HENDRICKS,Midwest,Indianapolis-Carmel-Anderson IN,5
46209,-86.1582,39.7683,IN,Indiana,INDIANAPOLIS,MARION,Midwest,Indianapolis-Carmel-Anderson IN,5
46210,0,0,IN,Indiana,INDIANAPOLIS,MARION,Midwest,Indianapolis-Carmel-Anderson IN,5
46211,-86.1582,39.7683,IN,Indiana,INDIANAPOLIS,MARION,Midwest,Indianapolis-Carmel-Anderson IN,5
46213,0,0,IN,Indiana,INDIANAPOLIS,MARION,Midwest,Indianapolis-Carmel-Anderson IN,5
46249,-86.1582,39.7683,IN,Indiana,INDIANAPOLIS,MARION,Midwest,Indianapolis-Carmel-Anderson IN,5
46255,-86.1582,39.7683,IN,Indiana,INDIANAPOLIS,MARION,Midwest,Indianapolis-Carmel-Anderson IN,5
46262,0,0,IN,Indiana,INDIANAPOLIS,MARION,Midwest,Indianapolis-Carmel-Anderson IN,5
46266,-86.1582,39.7683,IN,Indiana,INDIANAPOLIS,MARION,Midwest,Indianapolis-Carmel-Anderson IN,5
46274,-86.1582,39.7683,IN,Indiana,INDIANAPOLIS,MARION,Midwest,Indianapolis-Carmel-Anderson IN,5
46275,-86.1582,39.7683,IN,Indiana,INDIANAPOLIS,MARION,Midwest,Indianapolis-Carmel-Anderson IN,5
46277,-86.1582,39.7683,IN,Indiana,INDIANAPOLIS,MARION,Midwest,Indianapolis-Carmel-Anderson IN,5
46283,-86.1582,39.7683,IN,Indiana,INDIANAPOLIS,MARION,Midwest,Indianapolis-Carmel-Anderson IN,5
46285,-86.1582,39.7683,IN,Indiana,INDIANAPOLIS,MARION,Midwest,Indianapolis-Carmel-Anderson IN,5
46291,-86.1582,39.7683,IN,Indiana,INDIANAPOLIS,MARION,Midwest,Indianapolis-Carmel-Anderson IN,5
46295,-86.1582,39.7683,IN,Indiana,INDIANAPOLIS,MARION,Midwest,Indianapolis-Carmel-Anderson IN,5
46296,-86.1582,39.7683,IN,Indiana,INDIANAPOLIS,MARION,Midwest,Indianapolis-Carmel-Anderson IN,5
46298,-86.1105,39.7746,IN,Indiana,INDIANAPOLIS,MARION,Midwest,Indianapolis-Carmel-Anderson IN,5
46626,-86.2503,41.6833,IN,Indiana,SOUTH BEND,ST JOSEPH,Midwest,South Bend-Mishawaka IN-MI,5
46699,-86.2503,41.6833,IN,Indiana,SOUTH BEND,ST JOSEPH,Midwest,South Bend-Mishawaka IN-MI,5
46897,-85.1405,41.0742,IN,Indiana,FORT WAYNE,ALLEN,Midwest,Fort Wayne IN,5
47132,-85.7514,38.2901,IN,Indiana,JEFFERSONVILLE,CLARK,Midwest,Louisville/Jefferson County KY-IN,5
47133,-85.7514,38.2901,IN,Indiana,JEFFERSONVILLE,CLARK,Midwest,Louisville/Jefferson County KY-IN,5
47134,-85.7514,38.2901,IN,Indiana,JEFFERSONVILLE,CLARK,Midwest,Louisville/Jefferson County KY-IN,5
47144,-85.7514,38.2901,IN,Indiana,JEFFERSONVILLE,CLARK,Midwest,Louisville/Jefferson County KY-IN,5
47199,-85.7514,38.2901,IN,Indiana,JEFFERSONVILLE,CLARK,Midwest,Louisville/Jefferson County KY-IN,5
47306,-85.40807,40.206458,IN,Indiana,MUNCIE,DELAWARE,Midwest,Muncie IN,5
47549,-86.9313,38.3917,IN,Indiana,JASPER,DUBOIS,Midwest,Jasper IN,5
47721,-87.5555,37.9744,IN,Indiana,EVANSVILLE,VANDERBURGH,Midwest,Evansville IN-KY,6
47722,-87.531692,37.971714,IN,Indiana,EVANSVILLE,VANDERBURGH,Midwest,Evansville IN-KY,6
47740,-87.5555,37.9744,IN,Indiana,EVANSVILLE,VANDERBURGH,Midwest,Evansville IN-KY,6
47747,-87.5555,37.9744,IN,Indiana,EVANSVILLE,VANDERBURGH,Midwest,Evansville IN-KY,6
47750,-87.5555,37.9744,IN,Indiana,EVANSVILLE,VANDERBURGH,Midwest,Evansville IN-KY,6
47809,-87.401122,39.472382,IN,Indiana,TERRE HAUTE,VIGO,Midwest,Terre Haute IN,5
48222,-83.0456,42.3317,MI,Michigan,DETROIT,WAYNE,Midwest,Detroit-Warren-Dearborn MI,5
48255,-83.0456,42.3317,MI,Michigan,DETROIT,WAYNE,Midwest,Detroit-Warren-Dearborn MI,5
48260,-83.0456,42.3317,MI,Michigan,DETROIT,WAYNE,Midwest,Detroit-Warren-Dearborn MI,5
48264,-83.0456,42.3317,MI,Michigan,DETROIT,WAYNE,Midwest,Detroit-Warren-Dearborn MI,5
48265,-83.0456,42.3317,MI,Michigan,DETROIT,WAYNE,Midwest,Detroit-Warren-Dearborn MI,5
48266,-83.0456,42.3317,MI,Michigan,DETROIT,WAYNE,Midwest,Detroit-Warren-Dearborn MI,5
48267,-83.0456,42.3317,MI,Michigan,DETROIT,WAYNE,Midwest,Detroit-Warren-Dearborn MI,5
48268,-83.0456,42.3317,MI,Michigan,DETROIT,WAYNE,Midwest,Detroit-Warren-Dearborn MI,5
48269,-83.0456,42.3317,MI,Michigan,DETROIT,WAYNE,Midwest,Detroit-Warren-Dearborn MI,5
48272,-83.0456,42.3317,MI,Michigan,DETROIT,WAYNE,Midwest,Detroit-Warren-Dearborn MI,5
48275,-83.0456,42.3317,MI,Michigan,DETROIT,WAYNE,Midwest,Detroit-Warren-Dearborn MI,5
48277,-83.0456,42.3317,MI,Michigan,DETROIT,WAYNE,Midwest,Detroit-Warren-Dearborn MI,5
48278,-83.0456,42.3317,MI,Michigan,DETROIT,WAYNE,Midwest,Detroit-Warren-Dearborn MI,5
48279,-83.0456,42.3317,MI,Michigan,DETROIT,WAYNE,Midwest,Detroit-Warren-Dearborn MI,5
48288,-83.0456,42.3317,MI,Michigan,DETROIT,WAYNE,Midwest,Detroit-Warren-Dearborn MI,5
48397,-83.0276,42.4776,MI,Michigan,WARREN,MACOMB,Midwest,Detroit-Warren-Dearborn MI,5
48550,-83.6878,43.0125,MI,Michigan,FLINT,GENESEE,Midwest,Flint MI,5
48551,-83.6878,43.0125,MI,Michigan,FLINT,GENESEE,Midwest,Flint MI,5
48552,-83.6878,43.0125,MI,Michigan,FLINT,GENESEE,Midwest,Flint MI,5
48553,-83.6878,43.0125,MI,Michigan,FLINT,GENESEE,Midwest,Flint MI,5
48554,-83.6878,43.0125,MI,Michigan,FLINT,GENESEE,Midwest,Flint MI,5
48555,-83.6878,43.0125,MI,Michigan,FLINT,GENESEE,Midwest,Flint MI,5
48556,-83.6878,43.0125,MI,Michigan,FLINT,GENESEE,Midwest,Flint MI,5
48557,-83.6878,43.0125,MI,Michigan,FLINT,GENESEE,Midwest,Flint MI,5
48663,-83.9506,43.4197,MI,Michigan,SAGINAW,SAGINAW,Midwest,Saginaw MI,5
48667,-84.2472,43.6157,MI,Michigan,MIDLAND,MIDLAND,Midwest,Midland MI,5
48670,-84.2472,43.6157,MI,Michigan,MIDLAND,MIDLAND,Midwest,Midland MI,5
48674,-84.2472,43.6157,MI,Michigan,MIDLAND,MIDLAND,Midwest,Midland MI,5
48686,-84.2472,43.6157,MI,Michigan,MIDLAND,MIDLAND,Midwest,Midland MI,5
48710,-83.984058,43.559428,MI,Michigan,UNIVERSITY CENTER,BAY,Midwest,Bay City MI,5
48787,-83.7383,43.3318,MI,Michigan,FRANKENMUTH,SAGINAW,Midwest,Saginaw MI,5
48859,-84.7675,43.5975,MI,Michigan,MOUNT PLEASANT,ISABELLA,Midwest,Mount Pleasant MI,5
48913,-84.5558,42.7327,MI,Michigan,LANSING,INGHAM,Midwest,Lansing-East Lansing MI,5
48916,-84.5558,42.7327,MI,Michigan,LANSING,INGHAM,Midwest,Lansing-East Lansing MI,5
48918,-84.5558,42.7327,MI,Michigan,LANSING,INGHAM,Midwest,Lansing-East Lansing MI,5
48919,-84.5558,42.7327,MI,Michigan,LANSING,INGHAM,Midwest,Lansing-East Lansing MI,5
48922,-84.5558,42.7327,MI,Michigan,LANSING,INGHAM,Midwest,Lansing-East Lansing MI,5
48929,-84.5558,42.7327,MI,Michigan,LANSING,INGHAM,Midwest,Lansing-East Lansing MI,5
48930,-84.5558,42.7327,MI,Michigan,LANSING,INGHAM,Midwest,Lansing-East Lansing MI,5
48937,-84.5558,42.7327,MI,Michigan,LANSING,INGHAM,Midwest,Lansing-East Lansing MI,5
48951,-84.5558,42.7327,MI,Michigan,LANSING,INGHAM,Midwest,Lansing-East Lansing MI,5
48956,-84.5558,42.7327,MI,Michigan,LANSING,INGHAM,Midwest,Lansing-East Lansing MI,5
48980,-84.5558,42.7327,MI,Michigan,LANSING,INGHAM,Midwest,Lansing-East Lansing MI,5
49104,-86.359152,41.962557,MI,Michigan,BERRIEN SPRINGS,BERRIEN,Midwest,Niles-Benton Harbor MI,5
49351,-85.56,43.12,MI,Michigan,ROCKFORD,KENT,Midwest,Grand Rapids-Wyoming MI,5
49355,-85.4886,42.9544,MI,Michigan,ADA,KENT,Midwest,Grand Rapids-Wyoming MI,5
49356,-85.4886,42.9544,MI,Michigan,ADA,KENT,Midwest,Grand Rapids-Wyoming MI,5
49357,-85.4886,42.9544,MI,Michigan,ADA,KENT,Midwest,Grand Rapids-Wyoming MI,5
49413,-85.9417,43.4678,MI,Michigan,FREMONT,NEWAYGO,Midwest,,5
49502,-85.6681,42.9634,MI,Michigan,GRAND RAPIDS,KENT,Midwest,Grand Rapids-Wyoming MI,5
49530,-85.6681,42.9634,MI,Michigan,GRAND RAPIDS,KENT,Midwest,Grand Rapids-Wyoming MI,5
49555,-85.6681,42.9634,MI,Michigan,GRAND RAPIDS,KENT,Midwest,Grand Rapids-Wyoming MI,5
49560,-85.6681,42.9634,MI,Michigan,GRAND RAPIDS,KENT,Midwest,Grand Rapids-Wyoming MI,5
49739,-84.7147,44.6617,MI,Michigan,GRAYLING,CRAWFORD,Midwest,,5
49784,-84.5006,46.2376,MI,Michigan,KINCHELOE,CHIPPEWA,Midwest,Sault Ste. Marie MI,5
49785,-84.4988,46.2433,MI,Michigan,KINCHELOE,CHIPPEWA,Midwest,Sault Ste. Marie MI,5
49786,-84.4975,46.2427,MI,Michigan,KINCHELOE,CHIPPEWA,Midwest,Sault Ste. Marie MI,5
50011,-93.642048,42.027516,IA,Iowa,AMES,STORY,Midwest,Ames IA,6
50012,-93.6198,42.0347,IA,Iowa,AMES,STORY,Midwest,Ames IA,6
50013,-93.6412,42.024096,IA,Iowa,AMES,STORY,Midwest,Ames IA,6
50328,-93.6087,41.6006,IA,Iowa,DES MOINES,POLK,Midwest,Des Moines-West Des Moines IA,6
50329,-93.6087,41.6006,IA,Iowa,DES MOINES,POLK,Midwest,Des Moines-West Des Moines IA,6
50330,-93.6087,41.6006,IA,Iowa,DES MOINES,POLK,Midwest,Des Moines-West Des Moines IA,6
50331,-93.6087,41.6006,IA,Iowa,DES MOINES,POLK,Midwest,Des Moines-West Des Moines IA,6
50332,-93.6087,41.6006,IA,Iowa,DES MOINES,POLK,Midwest,Des Moines-West Des Moines IA,6
50334,-93.6087,41.6006,IA,Iowa,DES MOINES,POLK,Midwest,Des Moines-West Des Moines IA,6
50335,-93.6087,41.6006,IA,Iowa,DES MOINES,POLK,Midwest,Des Moines-West Des Moines IA,6
50339,-93.6087,41.6006,IA,Iowa,DES MOINES,POLK,Midwest,Des Moines-West Des Moines IA,6
50359,-93.6087,41.6006,IA,Iowa,DES MOINES,POLK,Midwest,Des Moines-West Des Moines IA,6
50360,-93.6087,41.6006,IA,Iowa,DES MOINES,POLK,Midwest,Des Moines-West Des Moines IA,6
50361,-93.6087,41.6006,IA,Iowa,DES MOINES,POLK,Midwest,Des Moines-West Des Moines IA,6
50362,-93.6087,41.6006,IA,Iowa,DES MOINES,POLK,Midwest,Des Moines-West Des Moines IA,6
50363,-93.6087,41.6006,IA,Iowa,DES MOINES,POLK,Midwest,Des Moines-West Des Moines IA,6
50364,-93.6087,41.6006,IA,Iowa,DES MOINES,POLK,Midwest,Des Moines-West Des Moines IA,6
50367,-93.6102,41.6006,IA,Iowa,DES MOINES,POLK,Midwest,Des Moines-West Des Moines IA,6
50369,-93.6102,41.6006,IA,Iowa,DES MOINES,POLK,Midwest,Des Moines-West Des Moines IA,6
50380,-93.6102,41.6006,IA,Iowa,DES MOINES,POLK,Midwest,Des Moines-West Des Moines IA,6
50381,-93.6102,41.6006,IA,Iowa,DES MOINES,POLK,Midwest,Des Moines-West Des Moines IA,6
50391,-93.6102,41.6002,IA,Iowa,DES MOINES,POLK,Midwest,Des Moines-West Des Moines IA,6
50392,-93.6102,41.6006,IA,Iowa,DES MOINES,POLK,Midwest,Des Moines-West Des Moines IA,6
50396,-93.6087,41.6006,IA,Iowa,DES MOINES,POLK,Midwest,Des Moines-West Des Moines IA,6
50398,-93.7363,41.5776,IA,Iowa,URBANDALE,POLK,Midwest,Des Moines-West Des Moines IA,6
50526,-93.7328,42.7318,IA,Iowa,CLARION,WRIGHT,Midwest,,6
50614,-92.459234,42.51318,IA,Iowa,CEDAR FALLS,BLACK HAWK,Midwest,Waterloo-Cedar Falls IA,6
50936,-93.6088,41.6007,IA,Iowa,DES MOINES,POLK,Midwest,Des Moines-West Des Moines IA,6
50940,-93.6088,41.6007,IA,Iowa,DES MOINES,POLK,Midwest,Des Moines-West Des Moines IA,6
50947,-93.6088,41.6007,IA,Iowa,DES MOINES,POLK,Midwest,Des Moines-West Des Moines IA,6
50950,-93.6088,41.6007,IA,Iowa,DES MOINES,POLK,Midwest,Des Moines-West Des Moines IA,6
50980,-93.6088,41.6007,IA,Iowa,DES MOINES,POLK,Midwest,Des Moines-West Des Moines IA,6
50981,-93.6088,41.6007,IA,Iowa,DES MOINES,POLK,Midwest,Des Moines-West Des Moines IA,6
50982,0,0,IA,Iowa,DES MOINES,POLK,Midwest,Des Moines-West Des Moines IA,6
50983,0,0,IA,Iowa,DES MOINES,POLK,Midwest,Des Moines-West Des Moines IA,6
51603,-95.3717,40.7657,IA,Iowa,SHENANDOAH,PAGE,Midwest,,6
52099,-90.6845,42.5136,IA,Iowa,DUBUQUE,DUBUQUE,Midwest,Dubuque IA,6
52204,-91.8708,41.8002,IA,Iowa,AMANA,IOWA,Midwest,,6
52243,-91.5302,41.6611,IA,Iowa,IOWA CITY,JOHNSON,Midwest,Iowa City IA,6
52497,-91.6437,42.0083,IA,Iowa,CEDAR RAPIDS,LINN,Midwest,Cedar Rapids IA,6
52498,-91.6437,42.0083,IA,Iowa,CEDAR RAPIDS,LINN,Midwest,Cedar Rapids IA,6
52499,-91.6437,42.0083,IA,Iowa,CEDAR RAPIDS,LINN,Midwest,Cedar Rapids IA,6
52557,-91.963298,41.021322,IA,Iowa,FAIRFIELD,JEFFERSON,Midwest,Fairfield IA,6
52734,0,0,IA,Iowa,CLINTON,CLINTON,Midwest,Clinton IA,6
52736,-90.1886,41.8446,IA,Iowa,CLINTON,CLINTON,Midwest,Clinton IA,6
53062,-88.0849,43.9485,WI,Wisconsin,NEW HOLSTEIN,CALUMET,Midwest,Appleton WI,6
53259,-87.9065,43.0389,WI,Wisconsin,MILWAUKEE,MILWAUKEE,Midwest,Milwaukee-Waukesha-West Allis WI,6
53263,-87.9065,43.0389,WI,Wisconsin,MILWAUKEE,MILWAUKEE,Midwest,Milwaukee-Waukesha-West Allis WI,6
53267,-87.9065,43.0389,WI,Wisconsin,MILWAUKEE,MILWAUKEE,Midwest,Milwaukee-Waukesha-West Allis WI,6
53268,-87.9065,43.0389,WI,Wisconsin,MILWAUKEE,MILWAUKEE,Midwest,Milwaukee-Waukesha-West Allis WI,6
53274,-87.9065,43.0389,WI,Wisconsin,MILWAUKEE,MILWAUKEE,Midwest,Milwaukee-Waukesha-West Allis WI,6
53278,-87.9065,43.0389,WI,Wisconsin,MILWAUKEE,MILWAUKEE,Midwest,Milwaukee-Waukesha-West Allis WI,6
53288,-87.9065,43.0389,WI,Wisconsin,MILWAUKEE,MILWAUKEE,Midwest,Milwaukee-Waukesha-West Allis WI,6
53290,-87.9065,43.0389,WI,Wisconsin,MILWAUKEE,MILWAUKEE,Midwest,Milwaukee-Waukesha-West Allis WI,6
53293,-87.9065,43.0389,WI,Wisconsin,MILWAUKEE,MILWAUKEE,Midwest,Milwaukee-Waukesha-West Allis WI,6
53295,-87.9058,43.0386,WI,Wisconsin,MILWAUKEE,MILWAUKEE,Midwest,Milwaukee-Waukesha-West Allis WI,6
53407,-87.7829,42.7263,WI,Wisconsin,RACINE,RACINE,Midwest,Racine WI,6
53595,-90.1303,42.9605,WI,Wisconsin,DODGEVILLE,IOWA,Midwest,Madison WI,6
53596,-89.2139,43.1836,WI,Wisconsin,SUN PRAIRIE,DANE,Midwest,Madison WI,6
53702,-89.4012,43.0733,WI,Wisconsin,MADISON,DANE,Midwest,Madison WI,6
53774,-89.4012,43.0733,WI,Wisconsin,MADISON,DANE,Midwest,Madison WI,6
53777,-89.4012,43.0733,WI,Wisconsin,MADISON,DANE,Midwest,Madison WI,6
53778,-89.4012,43.0733,WI,Wisconsin,MADISON,DANE,Midwest,Madison WI,6
53779,-89.4012,43.0733,WI,Wisconsin,MADISON,DANE,Midwest,Madison WI,6
53782,-89.4012,43.0733,WI,Wisconsin,MADISON,DANE,Midwest,Madison WI,6
53783,-89.4012,43.0733,WI,Wisconsin,MADISON,DANE,Midwest,Madison WI,6
53784,-89.4012,43.0733,WI,Wisconsin,MADISON,DANE,Midwest,Madison WI,6
53785,-89.4012,43.0733,WI,Wisconsin,MADISON,DANE,Midwest,Madison WI,6
53786,-89.4012,43.0733,WI,Wisconsin,MADISON,DANE,Midwest,Madison WI,6
53788,-89.4012,43.0733,WI,Wisconsin,MADISON,DANE,Midwest,Madison WI,6
53789,-89.4012,43.0733,WI,Wisconsin,MADISON,DANE,Midwest,Madison WI,6
53790,-89.4012,43.0733,WI,Wisconsin,MADISON,DANE,Midwest,Madison WI,6
53791,-89.4012,43.0733,WI,Wisconsin,MADISON,DANE,Midwest,Madison WI,6
53792,-89.4012,43.0733,WI,Wisconsin,MADISON,DANE,Midwest,Madison WI,6
53793,-89.4012,43.0733,WI,Wisconsin,MADISON,DANE,Midwest,Madison WI,6
53794,-89.4012,43.0733,WI,Wisconsin,MADISON,DANE,Midwest,Madison WI,6
53957,-89.0067,43.5393,WI,Wisconsin,RANDOLPH,COLUMBIA,Midwest,Madison WI,6
53958,-90.0016,43.5282,WI,Wisconsin,REEDSBURG,SAUK,Midwest,Baraboo WI,6
54344,-88.0199,44.5195,WI,Wisconsin,GREEN BAY,BROWN,Midwest,Green Bay WI,6
54404,-90.1714,44.6687,WI,Wisconsin,MARSHFIELD,WOOD,Midwest,Wisconsin Rapids-Marshfield WI,6
54472,-90.1718,44.6688,WI,Wisconsin,MARSHFIELD,WOOD,Midwest,Wisconsin Rapids-Marshfield WI,6
54492,-89.5745,44.5236,WI,Wisconsin,STEVENS POINT,PORTAGE,Midwest,Stevens Point WI,6
54774,-91.3928,44.9367,WI,Wisconsin,CHIPPEWA FALLS,CHIPPEWA,Midwest,Eau Claire WI,6
54906,-88.5426,44.0247,WI,Wisconsin,OSHKOSH,WINNEBAGO,Midwest,Oshkosh-Neenah WI,6
54919,-88.4153,44.2617,WI,Wisconsin,APPLETON,OUTAGAMIE,Midwest,Appleton WI,6
54990,-89.1306,44.5083,WI,Wisconsin,IOLA,WAUPACA,Midwest,,6
55133,-93.0932,44.9445,MN,Minnesota,SAINT PAUL,RAMSEY,Midwest,Minneapolis-St. Paul-Bloomington MN-WI,6
55144,-93.0932,44.9445,MN,Minnesota,SAINT PAUL,RAMSEY,Midwest,Minneapolis-St. Paul-Bloomington MN-WI,6
55145,-93.0932,44.9445,MN,Minnesota,SAINT PAUL,RAMSEY,Midwest,Minneapolis-St. Paul-Bloomington MN-WI,6
55146,-93.0932,44.9445,MN,Minnesota,SAINT PAUL,RAMSEY,Midwest,Minneapolis-St. Paul-Bloomington MN-WI,6
55155,-93.0932,44.9445,MN,Minnesota,SAINT PAUL,RAMSEY,Midwest,Minneapolis-St. Paul-Bloomington MN-WI,6
55168,-93.0932,44.9445,MN,Minnesota,SAINT PAUL,RAMSEY,Midwest,Minneapolis-St. Paul-Bloomington MN-WI,6
55170,-93.0932,44.9445,MN,Minnesota,SAINT PAUL,RAMSEY,Midwest,Minneapolis-St. Paul-Bloomington MN-WI,6
55171,-93.0932,44.9445,MN,Minnesota,SAINT PAUL,RAMSEY,Midwest,Minneapolis-St. Paul-Bloomington MN-WI,6
55187,-93.0932,44.9445,MN,Minnesota,SAINT PAUL,RAMSEY,Midwest,Minneapolis-St. Paul-Bloomington MN-WI,6
55188,-92.91073,44.945528,MN,Minnesota,SAINT PAUL,RAMSEY,Midwest,Minneapolis-St. Paul-Bloomington MN-WI,6
55467,-93.26,44.98,MN,Minnesota,MINNEAPOLIS,HENNEPIN,Midwest,Minneapolis-St. Paul-Bloomington MN-WI,6
55472,-93.2637,44.9817,MN,Minnesota,MINNEAPOLIS,HENNEPIN,Midwest,Minneapolis-St. Paul-Bloomington MN-WI,6
55474,-93.2638,44.98,MN,Minnesota,MINNEAPOLIS,HENNEPIN,Midwest,Minneapolis-St. Paul-Bloomington MN-WI,6
55478,-93.2638,44.98,MN,Minnesota,MINNEAPOLIS,HENNEPIN,Midwest,Minneapolis-St. Paul-Bloomington MN-WI,6
55479,-93.2638,44.98,MN,Minnesota,MINNEAPOLIS,HENNEPIN,Midwest,Minneapolis-St. Paul-Bloomington MN-WI,6
55483,-93.2638,44.98,MN,Minnesota,MINNEAPOLIS,HENNEPIN,Midwest,Minneapolis-St. Paul-Bloomington MN-WI,6
55484,-93.2638,44.98,MN,Minnesota,MINNEAPOLIS,HENNEPIN,Midwest,Minneapolis-St. Paul-Bloomington MN-WI,6
55485,-93.2638,44.98,MN,Minnesota,MINNEAPOLIS,HENNEPIN,Midwest,Minneapolis-St. Paul-Bloomington MN-WI,6
55486,-93.2638,44.98,MN,Minnesota,MINNEAPOLIS,HENNEPIN,Midwest,Minneapolis-St. Paul-Bloomington MN-WI,6
55487,-93.2638,44.98,MN,Minnesota,MINNEAPOLIS,HENNEPIN,Midwest,Minneapolis-St. Paul-Bloomington MN-WI,6
55488,-93.2638,44.98,MN,Minnesota,MINNEAPOLIS,HENNEPIN,Midwest,Minneapolis-St. Paul-Bloomington MN-WI,6
55558,-93.9135,44.7825,MN,Minnesota,YOUNG AMERICA,CARVER,Midwest,Minneapolis-St. Paul-Bloomington MN-WI,6
55745,-93.5301,47.2374,MN,Minnesota,GRAND RAPIDS,ITASCA,Midwest,,6
55905,-92.4694,44.0217,MN,Minnesota,ROCHESTER,OLMSTED,Midwest,Rochester MN,6
56372,-94.1624,45.5608,MN,Minnesota,SAINT CLOUD,STEARNS,Midwest,St. Cloud MN,6
56393,-94.1624,45.5608,MN,Minnesota,SAINT CLOUD,STEARNS,Midwest,St. Cloud MN,6
56395,-94.1624,45.5608,MN,Minnesota,SAINT CLOUD,STEARNS,Midwest,St. Cloud MN,6
56396,-94.1624,45.5608,MN,Minnesota,SAINT CLOUD,STEARNS,Midwest,St. Cloud MN,6
56399,-94.1624,45.5608,MN,Minnesota,SAINT CLOUD,STEARNS,Midwest,St. Cloud MN,6
56901,-77.04,38.9,DC,District of Columbia,PARCEL RETURN SERVICE,DISTRICT OF COLUMBIA,South,Washington-Arlington-Alexandria DC-VA-MD-WV,5
56902,-77.036557,38.895094,DC,District of Columbia,PARCEL RETURN SERVICE,DISTRICT OF COLUMBIA,South,Washington-Arlington-Alexandria DC-VA-MD-WV,5
56904,-77.036559,38.895096,DC,District of Columbia,PARCEL RETURN SERVICE,DISTRICT OF COLUMBIA,South,Washington-Arlington-Alexandria DC-VA-MD-WV,5
56915,-76.99,38.92,DC,District of Columbia,PARCEL RETURN SERVICE,DISTRICT OF COLUMBIA,South,Washington-Arlington-Alexandria DC-VA-MD-WV,5
56920,-77.04,38.9,DC,District of Columbia,PARCEL RETURN SERVICE,DISTRICT OF COLUMBIA,South,Washington-Arlington-Alexandria DC-VA-MD-WV,5
56933,-76.99,38.86,DC,District of Columbia,PARCEL RETURN SERVICE,DISTRICT OF COLUMBIA,South,Washington-Arlington-Alexandria DC-VA-MD-WV,5
56935,0,0,DC,District of Columbia,PARCEL RETURN SERVICE,DISTRICT OF COLUMBIA,South,Washington-Arlington-Alexandria DC-VA-MD-WV,5
56944,-76.99,38.86,DC,District of Columbia,PARCEL RETURN SERVICE,DISTRICT OF COLUMBIA,South,Washington-Arlington-Alexandria DC-VA-MD-WV,5
56945,-77.036555,38.895092,DC,District of Columbia,PARCEL RETURN SERVICE,DISTRICT OF COLUMBIA,South,Washington-Arlington-Alexandria DC-VA-MD-WV,5
56950,0,0,DC,District of Columbia,PARCEL RETURN SERVICE,DISTRICT OF COLUMBIA,South,Washington-Arlington-Alexandria DC-VA-MD-WV,5
56965,0,0,DC,District of Columbia,PARCEL RETURN SERVICE,DISTRICT OF COLUMBIA,South,Washington-Arlington-Alexandria DC-VA-MD-WV,5
56967,0,0,DC,District of Columbia,PARCEL RETURN SERVICE,DISTRICT OF COLUMBIA,South,Washington-Arlington-Alexandria DC-VA-MD-WV,5
56972,-76.99,38.86,DC,District of Columbia,PARCEL RETURN SERVICE,DISTRICT OF COLUMBIA,South,Washington-Arlington-Alexandria DC-VA-MD-WV,5
56998,0,0,DC,District of Columbia,PARCEL RETURN SERVICE,DISTRICT OF COLUMBIA,South,Washington-Arlington-Alexandria DC-VA-MD-WV,6
56999,0,0,DC,District of Columbia,PARCEL RETURN SERVICE,DISTRICT OF COLUMBIA,South,Washington-Arlington-Alexandria DC-VA-MD-WV,6
57007,-96.782804,44.320074,SD,South Dakota,BROOKINGS,BROOKINGS,Midwest,Brookings SD,6
57186,-96.7002,43.5503,SD,South Dakota,SIOUX FALLS,MINNEHAHA,Midwest,Sioux Falls SD,6
57193,-96.7002,43.5503,SD,South Dakota,SIOUX FALLS,MINNEHAHA,Midwest,Sioux Falls SD,6
57197,-96.738746,43.524696,SD,South Dakota,SIOUX FALLS,MINNEHAHA,Midwest,Sioux Falls SD,6
57198,-96.7002,43.5503,SD,South Dakota,SIOUX FALLS,MINNEHAHA,Midwest,Sioux Falls SD,6
57326,-99.3303,43.8108,SD,South Dakota,CHAMBERLAIN,BRULE,Midwest,,6
57399,-98.2137,44.3633,SD,South Dakota,HURON,BEADLE,Midwest,Huron SD,6
57799,-103.872583,44.498715,SD,South Dakota,SPEARFISH,LAWRENCE,Midwest,Spearfish SD,7
58076,-96.607466,46.273042,ND,North Dakota,WAHPETON,RICHLAND,Midwest,Wahpeton ND-MN,6
58121,-96.7895,46.8774,ND,North Dakota,FARGO,CASS,Midwest,Fargo ND-MN,6
58122,-96.7895,46.8774,ND,North Dakota,FARGO,CASS,Midwest,Fargo ND-MN,6
58124,-96.7895,46.8774,ND,North Dakota,FARGO,CASS,Midwest,Fargo ND-MN,6
58125,-96.8018,46.9009,ND,North Dakota,FARGO,CASS,Midwest,Fargo ND-MN,6
58126,-96.7895,46.8774,ND,North Dakota,FARGO,CASS,Midwest,Fargo ND-MN,6
58207,-97.0325,47.9255,ND,North Dakota,GRAND FORKS,GRAND FORKS,Midwest,Grand Forks ND-MN,6
58405,-98.697198,46.914474,ND,North Dakota,JAMESTOWN,STUTSMAN,Midwest,Jamestown ND,6
58707,-101.30039,48.246287,ND,North Dakota,MINOT,WARD,Midwest,Minot ND,6
59004,-106.2703,45.5947,MT,Montana,ASHLAND,ROSEBUD,West,,7
59111,-108.5003,45.7834,MT,Montana,BILLINGS,YELLOWSTONE,West,Billings MT,7
59112,-108.5003,45.7834,MT,Montana,BILLINGS,YELLOWSTONE,West,Billings MT,7
59114,-108.5003,45.7834,MT,Montana,BILLINGS,YELLOWSTONE,West,Billings MT,7
59115,-108.5003,45.7834,MT,Montana,BILLINGS,YELLOWSTONE,West,Billings MT,7
59116,-108.5003,45.7834,MT,Montana,BILLINGS,YELLOWSTONE,West,Billings MT,7
59117,-108.5003,45.7834,MT,Montana,BILLINGS,YELLOWSTONE,West,Billings MT,7
59623,-112.0355,46.5925,MT,Montana,HELENA,LEWIS AND CLARK,West,Helena MT,7
59625,-112.038031,46.601836,MT,Montana,HELENA,LEWIS AND CLARK,West,Helena MT,7
59707,-112.5337,46.0038,MT,Montana,BUTTE,SILVER BOW,West,Butte-Silver Bow MT,7
59812,-113.980194,46.859918,MT,Montana,MISSOULA,MISSOULA,West,Missoula MT,7
60019,-87.8865,42.0188,IL,Illinois,DES PLAINES,COOK,Midwest,Chicago-Naperville-Elgin IL-IN-WI,6
60038,-88.0342,42.1106,IL,Illinois,PALATINE,COOK,Midwest,Chicago-Naperville-Elgin IL-IN-WI,6
60055,-88.0342,42.1106,IL,Illinois,PALATINE,COOK,Midwest,Chicago-Naperville-Elgin IL-IN-WI,6
60086,-87.8413,42.3256,IL,Illinois,NORTH CHICAGO,LAKE,Midwest,Chicago-Naperville-Elgin IL-IN-WI,6
60105,-87.9401,41.9552,IL,Illinois,BENSENVILLE,DUPAGE,Midwest,Chicago-Naperville-Elgin IL-IN-WI,6
60116,-88.1349,41.9125,IL,Illinois,CAROL STREAM,DUPAGE,Midwest,Chicago-Naperville-Elgin IL-IN-WI,6
60117,-88.0786,41.9479,IL,Illinois,BLOOMINGDALE,DUPAGE,Midwest,Chicago-Naperville-Elgin IL-IN-WI,6
60122,-88.2812,42.0372,IL,Illinois,CAROL STREAM,DUPAGE,Midwest,Chicago-Naperville-Elgin IL-IN-WI,6
60128,-88.1349,41.9125,IL,Illinois,CAROL STREAM,DUPAGE,Midwest,Chicago-Naperville-Elgin IL-IN-WI,6
60132,-88.1349,41.9125,IL,Illinois,CAROL STREAM,DUPAGE,Midwest,Chicago-Naperville-Elgin IL-IN-WI,6
60179,-88.0794,42.0425,IL,Illinois,HOFFMAN ESTATES,COOK,Midwest,Chicago-Naperville-Elgin IL-IN-WI,6
60196,-88.0808,41.9859,IL,Illinois,SCHAUMBURG,COOK,Midwest,Chicago-Naperville-Elgin IL-IN-WI,6
60208,-87.674324,42.055861,IL,Illinois,EVANSTON,COOK,Midwest,Chicago-Naperville-Elgin IL-IN-WI,6
60209,-87.6903,42.0412,IL,Illinois,EVANSTON,COOK,Midwest,Chicago-Naperville-Elgin IL-IN-WI,6
60290,-87.65,41.85,IL,Illinois,CHICAGO,COOK,Midwest,Chicago-Naperville-Elgin IL-IN-WI,6
60399,-87.9401,41.9552,IL,Illinois,WOOD DALE,DUPAGE,Midwest,Chicago-Naperville-Elgin IL-IN-WI,6
60568,-88.3202,41.7607,IL,Illinois,AURORA,KANE,Midwest,Chicago-Naperville-Elgin IL-IN-WI,6
60572,-88.2415,41.7552,IL,Illinois,AURORA,DUPAGE,Midwest,Chicago-Naperville-Elgin IL-IN-WI,6
60668,-87.65,41.8501,IL,Illinois,CHICAGO,COOK,Midwest,Chicago-Naperville-Elgin IL-IN-WI,6
60669,-87.65,41.8501,IL,Illinois,CHICAGO,COOK,Midwest,Chicago-Naperville-Elgin IL-IN-WI,6
60670,-87.65,41.8501,IL,Illinois,CHICAGO,COOK,Midwest,Chicago-Naperville-Elgin IL-IN-WI,6
60673,-87.65,41.8501,IL,Illinois,CHICAGO,COOK,Midwest,Chicago-Naperville-Elgin IL-IN-WI,6
60674,-87.6503,41.8852,IL,Illinois,CHICAGO,COOK,Midwest,Chicago-Naperville-Elgin IL-IN-WI,6
60675,-87.65,41.8501,IL,Illinois,CHICAGO,COOK,Midwest,Chicago-Naperville-Elgin IL-IN-WI,6
60677,-87.65,41.8501,IL,Illinois,CHICAGO,COOK,Midwest,Chicago-Naperville-Elgin IL-IN-WI,6
60678,-87.65,41.8501,IL,Illinois,CHICAGO,COOK,Midwest,Chicago-Naperville-Elgin IL-IN-WI,6
60682,-87.81,41.86,IL,Illinois,CHICAGO,COOK,Midwest,Chicago-Naperville-Elgin IL-IN-WI,6
60684,-87.65,41.8501,IL,Illinois,CHICAGO,COOK,Midwest,Chicago-Naperville-Elgin IL-IN-WI,6
60685,-87.65,41.8501,IL,Illinois,CHICAGO,COOK,Midwest,Chicago-Naperville-Elgin IL-IN-WI,6
60686,-87.65,41.8501,IL,Illinois,CHICAGO,COOK,Midwest,Chicago-Naperville-Elgin IL-IN-WI,6
60687,-87.65,41.8501,IL,Illinois,CHICAGO,COOK,Midwest,Chicago-Naperville-Elgin IL-IN-WI,6
60688,-87.65,41.8501,IL,Illinois,CHICAGO,COOK,Midwest,Chicago-Naperville-Elgin IL-IN-WI,6
60689,-87.63,41.87,IL,Illinois,CHICAGO,COOK,Midwest,Chicago-Naperville-Elgin IL-IN-WI,6
60693,-87.65,41.8501,IL,Illinois,CHICAGO,COOK,Midwest,Chicago-Naperville-Elgin IL-IN-WI,6
60694,-87.65,41.8501,IL,Illinois,CHICAGO,COOK,Midwest,Chicago-Naperville-Elgin IL-IN-WI,6
60695,-87.65,41.85,IL,Illinois,CHICAGO,COOK,Midwest,Chicago-Naperville-Elgin IL-IN-WI,6
60696,-87.65,41.8501,IL,Illinois,CHICAGO,COOK,Midwest,Chicago-Naperville-Elgin IL-IN-WI,6
60697,-87.65,41.8501,IL,Illinois,CHICAGO,COOK,Midwest,Chicago-Naperville-Elgin IL-IN-WI,6
61299,-90.5786,41.5095,IL,Illinois,ROCK ISLAND,ROCK ISLAND,Midwest,Davenport-Moline-Rock Island IA-IL,6
61558,-89.6406,40.5675,IL,Illinois,PEKIN,TAZEWELL,Midwest,Peoria IL,6
61613,-89.5887,40.6937,IL,Illinois,PEORIA,PEORIA,Midwest,Peoria IL,6
61625,-89.616055,40.698069,IL,Illinois,PEORIA,PEORIA,Midwest,Peoria IL,6
61629,-89.5887,40.6937,IL,Illinois,PEORIA,PEORIA,Midwest,Peoria IL,6
61630,-89.5887,40.6937,IL,Illinois,PEORIA,PEORIA,Midwest,Peoria IL,6
61633,-89.5887,40.6937,IL,Illinois,PEORIA,PEORIA,Midwest,Peoria IL,6
61634,-89.5887,40.6937,IL,Illinois,PEORIA,PEORIA,Midwest,Peoria IL,6
61635,-89.520696,40.709466,IL,Illinois,EAST PEORIA,TAZEWELL,Midwest,Peoria IL,6
61636,-89.5887,40.6937,IL,Illinois,PEORIA,PEORIA,Midwest,Peoria IL,6
61637,-89.5887,40.6937,IL,Illinois,PEORIA,PEORIA,Midwest,Peoria IL,6
61638,-89.5887,40.6937,IL,Illinois,PEORIA,PEORIA,Midwest,Peoria IL,6
61639,-89.5887,40.6937,IL,Illinois,PEORIA,PEORIA,Midwest,Peoria IL,6
61641,-89.5887,40.6937,IL,Illinois,PEORIA,PEORIA,Midwest,Peoria IL,6
61643,-89.5887,40.6937,IL,Illinois,PEORIA,PEORIA,Midwest,Peoria IL,6
61709,-88.9939,40.4845,IL,Illinois,BLOOMINGTON,MCLEAN,Midwest,Bloomington IL,6
61710,-88.9939,40.4845,IL,Illinois,BLOOMINGTON,MCLEAN,Midwest,Bloomington IL,6
61790,-89.009336,40.52451,IL,Illinois,NORMAL,MCLEAN,Midwest,Bloomington IL,6
61791,-88.9876,40.4792,IL,Illinois,BLOOMINGTON,MCLEAN,Midwest,Bloomington IL,6
61799,-88.9939,40.4842,IL,Illinois,BLOOMINGTON,MCLEAN,Midwest,Bloomington IL,6
62026,-89.998742,38.793699,IL,Illinois,EDWARDSVILLE,MADISON,Midwest,St. Louis MO-IL,6
62706,-89.6436,39.8018,IL,Illinois,SPRINGFIELD,SANGAMON,Midwest,Springfield IL,6
62715,-89.6436,39.8018,IL,Illinois,SPRINGFIELD,SANGAMON,Midwest,Springfield IL,6
62716,-89.6436,39.8018,IL,Illinois,SPRINGFIELD,SANGAMON,Midwest,Springfield IL,6
62719,-89.6436,39.8018,IL,Illinois,SPRINGFIELD,SANGAMON,Midwest,Springfield IL,6
62721,-89.6436,39.8018,IL,Illinois,SPRINGFIELD,SANGAMON,Midwest,Springfield IL,6
62722,-89.6436,39.8018,IL,Illinois,SPRINGFIELD,SANGAMON,Midwest,Springfield IL,6
62723,-89.6436,39.8018,IL,Illinois,SPRINGFIELD,SANGAMON,Midwest,Springfield IL,6
62726,-89.6436,39.8018,IL,Illinois,SPRINGFIELD,SANGAMON,Midwest,Springfield IL,6
62736,-89.6436,39.8018,IL,Illinois,SPRINGFIELD,SANGAMON,Midwest,Springfield IL,6
62739,-89.6436,39.8018,IL,Illinois,SPRINGFIELD,SANGAMON,Midwest,Springfield IL,6
62756,-89.6436,39.8018,IL,Illinois,SPRINGFIELD,SANGAMON,Midwest,Springfield IL,6
62757,-89.6436,39.8018,IL,Illinois,SPRINGFIELD,SANGAMON,Midwest,Springfield IL,6
62761,-89.6436,39.8018,IL,Illinois,SPRINGFIELD,SANGAMON,Midwest,Springfield IL,6
62762,-89.6436,39.8018,IL,Illinois,SPRINGFIELD,SANGAMON,Midwest,Springfield IL,6
62763,-89.6436,39.8018,IL,Illinois,SPRINGFIELD,SANGAMON,Midwest,Springfield IL,6
62764,-89.6436,39.8018,IL,Illinois,SPRINGFIELD,SANGAMON,Midwest,Springfield IL,6
62765,-89.6436,39.8018,IL,Illinois,SPRINGFIELD,SANGAMON,Midwest,Springfield IL,6
62766,-89.6436,39.8018,IL,Illinois,SPRINGFIELD,SANGAMON,Midwest,Springfield IL,6
62767,-89.6436,39.8018,IL,Illinois,SPRINGFIELD,SANGAMON,Midwest,Springfield IL,6
62769,-89.6436,39.8018,IL,Illinois,SPRINGFIELD,SANGAMON,Midwest,Springfield IL,6
62776,-89.6436,39.8018,IL,Illinois,SPRINGFIELD,SANGAMON,Midwest,Springfield IL,6
62777,-89.6436,39.8018,IL,Illinois,SPRINGFIELD,SANGAMON,Midwest,Springfield IL,6
62781,-89.6436,39.8018,IL,Illinois,SPRINGFIELD,SANGAMON,Midwest,Springfield IL,6
62786,-89.6436,39.8018,IL,Illinois,SPRINGFIELD,SANGAMON,Midwest,Springfield IL,6
62796,-89.6436,39.8018,IL,Illinois,SPRINGFIELD,SANGAMON,Midwest,Springfield IL,6
63099,-90.4355,38.5131,MO,Missouri,FENTON,SAINT LOUIS,Midwest,St. Louis MO-IL,6
63150,-90.1978,38.6272,MO,Missouri,SAINT LOUIS,SAINT LOUIS CITY,Midwest,St. Louis MO-IL,6
63160,-90.1978,38.6272,MO,Missouri,SAINT LOUIS,SAINT LOUIS CITY,Midwest,St. Louis MO-IL,6
63164,-90.1978,38.6272,MO,Missouri,SAINT LOUIS,SAINT LOUIS CITY,Midwest,St. Louis MO-IL,6
63167,-90.2062,38.6328,MO,Missouri,SAINT LOUIS,SAINT LOUIS,Midwest,St. Louis MO-IL,6
63171,-90.1978,38.6272,MO,Missouri,SAINT LOUIS,SAINT LOUIS CITY,Midwest,St. Louis MO-IL,6
63180,-90.1978,38.6272,MO,Missouri,SAINT LOUIS,SAINT LOUIS CITY,Midwest,St. Louis MO-IL,6
63182,-90.1978,38.6272,MO,Missouri,SAINT LOUIS,SAINT LOUIS CITY,Midwest,St. Louis MO-IL,6
63195,-90.1978,38.6272,MO,Missouri,SAINT LOUIS,SAINT LOUIS CITY,Midwest,St. Louis MO-IL,6
63197,-90.1978,38.6272,MO,Missouri,SAINT LOUIS,SAINT LOUIS CITY,Midwest,St. Louis MO-IL,6
63199,-90.1978,38.6272,MO,Missouri,SAINT LOUIS,SAINT LOUIS CITY,Midwest,St. Louis MO-IL,6
64002,0,0,MO,Missouri,LEES SUMMIT,JACKSON,Midwest,Kansas City MO-KS,6
64065,-94.4053,38.9529,MO,Missouri,LEES SUMMIT,JACKSON,Midwest,Kansas City MO-KS,6
64144,-94.5891,39.0829,MO,Missouri,KANSAS CITY,CLAY,Midwest,Kansas City MO-KS,6
64162,0,0,MO,Missouri,KANSAS CITY,CLAY,Midwest,Kansas City MO-KS,6
64170,-94.5784,39.0997,MO,Missouri,KANSAS CITY,JACKSON,Midwest,Kansas City MO-KS,6
64179,-94.5784,39.0997,MO,Missouri,KANSAS CITY,JACKSON,Midwest,Kansas City MO-KS,6
64180,-94.5784,39.0997,MO,Missouri,KANSAS CITY,JACKSON,Midwest,Kansas City MO-KS,6
64184,-94.5784,39.0997,MO,Missouri,KANSAS CITY,JACKSON,Midwest,Kansas City MO-KS,6
64187,-94.5784,39.0997,MO,Missouri,KANSAS CITY,JACKSON,Midwest,Kansas City MO-KS,6
64197,-94.5784,39.0997,MO,Missouri,KANSAS CITY,JACKSON,Midwest,Kansas City MO-KS,6
64198,-94.5784,39.0997,MO,Missouri,KANSAS CITY,JACKSON,Midwest,Kansas City MO-KS,6
64999,-94.5783,39.0994,MO,Missouri,KANSAS CITY,JACKSON,Midwest,Kansas City MO-KS,6
65103,-92.1736,38.5764,MO,Missouri,JEFFERSON CITY,COLE,Midwest,Jefferson City MO,6
65104,-92.1736,38.5764,MO,Missouri,JEFFERSON CITY,COLE,Midwest,Jefferson City MO,6
65105,-92.1736,38.5764,MO,Missouri,JEFFERSON CITY,COLE,Midwest,Jefferson City MO,6
65106,-92.1736,38.5764,MO,Missouri,JEFFERSON CITY,COLE,Midwest,Jefferson City MO,6
65107,-92.1736,38.5764,MO,Missouri,JEFFERSON CITY,COLE,Midwest,Jefferson City MO,6
65108,-92.1736,38.5764,MO,Missouri,JEFFERSON CITY,COLE,Midwest,Jefferson City MO,6
65111,-92.1632,38.5476,MO,Missouri,JEFFERSON CITY,COLE,Midwest,Jefferson City MO,6
65211,-92.315215,38.93714,MO,Missouri,COLUMBIA,BOONE,Midwest,Columbia MO,6
65212,-92.3336,38.9518,MO,Missouri,COLUMBIA,BOONE,Midwest,Columbia MO,6
65215,-92.319306,38.952289,MO,Missouri,COLUMBIA,BOONE,Midwest,Columbia MO,6
65216,-92.32657,38.957885,MO,Missouri,COLUMBIA,BOONE,Midwest,Columbia MO,6
65217,-92.3336,38.9518,MO,Missouri,COLUMBIA,BOONE,Midwest,Columbia MO,6
65218,-92.3336,38.9518,MO,Missouri,COLUMBIA,BOONE,Midwest,Columbia MO,6
65409,-91.774097,37.954741,MO,Missouri,ROLLA,PHELPS,Midwest,Rolla MO,6
65890,-93.2981,37.2155,MO,Missouri,SPRINGFIELD,GREENE,Midwest,Springfield MO,6
65897,-93.276596,37.197212,MO,Missouri,SPRINGFIELD,GREENE,Midwest,Springfield MO,6
65898,-93.2981,37.2155,MO,Missouri,SPRINGFIELD,GREENE,Midwest,Springfield MO,6
65899,-93.2981,37.2155,MO,Missouri,SPRINGFIELD,GREENE,Midwest,Springfield MO,6
66045,-95.253092,38.957116,KS,Kansas,LAWRENCE,DOUGLAS,Midwest,Lawrence KS,6
66160,-94.610688,39.055524,KS,Kansas,KANSAS CITY,WYANDOTTE,Midwest,Kansas City MO-KS,6
66250,-94.6646,39.0241,KS,Kansas,LENEXA,JOHNSON,Midwest,Kansas City MO-KS,6
66251,-94.657952,38.918541,KS,Kansas,OVERLAND PARK,JOHNSON,Midwest,Kansas City MO-KS,6
66276,-94.6664,39.0217,KS,Kansas,LENEXA,JOHNSON,Midwest,Kansas City MO-KS,6
66620,-95.6778,39.0486,KS,Kansas,TOPEKA,SHAWNEE,Midwest,Topeka KS,6
66622,-95.6778,39.0486,KS,Kansas,TOPEKA,SHAWNEE,Midwest,Topeka KS,6
66624,-95.689847,38.935339,KS,Kansas,TOPEKA,SHAWNEE,Midwest,Topeka KS,6
66625,-95.6778,39.0486,KS,Kansas,TOPEKA,SHAWNEE,Midwest,Topeka KS,6
66626,-95.6778,39.0486,KS,Kansas,TOPEKA,SHAWNEE,Midwest,Topeka KS,6
66629,-95.6778,39.0486,KS,Kansas,TOPEKA,SHAWNEE,Midwest,Topeka KS,6
66636,-95.6778,39.0486,KS,Kansas,TOPEKA,SHAWNEE,Midwest,Topeka KS,6
66699,-95.6778,39.0486,KS,Kansas,TOPEKA,SHAWNEE,Midwest,Topeka KS,6
67260,-97.296513,37.716761,KS,Kansas,WICHITA,SEDGWICK,Midwest,Wichita KS,6
68172,-95.9376,41.2586,NE,Nebraska,OMAHA,DOUGLAS,Midwest,Omaha-Council Bluffs NE-IA,6
68175,-95.9376,41.2586,NE,Nebraska,OMAHA,DOUGLAS,Midwest,Omaha-Council Bluffs NE-IA,6
68176,-95.9376,41.2586,NE,Nebraska,OMAHA,DOUGLAS,Midwest,Omaha-Council Bluffs NE-IA,6
68178,-95.9376,41.2586,NE,Nebraska,OMAHA,DOUGLAS,Midwest,Omaha-Council Bluffs NE-IA,6
68179,-95.9376,41.2586,NE,Nebraska,OMAHA,DOUGLAS,Midwest,Omaha-Council Bluffs NE-IA,6
68180,-95.9376,41.2586,NE,Nebraska,OMAHA,DOUGLAS,Midwest,Omaha-Council Bluffs NE-IA,6
68182,-96.009628,41.257059,NE,Nebraska,OMAHA,DOUGLAS,Midwest,Omaha-Council Bluffs NE-IA,6
68183,-95.9376,41.2586,NE,Nebraska,OMAHA,DOUGLAS,Midwest,Omaha-Council Bluffs NE-IA,6
68197,-95.9376,41.2586,NE,Nebraska,OMAHA,DOUGLAS,Midwest,Omaha-Council Bluffs NE-IA,6
68198,-95.977392,41.255132,NE,Nebraska,OMAHA,DOUGLAS,Midwest,Omaha-Council Bluffs NE-IA,6
68544,0,0,NE,Nebraska,LINCOLN,LANCASTER,Midwest,Lincoln NE,6
68849,-99.101644,40.698904,NE,Nebraska,KEARNEY,BUFFALO,Midwest,Kearney NE,6
69160,-102.9776,41.1429,NE,Nebraska,SIDNEY,CHEYENNE,Midwest,,7
69190,-102.3428,41.4067,NE,Nebraska,OSHKOSH,GARDEN,Midwest,,7
70060,-90.1526,29.9839,LA,Louisiana,METAIRIE,JEFFERSON,South,New Orleans-Metairie LA,6
70142,-90.0753,29.9545,LA,Louisiana,NEW ORLEANS,ORLEANS,South,New Orleans-Metairie LA,6
70143,-90.021571,29.826548,LA,Louisiana,NEW ORLEANS,ORLEANS,South,New Orleans-Metairie LA,6
70148,-90.043625,30.030932,LA,Louisiana,NEW ORLEANS,ORLEANS,South,New Orleans-Metairie LA,6
70154,-90.0753,29.9545,LA,Louisiana,NEW ORLEANS,ORLEANS,South,New Orleans-Metairie LA,6
70159,-90.0753,29.9545,LA,Louisiana,NEW ORLEANS,ORLEANS,South,New Orleans-Metairie LA,6
70162,-90.0753,29.9545,LA,Louisiana,NEW ORLEANS,ORLEANS,South,New Orleans-Metairie LA,6
70164,-90.0753,29.9545,LA,Louisiana,NEW ORLEANS,ORLEANS,South,New Orleans-Metairie LA,6
70165,-90.0753,29.9545,LA,Louisiana,NEW ORLEANS,ORLEANS,South,New Orleans-Metairie LA,6
70166,-90.0753,29.9545,LA,Louisiana,NEW ORLEANS,ORLEANS,South,New Orleans-Metairie LA,6
70167,-90.0753,29.9545,LA,Louisiana,NEW ORLEANS,ORLEANS,South,New Orleans-Metairie LA,6
70195,-90.0753,29.9545,LA,Louisiana,NEW ORLEANS,ORLEANS,South,New Orleans-Metairie LA,6
70310,-90.7984,29.7934,LA,Louisiana,THIBODAUX,LAFOURCHE,South,Houma-Thibodaux LA,6
70402,-90.468484,30.515598,LA,Louisiana,HAMMOND,TANGIPAHOA,South,Hammond LA,6
70504,-92.044906,30.222033,LA,Louisiana,LAFAYETTE,LAFAYETTE,South,Lafayette LA,6
70609,-93.216234,30.179773,LA,Louisiana,LAKE CHARLES,CALCASIEU,South,Lake Charles LA,6
70803,-91.185907,30.41183,LA,Louisiana,BATON ROUGE,EAST BATON ROUGE,South,Baton Rouge LA,6
70813,-91.199374,30.527012,LA,Louisiana,BATON ROUGE,EAST BATON ROUGE,South,Baton Rouge LA,6
70822,-91.1547,30.4506,LA,Louisiana,BATON ROUGE,EAST BATON ROUGE,South,Baton Rouge LA,6
70823,-91.1547,30.4506,LA,Louisiana,BATON ROUGE,EAST BATON ROUGE,South,Baton Rouge LA,6
70833,-91.1547,30.4506,LA,Louisiana,BATON ROUGE,EAST BATON ROUGE,South,Baton Rouge LA,6
70891,-91.18,30.45,LA,Louisiana,BATON ROUGE,EAST BATON ROUGE,South,Baton Rouge LA,6
71151,-93.7501,32.5253,LA,Louisiana,SHREVEPORT,CADDO,South,Shreveport-Bossier City LA,6
71152,-93.7501,32.5253,LA,Louisiana,SHREVEPORT,CADDO,South,Shreveport-Bossier City LA,6
71153,-93.7501,32.5253,LA,Louisiana,SHREVEPORT,CADDO,South,Shreveport-Bossier City LA,6
71154,-93.7501,32.5253,LA,Louisiana,SHREVEPORT,CADDO,South,Shreveport-Bossier City LA,6
71156,-93.7501,32.5253,LA,Louisiana,SHREVEPORT,CADDO,South,Shreveport-Bossier City LA,6
71209,-92.072427,32.527957,LA,Louisiana,MONROE,OUACHITA,South,Monroe LA,6
71212,-92.1195,32.5092,LA,Louisiana,MONROE,OUACHITA,South,Monroe LA,6
71272,-92.6376,32.5233,LA,Louisiana,RUSTON,LINCOLN,South,Ruston LA,6
71359,-92.4343,31.3222,LA,Louisiana,PINEVILLE,RAPIDES,South,Alexandria LA,6
71497,-93.0861,31.7609,LA,Louisiana,NATCHITOCHES,NATCHITOCHES,South,Natchitoches LA,6
71998,-93.053511,34.127184,AR,Arkansas,ARKADELPHIA,CLARK,South,Arkadelphia AR,6
71999,-93.059032,34.127458,AR,Arkansas,ARKADELPHIA,CLARK,South,Arkadelphia AR,6
72035,-92.458692,35.075725,AR,Arkansas,CONWAY,FAULKNER,South,Little Rock-North Little Rock-Conway AR,6
72099,-92.137929,34.907709,AR,Arkansas,LITTLE ROCK AIR FORCE BASE,PULASKI,South,Little Rock-North Little Rock-Conway AR,6
72149,-91.726791,35.24728,AR,Arkansas,SEARCY,WHITE,South,Searcy AR,6
72199,-92.318996,34.887273,AR,Arkansas,NORTH LITTLE ROCK,PULASKI,South,Little Rock-North Little Rock-Conway AR,6
72255,0,0,AR,Arkansas,LITTLE ROCK,PULASKI,South,Little Rock-North Little Rock-Conway AR,6
72545,-92.0313,35.4917,AR,Arkansas,HEBER SPRINGS,CLEBURNE,South,,6
72716,-94.1888,36.3163,AR,Arkansas,BENTONVILLE,BENTON,South,Fayetteville-Springdale-Rogers AR-MO,6
72905,-94.199378,35.252288,AR,Arkansas,FORT SMITH,SEBASTIAN,South,Fort Smith AR-OK,6
72919,-94.4134,35.3666,AR,Arkansas,FORT SMITH,SEBASTIAN,South,Fort Smith AR-OK,6
73019,-97.4395,35.2227,OK,Oklahoma,NORMAN,CLEVELAND,South,Oklahoma City OK,6
73184,-97.5164,35.4678,OK,Oklahoma,OKLAHOMA CITY,OKLAHOMA,South,Oklahoma City OK,6
73185,-97.5164,35.4678,OK,Oklahoma,OKLAHOMA CITY,OKLAHOMA,South,Oklahoma City OK,6
73190,-97.5164,35.4678,OK,Oklahoma,OKLAHOMA CITY,OKLAHOMA,South,Oklahoma City OK,6
73194,-97.5164,35.4678,OK,Oklahoma,OKLAHOMA CITY,OKLAHOMA,South,Oklahoma City OK,6
73196,-97.5164,35.4678,OK,Oklahoma,OKLAHOMA CITY,OKLAHOMA,South,Oklahoma City OK,6
73301,-97.7429,30.2669,TX,Texas,AUSTIN,TRAVIS,South,Austin-Round Rock TX,6
73344,-97.7429,30.2669,TX,Texas,AUSTIN,TRAVIS,South,Austin-Round Rock TX,6
73536,-97.9576,34.5023,OK,Oklahoma,DUNCAN,STEPHENS,South,Duncan OK,6
74004,-95.9808,36.7473,OK,Oklahoma,BARTLESVILLE,WASHINGTON,South,Bartlesville OK,6
74077,-97.071449,36.123248,OK,Oklahoma,STILLWATER,PAYNE,South,Stillwater OK,6
74078,-97.079582,36.126099,OK,Oklahoma,STILLWATER,PAYNE,South,Stillwater OK,6
74141,-95.9926,36.1537,OK,Oklahoma,TULSA,TULSA,South,Tulsa OK,6
74171,-95.952235,36.050012,OK,Oklahoma,TULSA,TULSA,South,Tulsa OK,6
74182,-95.9926,36.1537,OK,Oklahoma,TULSA,TULSA,South,Tulsa OK,6
74186,-95.9926,36.1537,OK,Oklahoma,TULSA,TULSA,South,Tulsa OK,6
74187,-95.9926,36.1537,OK,Oklahoma,TULSA,TULSA,South,Tulsa OK,6
74192,-95.9926,36.1537,OK,Oklahoma,TULSA,TULSA,South,Tulsa OK,6
74193,-95.9926,36.1537,OK,Oklahoma,TULSA,TULSA,South,Tulsa OK,6
75099,-97.0149,32.9547,TX,Texas,COPPELL,DALLAS,South,Dallas-Fort Worth-Arlington TX,6
75275,-96.8001,32.7835,TX,Texas,DALLAS,DALLAS,South,Dallas-Fort Worth-Arlington TX,6
75277,-96.8001,32.7835,TX,Texas,DALLAS,DALLAS,South,Dallas-Fort Worth-Arlington TX,6
75283,-96.8001,32.7835,TX,Texas,DALLAS,DALLAS,South,Dallas-Fort Worth-Arlington TX,6
75284,-96.8001,32.7835,TX,Texas,DALLAS,DALLAS,South,Dallas-Fort Worth-Arlington TX,6
75285,-96.8001,32.7835,TX,Texas,DALLAS,DALLAS,South,Dallas-Fort Worth-Arlington TX,6
75301,-96.8001,32.7835,TX,Texas,DALLAS,DALLAS,South,Dallas-Fort Worth-Arlington TX,6
75303,-96.8001,32.7835,TX,Texas,DALLAS,DALLAS,South,Dallas-Fort Worth-Arlington TX,6
75312,-96.8001,32.7835,TX,Texas,DALLAS,DALLAS,South,Dallas-Fort Worth-Arlington TX,6
75320,-96.8001,32.7835,TX,Texas,DALLAS,DALLAS,South,Dallas-Fort Worth-Arlington TX,6
75326,-96.8001,32.7835,TX,Texas,DALLAS,DALLAS,South,Dallas-Fort Worth-Arlington TX,6
75358,-96.87,32.94,TX,Texas,DALLAS,DALLAS,South,Dallas-Fort Worth-Arlington TX,6
75368,-96.8001,32.7835,TX,Texas,DALLAS,DALLAS,South,Dallas-Fort Worth-Arlington TX,6
75373,-96.8001,32.7835,TX,Texas,DALLAS,DALLAS,South,Dallas-Fort Worth-Arlington TX,6
75389,-96.8001,32.7835,TX,Texas,DALLAS,DALLAS,South,Dallas-Fort Worth-Arlington TX,6
75390,-96.8001,32.7835,TX,Texas,DALLAS,DALLAS,South,Dallas-Fort Worth-Arlington TX,6
75391,-96.8001,32.7835,TX,Texas,DALLAS,DALLAS,South,Dallas-Fort Worth-Arlington TX,6
75392,-96.8001,32.7835,TX,Texas,DALLAS,DALLAS,South,Dallas-Fort Worth-Arlington TX,6
75393,-96.8001,32.7835,TX,Texas,DALLAS,DALLAS,South,Dallas-Fort Worth-Arlington TX,6
75394,-96.8001,32.7835,TX,Texas,DALLAS,DALLAS,South,Dallas-Fort Worth-Arlington TX,6
75395,-96.8001,32.7835,TX,Texas,DALLAS,DALLAS,South,Dallas-Fort Worth-Arlington TX,6
75397,-96.8001,32.7835,TX,Texas,DALLAS,DALLAS,South,Dallas-Fort Worth-Arlington TX,6
75507,-94.0478,33.425,TX,Texas,TEXARKANA,BOWIE,South,Texarkana TX-AR,6
75599,-94.07748,33.444177,TX,Texas,TEXARKANA,BOWIE,South,Texarkana TX-AR,6
75797,-95.1147,32.5872,TX,Texas,BIG SANDY,UPSHUR,South,Longview TX,6
75798,-95.282902,32.335053,TX,Texas,TYLER,SMITH,South,Tyler TX,6
75799,-95.252338,32.316034,TX,Texas,TYLER,SMITH,South,Tyler TX,6
75880,-95.8386,31.8355,TX,Texas,TENNESSEE COLONY,ANDERSON,South,Palestine TX,6
75882,-95.6306,31.7617,TX,Texas,PALESTINE,ANDERSON,South,Palestine TX,6
75884,-95.8386,31.8355,TX,Texas,TENNESSEE COLONY,ANDERSON,South,Palestine TX,6
75886,-95.8386,31.8355,TX,Texas,TENNESSEE COLONY,ANDERSON,South,Palestine TX,6
75962,-94.647176,31.619626,TX,Texas,NACOGDOCHES,NACOGDOCHES,South,Nacogdoches TX,6
75990,-94.4156,30.7753,TX,Texas,WOODVILLE,TYLER,South,,6
76019,-97.116697,32.728466,TX,Texas,ARLINGTON,TARRANT,South,Dallas-Fort Worth-Arlington TX,6
76122,-97.348186,32.681817,TX,Texas,FORT WORTH,TARRANT,South,Dallas-Fort Worth-Arlington TX,6
76129,-97.362934,32.709376,TX,Texas,FORT WORTH,TARRANT,South,Dallas-Fort Worth-Arlington TX,6
76130,-97.3208,32.7254,TX,Texas,FORT WORTH,TARRANT,South,Dallas-Fort Worth-Arlington TX,6
76150,-97.3208,32.7254,TX,Texas,FORT WORTH,TARRANT,South,Dallas-Fort Worth-Arlington TX,6
76166,-97.32,32.73,TX,Texas,FORT WORTH,TARRANT,South,Dallas-Fort Worth-Arlington TX,6
76190,0,0,TX,Texas,FORT WORTH,TARRANT,South,Dallas-Fort Worth-Arlington TX,6
76191,-97.3208,32.7254,TX,Texas,FORT WORTH,TARRANT,South,Dallas-Fort Worth-Arlington TX,6
76192,-97.3208,32.7254,TX,Texas,FORT WORTH,TARRANT,South,Dallas-Fort Worth-Arlington TX,6
76193,-97.3208,32.7254,TX,Texas,FORT WORTH,TARRANT,South,Dallas-Fort Worth-Arlington TX,6
76195,-97.3208,32.7254,TX,Texas,FORT WORTH,TARRANT,South,Dallas-Fort Worth-Arlington TX,6
76196,-97.3208,32.7254,TX,Texas,FORT WORTH,TARRANT,South,Dallas-Fort Worth-Arlington TX,6
76197,-97.3208,32.7254,TX,Texas,FORT WORTH,TARRANT,South,Dallas-Fort Worth-Arlington TX,6
76198,-97.3208,32.7254,TX,Texas,FORT WORTH,TARRANT,South,Dallas-Fort Worth-Arlington TX,6
76199,-97.3208,32.7254,TX,Texas,FORT WORTH,TARRANT,South,Dallas-Fort Worth-Arlington TX,6
76402,-98.223924,32.216015,TX,Texas,STEPHENVILLE,ERATH,South,Stephenville TX,6
76508,-97.3427,31.0982,TX,Texas,TEMPLE,BELL,South,Killeen-Temple TX,6
76596,-97.7368,31.43,TX,Texas,GATESVILLE,CORYELL,South,Killeen-Temple TX,6
76597,-97.7439,31.4351,TX,Texas,GATESVILLE,CORYELL,South,Killeen-Temple TX,6
76598,-97.7439,31.4351,TX,Texas,GATESVILLE,CORYELL,South,Killeen-Temple TX,6
76599,-97.7439,31.4351,TX,Texas,GATESVILLE,CORYELL,South,Killeen-Temple TX,6
76797,-97.1464,31.5495,TX,Texas,WACO,MCLENNAN,South,Waco TX,6
76799,-97.1464,31.5495,TX,Texas,WACO,MCLENNAN,South,Waco TX,6
76909,-100.459424,31.437842,TX,Texas,SAN ANGELO,TOM GREEN,South,San Angelo TX,6
77204,-95.3633,29.7632,TX,Texas,HOUSTON,HARRIS,South,Houston-The Woodlands-Sugar Land TX,6
77209,-95.1646,29.6078,TX,Texas,HOUSTON,HARRIS,South,Houston-The Woodlands-Sugar Land TX,6
77212,-95.3633,29.7632,TX,Texas,HOUSTON,HARRIS,South,Houston-The Woodlands-Sugar Land TX,6
77216,-95.3633,29.7632,TX,Texas,HOUSTON,HARRIS,South,Houston-The Woodlands-Sugar Land TX,6
77297,-95.3633,29.7632,TX,Texas,HOUSTON,HARRIS,South,Houston-The Woodlands-Sugar Land TX,6
77299,-95.3633,29.7632,TX,Texas,HOUSTON,HARRIS,South,Houston-The Woodlands-Sugar Land TX,6
77341,-95.547942,30.714196,TX,Texas,HUNTSVILLE,WALKER,South,Huntsville TX,6
77343,-95.5508,30.7234,TX,Texas,HUNTSVILLE,WALKER,South,Huntsville TX,6
77344,-95.5508,30.7234,TX,Texas,HUNTSVILLE,WALKER,South,Huntsville TX,6
77348,-95.5508,30.7234,TX,Texas,HUNTSVILLE,WALKER,South,Huntsville TX,6
77349,-95.5508,30.7234,TX,Texas,HUNTSVILLE,WALKER,South,Huntsville TX,6
77399,-94.9414,30.7153,TX,Texas,LIVINGSTON,POLK,South,,6
77555,-94.7926,29.2992,TX,Texas,GALVESTON,GALVESTON,South,Houston-The Woodlands-Sugar Land TX,6
77843,-96.350119,30.608359,TX,Texas,COLLEGE STATION,BRAZOS,South,College Station-Bryan TX,6
78288,-98.4935,29.4239,TX,Texas,SAN ANTONIO,BEXAR,South,San Antonio-New Braunfels TX,6
78289,-98.4935,29.4239,TX,Texas,SAN ANTONIO,BEXAR,South,San Antonio-New Braunfels TX,6
78682,-97.6692,30.5155,TX,Texas,ROUND ROCK,WILLIAMSON,South,Austin-Round Rock TX,6
78772,-97.7428,30.2667,TX,Texas,AUSTIN,TRAVIS,South,Austin-Round Rock TX,6
78773,-97.7428,30.2667,TX,Texas,AUSTIN,TRAVIS,South,Austin-Round Rock TX,6
78774,-97.7428,30.2667,TX,Texas,AUSTIN,TRAVIS,South,Austin-Round Rock TX,6
78778,-97.7428,30.2667,TX,Texas,AUSTIN,TRAVIS,South,Austin-Round Rock TX,6
78779,-97.7428,30.2667,TX,Texas,AUSTIN,TRAVIS,South,Austin-Round Rock TX,6
78783,-97.7428,30.2667,TX,Texas,AUSTIN,TRAVIS,South,Austin-Round Rock TX,6
78847,-100.8967,29.3627,TX,Texas,DEL RIO,VAL VERDE,South,Del Rio TX,6
79016,-101.913857,34.992095,TX,Texas,CANYON,RANDALL,South,Amarillo TX,6
79166,-101.8309,35.2218,TX,Texas,AMARILLO,POTTER,South,Amarillo TX,6
79168,-101.8309,35.2218,TX,Texas,AMARILLO,POTTER,South,Amarillo TX,6
79172,-101.8309,35.2218,TX,Texas,AMARILLO,POTTER,South,Amarillo TX,6
79174,-101.8309,35.2218,TX,Texas,AMARILLO,POTTER,South,Amarillo TX,6
79178,-101.846569,35.188332,TX,Texas,AMARILLO,POTTER,South,Amarillo TX,6
79185,-101.8309,35.2218,TX,Texas,AMARILLO,POTTER,South,Amarillo TX,6
79430,-101.8549,33.5776,TX,Texas,LUBBOCK,LUBBOCK,South,Lubbock TX,6
79457,-101.8549,33.5776,TX,Texas,LUBBOCK,LUBBOCK,South,Lubbock TX,6
79491,-101.8549,33.5776,TX,Texas,LUBBOCK,LUBBOCK,South,Lubbock TX,6
79697,-99.749905,32.430012,TX,Texas,ABILENE,TAYLOR,South,Abilene TX,6
79698,-99.735098,32.476639,TX,Texas,ABILENE,TAYLOR,South,Abilene TX,6
79699,-99.70836,32.470181,TX,Texas,ABILENE,TAYLOR,South,Abilene TX,6
79832,-103.647186,30.364066,TX,Texas,ALPINE,BREWSTER,South,,6
79958,-106.4866,31.7589,TX,Texas,EL PASO,EL PASO,South,El Paso TX,7
79960,-106.4866,31.7589,TX,Texas,EL PASO,EL PASO,South,El Paso TX,7
79961,-106.4866,31.7589,TX,Texas,EL PASO,EL PASO,South,El Paso TX,7
79968,-106.505452,31.772558,TX,Texas,EL PASO,EL PASO,South,El Paso TX,7
79976,-106.4866,31.7589,TX,Texas,EL PASO,EL PASO,South,El Paso TX,7
79978,-106.4866,31.7589,TX,Texas,EL PASO,EL PASO,South,El Paso TX,7
79980,-106.4866,31.7589,TX,Texas,EL PASO,EL PASO,South,El Paso TX,7
80165,-105.0164,39.6135,CO,Colorado,LITTLETON,ARAPAHOE,West,Denver-Aurora-Lakewood CO,7
80166,-105.0164,39.6135,CO,Colorado,LITTLETON,ARAPAHOE,West,Denver-Aurora-Lakewood CO,7
80208,-104.962855,39.680174,CO,Colorado,DENVER,DENVER,West,Denver-Aurora-Lakewood CO,7
80243,-104.9845,39.7393,CO,Colorado,DENVER,DENVER,West,Denver-Aurora-Lakewood CO,7
80244,-104.9845,39.7393,CO,Colorado,DENVER,DENVER,West,Denver-Aurora-Lakewood CO,7
80251,-104.9845,39.7393,CO,Colorado,DENVER,DENVER,West,Denver-Aurora-Lakewood CO,7
80252,-104.9845,39.7393,CO,Colorado,DENVER,DENVER,West,Denver-Aurora-Lakewood CO,7
80256,-104.9845,39.7393,CO,Colorado,DENVER,DENVER,West,Denver-Aurora-Lakewood CO,7
80257,-104.9845,39.7393,CO,Colorado,DENVER,DENVER,West,Denver-Aurora-Lakewood CO,7
80259,-104.9845,39.7393,CO,Colorado,DENVER,DENVER,West,Denver-Aurora-Lakewood CO,7
80261,-104.9845,39.7393,CO,Colorado,DENVER,DENVER,West,Denver-Aurora-Lakewood CO,7
80262,-104.93779,39.731056,CO,Colorado,DENVER,DENVER,West,Denver-Aurora-Lakewood CO,7
80263,-104.9845,39.7393,CO,Colorado,DENVER,DENVER,West,Denver-Aurora-Lakewood CO,7
80271,-104.9845,39.7393,CO,Colorado,DENVER,DENVER,West,Denver-Aurora-Lakewood CO,7
80273,-104.9845,39.7393,CO,Colorado,DENVER,DENVER,West,Denver-Aurora-Lakewood CO,7
80274,-104.9845,39.7393,CO,Colorado,DENVER,DENVER,West,Denver-Aurora-Lakewood CO,7
80281,-104.9845,39.7393,CO,Colorado,DENVER,DENVER,West,Denver-Aurora-Lakewood CO,7
80291,-104.9845,39.7393,CO,Colorado,DENVER,DENVER,West,Denver-Aurora-Lakewood CO,7
80309,-105.26727,40.005904,CO,Colorado,BOULDER,BOULDER,West,Boulder CO,7
80310,-105.2702,40.0153,CO,Colorado,BOULDER,BOULDER,West,Boulder CO,7
80314,-105.2702,40.0153,CO,Colorado,BOULDER,BOULDER,West,Boulder CO,7
80419,-105.2207,39.7559,CO,Colorado,GOLDEN,JEFFERSON,West,Denver-Aurora-Lakewood CO,7
80523,-105.087408,40.573468,CO,Colorado,FORT COLLINS,LARIMER,West,Fort Collins CO,7
80551,-104.9009,40.4777,CO,Colorado,WINDSOR,WELD,West,Greeley CO,7
80553,-105.0837,40.5855,CO,Colorado,FORT COLLINS,LARIMER,West,Fort Collins CO,7
80638,-104.7088,40.4236,CO,Colorado,GREELEY,WELD,West,Greeley CO,7
80639,-104.698733,40.406498,CO,Colorado,GREELEY,WELD,West,Greeley CO,7
80826,-103.6926,39.2695,CO,Colorado,LIMON,LINCOLN,West,,7
80941,-104.8205,38.8338,CO,Colorado,COLORADO SPRINGS,EL PASO,West,Colorado Springs CO,7
80942,-104.8205,38.8338,CO,Colorado,COLORADO SPRINGS,EL PASO,West,Colorado Springs CO,7
80943,-104.8205,38.8338,CO,Colorado,COLORADO SPRINGS,EL PASO,West,Colorado Springs CO,7
80944,-104.8205,38.8338,CO,Colorado,COLORADO SPRINGS,EL PASO,West,Colorado Springs CO,7
80945,-104.8205,38.8338,CO,Colorado,COLORADO SPRINGS,EL PASO,West,Colorado Springs CO,7
80946,-104.8205,38.8338,CO,Colorado,COLORADO SPRINGS,EL PASO,West,Colorado Springs CO,7
80947,-104.8205,38.8338,CO,Colorado,COLORADO SPRINGS,EL PASO,West,Colorado Springs CO,7
80950,-104.8205,38.8338,CO,Colorado,COLORADO SPRINGS,EL PASO,West,Colorado Springs CO,7
80977,-104.8205,38.8338,CO,Colorado,COLORADO SPRINGS,EL PASO,West,Colorado Springs CO,7
80995,-104.8205,38.8338,CO,Colorado,COLORADO SPRINGS,EL PASO,West,Colorado Springs CO,7
80997,-104.8205,38.8338,CO,Colorado,COLORADO SPRINGS,EL PASO,West,Colorado Springs CO,7
81009,-104.6086,38.2544,CO,Colorado,PUEBLO,PUEBLO,West,Pueblo CO,7
81010,-104.6086,38.2544,CO,Colorado,PUEBLO,PUEBLO,West,Pueblo CO,7
81011,-104.6086,38.2544,CO,Colorado,PUEBLO,PUEBLO,West,Pueblo CO,7
81012,-104.6086,38.2544,CO,Colorado,PUEBLO,PUEBLO,West,Pueblo CO,7
81034,-103.8559,38.1932,CO,Colorado,ORDWAY,CROWLEY,West,,7
81102,-105.879611,37.470806,CO,Colorado,ALAMOSA,ALAMOSA,West,,7
81231,-106.904312,38.552336,CO,Colorado,GUNNISON,GUNNISON,West,,7
81290,-105.1184,38.3903,CO,Colorado,FLORENCE,FREMONT,West,Caon City CO,7
82002,-104.8169,41.1335,WY,Wyoming,CHEYENNE,LARAMIE,West,Cheyenne WY,7
82006,-104.8169,41.1335,WY,Wyoming,CHEYENNE,LARAMIE,West,Cheyenne WY,7
82008,-104.8169,41.1335,WY,Wyoming,CHEYENNE,LARAMIE,West,Cheyenne WY,7
82010,-104.8169,41.1335,WY,Wyoming,CHEYENNE,LARAMIE,West,Cheyenne WY,7
83209,-112.433602,42.861458,ID,Idaho,POCATELLO,BANNOCK,West,Pocatello ID,7
83415,-112.0335,43.4667,ID,Idaho,IDAHO FALLS,BONNEVILLE,West,Idaho Falls ID,7
83441,-111.7888,43.8263,ID,Idaho,REXBURG,MADISON,West,Rexburg ID,7
83460,-111.785234,43.815638,ID,Idaho,REXBURG,MADISON,West,Rexburg ID,7
83720,-116.2025,43.6139,ID,Idaho,BOISE,ADA,West,Boise City ID,7
83722,-116.2025,43.6139,ID,Idaho,BOISE,ADA,West,Boise City ID,7
83724,-116.2025,43.6139,ID,Idaho,BOISE,ADA,West,Boise City ID,7
83725,-116.202148,43.604457,ID,Idaho,BOISE,ADA,West,Boise City ID,7
83726,-116.2025,43.6139,ID,Idaho,BOISE,ADA,West,Boise City ID,7
83728,-116.2025,43.6139,ID,Idaho,BOISE,ADA,West,Boise City ID,7
83729,-116.2025,43.6139,ID,Idaho,BOISE,ADA,West,Boise City ID,7
83731,-116.2025,43.6139,ID,Idaho,BOISE,ADA,West,Boise City ID,7
83732,-116.2025,43.6139,ID,Idaho,BOISE,ADA,West,Boise City ID,7
83735,-116.2025,43.6139,ID,Idaho,BOISE,ADA,West,Boise City ID,7
83756,-116.2025,43.6139,ID,Idaho,BOISE,ADA,West,Boise City ID,7
83844,-116.9993,46.7328,ID,Idaho,MOSCOW,LATAH,West,Moscow ID,8
84132,-111.8903,40.7606,UT,Utah,SALT LAKE CITY,SALT LAKE,West,Salt Lake City UT,7
84134,-111.8903,40.7606,UT,Utah,SALT LAKE CITY,SALT LAKE,West,Salt Lake City UT,7
84136,-111.8903,40.7606,UT,Utah,SALT LAKE CITY,SALT LAKE,West,Salt Lake City UT,7
84139,-111.8903,40.7606,UT,Utah,SALT LAKE CITY,SALT LAKE,West,Salt Lake City UT,7
84141,-111.8903,40.7606,UT,Utah,SALT LAKE CITY,SALT LAKE,West,Salt Lake City UT,7
84143,-111.8903,40.7606,UT,Utah,SALT LAKE CITY,SALT LAKE,West,Salt Lake City UT,7
84148,-111.8903,40.7606,UT,Utah,SALT LAKE CITY,SALT LAKE,West,Salt Lake City UT,7
84150,-111.8903,40.7606,UT,Utah,SALT LAKE CITY,SALT LAKE,West,Salt Lake City UT,7
84184,-111.8903,40.7606,UT,Utah,SALT LAKE CITY,SALT LAKE,West,Salt Lake City UT,7
84189,-111.8903,40.7606,UT,Utah,SALT LAKE CITY,SALT LAKE,West,Salt Lake City UT,7
84190,-111.8903,40.7606,UT,Utah,SALT LAKE CITY,SALT LAKE,West,Salt Lake City UT,7
84199,-111.8903,40.7606,UT,Utah,SALT LAKE CITY,SALT LAKE,West,Salt Lake City UT,7
84201,-111.9731,41.2234,UT,Utah,OGDEN,WEBER,West,Ogden-Clearfield UT,7
84244,-111.9731,41.2234,UT,Utah,OGDEN,WEBER,West,Ogden-Clearfield UT,7
84322,-111.810449,41.741583,UT,Utah,LOGAN,CACHE,West,Logan UT-ID,7
84407,-111.9732,41.2231,UT,Utah,OGDEN,WEBER,West,Ogden-Clearfield UT,7
84408,-111.942931,41.191988,UT,Utah,OGDEN,WEBER,West,Ogden-Clearfield UT,7
85098,-112.0732,33.4481,AZ,Arizona,PHOENIX,MARICOPA,West,Phoenix-Mesa-Scottsdale AZ,7
85287,-111.933083,33.41838,AZ,Arizona,TEMPE,MARICOPA,West,Phoenix-Mesa-Scottsdale AZ,7
85709,-111.016212,32.230328,AZ,Arizona,TUCSON,PIMA,West,Tucson AZ,7
85721,-110.950361,32.230831,AZ,Arizona,TUCSON,PIMA,West,Tucson AZ,7
85723,-110.9259,32.2217,AZ,Arizona,TUCSON,PIMA,West,Tucson AZ,7
85724,-110.9259,32.2217,AZ,Arizona,TUCSON,PIMA,West,Tucson AZ,7
85744,-110.9259,32.2217,AZ,Arizona,TUCSON,PIMA,West,Tucson AZ,7
85775,-110.9259,32.2217,AZ,Arizona,TUCSON,PIMA,West,Tucson AZ,7
86011,-111.6508,35.1984,AZ,Arizona,FLAGSTAFF,COCONINO,West,Flagstaff AZ,7
87117,-106.559,35.0565,NM,New Mexico,KIRTLAND AFB,BERNALILLO,West,Albuquerque NM,7
87131,-106.620256,35.091192,NM,New Mexico,ALBUQUERQUE,BERNALILLO,West,Albuquerque NM,7
87151,-106.651,35.084,NM,New Mexico,ALBUQUERQUE,BERNALILLO,West,Albuquerque NM,7
87158,-106.6508,35.0844,NM,New Mexico,ALBUQUERQUE,BERNALILLO,West,Albuquerque NM,7
87302,-108.7418,35.5281,NM,New Mexico,GALLUP,MCKINLEY,West,Gallup NM,7
87503,-105.9372,35.6868,NM,New Mexico,SANTA FE,SANTA FE,West,Santa Fe NM,7
87509,-105.9372,35.6868,NM,New Mexico,SANTA FE,SANTA FE,West,Santa Fe NM,7
87545,-106.3236,35.8849,NM,New Mexico,LOS ALAMOS,LOS ALAMOS,West,Los Alamos NM,7
87654,0,0,NM,New Mexico,SPACEPORT CITY,SIERRA,West,,7
88244,-103.1355,32.7052,NM,New Mexico,HOBBS,LEA,West,Hobbs NM,7
88901,-114.9835,36.04,NV,Nevada,THE LAKES,CLARK,West,Las Vegas-Henderson-Paradise NV,8
88905,-114.9835,36.04,NV,Nevada,THE LAKES,CLARK,West,Las Vegas-Henderson-Paradise NV,8
89026,-115.3231,35.7786,NV,Nevada,JEAN,CLARK,West,Las Vegas-Henderson-Paradise NV,8
89070,-115.6699,36.5698,NV,Nevada,INDIAN SPRINGS,CLARK,West,Las Vegas-Henderson-Paradise NV,8
89150,-115.1364,36.1753,NV,Nevada,LAS VEGAS,CLARK,West,Las Vegas-Henderson-Paradise NV,8
89151,-115.1364,36.1753,NV,Nevada,LAS VEGAS,CLARK,West,Las Vegas-Henderson-Paradise NV,8
89152,-115.1364,36.1753,NV,Nevada,LAS VEGAS,CLARK,West,Las Vegas-Henderson-Paradise NV,8
89153,-115.1364,36.1753,NV,Nevada,LAS VEGAS,CLARK,West,Las Vegas-Henderson-Paradise NV,8
89155,-115.1364,36.1753,NV,Nevada,LAS VEGAS,CLARK,West,Las Vegas-Henderson-Paradise NV,8
89159,-115.1364,36.1753,NV,Nevada,LAS VEGAS,CLARK,West,Las Vegas-Henderson-Paradise NV,8
89163,-115.1364,36.1753,NV,Nevada,THE LAKES,CLARK,West,Las Vegas-Henderson-Paradise NV,8
89164,-115.1364,36.1753,NV,Nevada,LAS VEGAS,CLARK,West,Las Vegas-Henderson-Paradise NV,8
89177,-115.1364,36.1753,NV,Nevada,LAS VEGAS,CLARK,West,Las Vegas-Henderson-Paradise NV,8
89195,-115.1364,36.1753,NV,Nevada,LAS VEGAS,CLARK,West,Las Vegas-Henderson-Paradise NV,8
89496,-118.7765,39.4736,NV,Nevada,FALLON,CHURCHILL,West,Fallon NV,8
89555,-119.8129,39.5297,NV,Nevada,RENO,WASHOE,West,Reno NV,8
89557,-119.8129,39.5297,NV,Nevada,RENO,WASHOE,West,Reno NV,8
89595,-119.8129,39.5297,NV,Nevada,RENO,WASHOE,West,Reno NV,8
89599,-119.8129,39.5297,NV,Nevada,RENO,WASHOE,West,Reno NV,8
89711,-119.7667,39.1637,NV,Nevada,CARSON CITY,CARSON CITY,West,Carson City NV,8
89712,-119.7667,39.1637,NV,Nevada,CARSON CITY,CARSON CITY,West,Carson City NV,8
89713,-119.7667,39.1637,NV,Nevada,CARSON CITY,CARSON CITY,West,Carson City NV,8
89714,-119.7667,39.1637,NV,Nevada,CARSON CITY,CARSON CITY,West,Carson City NV,8
90074,-118.2429,34.0522,CA,California,LOS ANGELES,LOS ANGELES,West,Los Angeles-Long Beach-Anaheim CA,8
90084,-118.4474,34.0617,CA,California,LOS ANGELES,LOS ANGELES,West,Los Angeles-Long Beach-Anaheim CA,8
90088,-118.2429,34.0522,CA,California,LOS ANGELES,LOS ANGELES,West,Los Angeles-Long Beach-Anaheim CA,8
90089,-118.288333,34.021843,CA,California,LOS ANGELES,LOS ANGELES,West,Los Angeles-Long Beach-Anaheim CA,8
90090,-118.245296,34.072662,CA,California,DODGERTOWN,LOS ANGELES,West,Los Angeles-Long Beach-Anaheim CA,8
90095,-118.443236,34.071042,CA,California,LOS ANGELES,LOS ANGELES,West,Los Angeles-Long Beach-Anaheim CA,8
90096,-118.2093,34.0765,CA,California,LOS ANGELES,LOS ANGELES,West,Los Angeles-Long Beach-Anaheim CA,8
90099,-118.2489,34.0597,CA,California,LOS ANGELES,LOS ANGELES,West,Los Angeles-Long Beach-Anaheim CA,8
90189,-118.2476,34.0583,CA,California,LOS ANGELES,LOS ANGELES,West,Los Angeles-Long Beach-Anaheim CA,8
90263,-118.707747,34.039856,CA,California,MALIBU,LOS ANGELES,West,Los Angeles-Long Beach-Anaheim CA,8
90639,-118.015356,33.906793,CA,California,LA MIRADA,LOS ANGELES,West,Los Angeles-Long Beach-Anaheim CA,8
90747,-118.257241,33.862564,CA,California,CARSON,LOS ANGELES,West,Los Angeles-Long Beach-Anaheim CA,8
90840,-118.11567,33.781929,CA,California,LONG BEACH,LOS ANGELES,West,Los Angeles-Long Beach-Anaheim CA,8
90842,-118.1886,33.7668,CA,California,LONG BEACH,LOS ANGELES,West,Los Angeles-Long Beach-Anaheim CA,8
90844,-118.1886,33.7668,CA,California,LONG BEACH,LOS ANGELES,West,Los Angeles-Long Beach-Anaheim CA,8
90846,-118.1886,33.7668,CA,California,LONG BEACH,LOS ANGELES,West,Los Angeles-Long Beach-Anaheim CA,8
90847,-118.1886,33.7668,CA,California,LONG BEACH,LOS ANGELES,West,Los Angeles-Long Beach-Anaheim CA,8
90848,-118.1886,33.7668,CA,California,LONG BEACH,LOS ANGELES,West,Los Angeles-Long Beach-Anaheim CA,8
90895,-118.218305,33.840247,CA,California,CARSON,LOS ANGELES,West,Los Angeles-Long Beach-Anaheim CA,8
90899,-118.1886,33.7668,CA,California,LONG BEACH,LOS ANGELES,West,Los Angeles-Long Beach-Anaheim CA,8
91110,-118.1436,34.1478,CA,California,PASADENA,LOS ANGELES,West,Los Angeles-Long Beach-Anaheim CA,8
91121,-118.1436,34.1478,CA,California,PASADENA,LOS ANGELES,West,Los Angeles-Long Beach-Anaheim CA,8
91123,-118.158077,34.142701,CA,California,PASADENA,LOS ANGELES,West,Los Angeles-Long Beach-Anaheim CA,8
91124,-118.1436,34.1478,CA,California,PASADENA,LOS ANGELES,West,Los Angeles-Long Beach-Anaheim CA,8
91125,-118.1436,34.1478,CA,California,PASADENA,LOS ANGELES,West,Los Angeles-Long Beach-Anaheim CA,8
91126,-118.1436,34.1478,CA,California,PASADENA,LOS ANGELES,West,Los Angeles-Long Beach-Anaheim CA,8
91129,-118.1436,34.1478,CA,California,PASADENA,LOS ANGELES,West,Los Angeles-Long Beach-Anaheim CA,8
91182,-118.1436,34.1478,CA,California,PASADENA,LOS ANGELES,West,Los Angeles-Long Beach-Anaheim CA,8
91184,-118.1436,34.1478,CA,California,PASADENA,LOS ANGELES,West,Los Angeles-Long Beach-Anaheim CA,8
91185,-118.1436,34.1478,CA,California,PASADENA,LOS ANGELES,West,Los Angeles-Long Beach-Anaheim CA,8
91188,-118.1436,34.1478,CA,California,PASADENA,LOS ANGELES,West,Los Angeles-Long Beach-Anaheim CA,8
91189,-118.1436,34.1478,CA,California,PASADENA,LOS ANGELES,West,Los Angeles-Long Beach-Anaheim CA,8
91199,-118.12,34.17,CA,California,PASADENA,LOS ANGELES,West,Los Angeles-Long Beach-Anaheim CA,8
91329,-118.5356,34.2284,CA,California,NORTHRIDGE,LOS ANGELES,West,Los Angeles-Long Beach-Anaheim CA,8
91330,-118.527303,34.242928,CA,California,NORTHRIDGE,LOS ANGELES,West,Los Angeles-Long Beach-Anaheim CA,8
91371,-118.579743,34.183567,CA,California,WOODLAND HILLS,LOS ANGELES,West,Los Angeles-Long Beach-Anaheim CA,8
91470,-118.4484,34.1869,CA,California,VAN NUYS,LOS ANGELES,West,Los Angeles-Long Beach-Anaheim CA,8
91482,-118.4484,34.1869,CA,California,VAN NUYS,LOS ANGELES,West,Los Angeles-Long Beach-Anaheim CA,8
91495,-118.4628,34.1484,CA,California,SHERMAN OAKS,LOS ANGELES,West,Los Angeles-Long Beach-Anaheim CA,8
91496,-118.4484,34.1869,CA,California,VAN NUYS,LOS ANGELES,West,Los Angeles-Long Beach-Anaheim CA,8
91499,-118.4484,34.1869,CA,California,VAN NUYS,LOS ANGELES,West,Los Angeles-Long Beach-Anaheim CA,8
91521,-118.325248,34.156888,CA,California,BURBANK,LOS ANGELES,West,Los Angeles-Long Beach-Anaheim CA,8
91522,-118.336966,34.148504,CA,California,BURBANK,LOS ANGELES,West,Los Angeles-Long Beach-Anaheim CA,8
91523,-118.333212,34.154588,CA,California,BURBANK,LOS ANGELES,West,Los Angeles-Long Beach-Anaheim CA,8
91526,-118.3083,34.1808,CA,California,BURBANK,LOS ANGELES,West,Los Angeles-Long Beach-Anaheim CA,8
91611,-118.3782,34.1722,CA,California,NORTH HOLLYWOOD,LOS ANGELES,West,Los Angeles-Long Beach-Anaheim CA,8
91612,-118.3782,34.1722,CA,California,NORTH HOLLYWOOD,LOS ANGELES,West,Los Angeles-Long Beach-Anaheim CA,8
91735,-118.0268,34.0689,CA,California,EL MONTE,LOS ANGELES,West,Los Angeles-Long Beach-Anaheim CA,8
91756,-118.1216,34.0625,CA,California,MONTEREY PARK,LOS ANGELES,West,Los Angeles-Long Beach-Anaheim CA,8
91771,-118.0716,34.0806,CA,California,ROSEMEAD,LOS ANGELES,West,Los Angeles-Long Beach-Anaheim CA,8
91772,-118.0716,34.0806,CA,California,ROSEMEAD,LOS ANGELES,West,Los Angeles-Long Beach-Anaheim CA,8
91987,-116.6269,32.5774,CA,California,TECATE,SAN DIEGO,West,San Diego-Carlsbad CA,8
92092,-117.2718,32.8455,CA,California,LA JOLLA,SAN DIEGO,West,San Diego-Carlsbad CA,8
92093,-117.2575,32.8339,CA,California,LA JOLLA,SAN DIEGO,West,San Diego-Carlsbad CA,8
92096,-117.158428,33.129327,CA,California,SAN MARCOS,SAN DIEGO,West,San Diego-Carlsbad CA,8
92132,-117.1572,32.7145,CA,California,SAN DIEGO,SAN DIEGO,West,San Diego-Carlsbad CA,8
92134,-117.147017,32.727608,CA,California,SAN DIEGO,SAN DIEGO,West,San Diego-Carlsbad CA,8
92136,-117.121421,32.675401,CA,California,SAN DIEGO,SAN DIEGO,West,San Diego-Carlsbad CA,8
92140,-117.199757,32.73703,CA,California,SAN DIEGO,SAN DIEGO,West,San Diego-Carlsbad CA,8
92145,-117.121258,32.869412,CA,California,SAN DIEGO,SAN DIEGO,West,San Diego-Carlsbad CA,8
92147,-117.1591,32.7294,CA,California,SAN DIEGO,SAN DIEGO,West,San Diego-Carlsbad CA,8
92152,-117.245454,32.701062,CA,California,SAN DIEGO,SAN DIEGO,West,San Diego-Carlsbad CA,8
92155,-117.161824,32.67532,CA,California,SAN DIEGO,SAN DIEGO,West,San Diego-Carlsbad CA,8
92158,-117.1565,32.7154,CA,California,SAN DIEGO,SAN DIEGO,West,San Diego-Carlsbad CA,8
92161,-117.1565,32.7154,CA,California,SAN DIEGO,SAN DIEGO,West,San Diego-Carlsbad CA,8
92182,-117.07366,32.77524,CA,California,SAN DIEGO,SAN DIEGO,West,San Diego-Carlsbad CA,8
92187,-117.1565,32.7154,CA,California,SAN DIEGO,SAN DIEGO,West,San Diego-Carlsbad CA,8
92350,-117.261598,34.052325,CA,California,LOMA LINDA,SAN BERNARDINO,West,Riverside-San Bernardino-Ontario CA,8
92357,-117.2603,34.0484,CA,California,LOMA LINDA,SAN BERNARDINO,West,Riverside-San Bernardino-Ontario CA,8
92415,-117.3022,34.1216,CA,California,SAN BERNARDINO,SAN BERNARDINO,West,Riverside-San Bernardino-Ontario CA,8
92418,-117.3022,34.1216,CA,California,SAN BERNARDINO,SAN BERNARDINO,West,Riverside-San Bernardino-Ontario CA,8
92521,-117.333451,33.968496,CA,California,RIVERSIDE,RIVERSIDE,West,Riverside-San Bernardino-Ontario CA,8
92522,-117.3955,33.9533,CA,California,RIVERSIDE,RIVERSIDE,West,Riverside-San Bernardino-Ontario CA,8
92599,-117.2275,33.7825,CA,California,PERRIS,RIVERSIDE,West,Riverside-San Bernardino-Ontario CA,8
92697,-117.840944,33.64732,CA,California,IRVINE,ORANGE,West,Los Angeles-Long Beach-Anaheim CA,8
92698,-117.8223,33.6695,CA,California,ALISO VIEJO,ORANGE,West,Los Angeles-Long Beach-Anaheim CA,8
92850,-117.9136,33.8355,CA,California,ANAHEIM,ORANGE,West,Los Angeles-Long Beach-Anaheim CA,8
93009,-119.2912,34.2793,CA,California,VENTURA,VENTURA,West,Oxnard-Thousand Oaks-Ventura CA,8
93042,-119.110862,34.108842,CA,California,POINT MUGU NAWC,VENTURA,West,Oxnard-Thousand Oaks-Ventura CA,8
93043,-119.207112,34.160116,CA,California,PORT HUENEME CBC BASE,VENTURA,West,Oxnard-Thousand Oaks-Ventura CA,8
93064,-118.7194,34.2316,CA,California,BRANDEIS,VENTURA,West,Oxnard-Thousand Oaks-Ventura CA,8
93099,-118.7349,34.2804,CA,California,SIMI VALLEY,VENTURA,West,Oxnard-Thousand Oaks-Ventura CA,8
93106,-119.847477,34.414418,CA,California,SANTA BARBARA,SANTA BARBARA,West,Santa Maria-Santa Barbara CA,8
93199,-119.8269,34.4356,CA,California,GOLETA,SANTA BARBARA,West,Santa Maria-Santa Barbara CA,8
93246,-119.7816,36.3008,CA,California,LEMOORE,KINGS,West,Hanford-Corcoran CA,8
93408,-120.6619,35.2807,CA,California,SAN LUIS OBISPO,SAN LUIS OBISPO,West,San Luis Obispo-Paso Robles-Arroyo Grande CA,8
93409,-120.6701,35.2839,CA,California,SAN LUIS OBISPO,SAN LUIS OBISPO,West,San Luis Obispo-Paso Robles-Arroyo Grande CA,8
93524,-117.623495,34.908988,CA,California,EDWARDS,KERN,West,Bakersfield CA,8
93599,-118.1159,34.5797,CA,California,PALMDALE,LOS ANGELES,West,Los Angeles-Long Beach-Anaheim CA,8
93724,-119.7716,36.7475,CA,California,FRESNO,FRESNO,West,Fresno CA,8
93740,-119.7988,36.8409,CA,California,FRESNO,FRESNO,West,Fresno CA,8
93741,-119.795461,36.767718,CA,California,FRESNO,FRESNO,West,Fresno CA,8
93750,-119.7716,36.7475,CA,California,FRESNO,FRESNO,West,Fresno CA,8
93760,-119.7716,36.7475,CA,California,FRESNO,FRESNO,West,Fresno CA,8
93761,-119.7716,36.7475,CA,California,FRESNO,FRESNO,West,Fresno CA,8
93764,-119.7716,36.7475,CA,California,FRESNO,FRESNO,West,Fresno CA,8
93765,-119.7716,36.7475,CA,California,FRESNO,FRESNO,West,Fresno CA,8
93786,-119.7716,36.7475,CA,California,FRESNO,FRESNO,West,Fresno CA,8
93844,-119.7716,36.7475,CA,California,FRESNO,FRESNO,West,Fresno CA,8
93888,-119.7716,36.7475,CA,California,FRESNO,FRESNO,West,Fresno CA,8
94137,-122.4186,37.7753,CA,California,SAN FRANCISCO,SAN FRANCISCO,West,San Francisco-Oakland-Hayward CA,8
94139,-122.4186,37.7753,CA,California,SAN FRANCISCO,SAN FRANCISCO,West,San Francisco-Oakland-Hayward CA,8
94143,-122.4186,37.7753,CA,California,SAN FRANCISCO,SAN FRANCISCO,West,San Francisco-Oakland-Hayward CA,8
94144,-122.4186,37.7753,CA,California,SAN FRANCISCO,SAN FRANCISCO,West,San Francisco-Oakland-Hayward CA,8
94145,-122.4186,37.7753,CA,California,SAN FRANCISCO,SAN FRANCISCO,West,San Francisco-Oakland-Hayward CA,8
94151,-122.4186,37.7753,CA,California,SAN FRANCISCO,SAN FRANCISCO,West,San Francisco-Oakland-Hayward CA,8
94160,-122.4186,37.7753,CA,California,SAN FRANCISCO,SAN FRANCISCO,West,San Francisco-Oakland-Hayward CA,8
94161,-122.4186,37.7753,CA,California,SAN FRANCISCO,SAN FRANCISCO,West,San Francisco-Oakland-Hayward CA,8
94163,-122.4186,37.7753,CA,California,SAN FRANCISCO,SAN FRANCISCO,West,San Francisco-Oakland-Hayward CA,8
94177,-122.4186,37.7753,CA,California,SAN FRANCISCO,SAN FRANCISCO,West,San Francisco-Oakland-Hayward CA,8
94203,-121.4935,38.5819,CA,California,SACRAMENTO,SACRAMENTO,West,Sacramento--Roseville--Arden-Arcade CA,8
94204,-121.4935,38.5819,CA,California,SACRAMENTO,SACRAMENTO,West,Sacramento--Roseville--Arden-Arcade CA,8
94205,-121.4935,38.5819,CA,California,SACRAMENTO,SACRAMENTO,West,Sacramento--Roseville--Arden-Arcade CA,8
94206,-121.4935,38.5819,CA,California,SACRAMENTO,SACRAMENTO,West,Sacramento--Roseville--Arden-Arcade CA,8
94207,-121.4935,38.5819,CA,California,SACRAMENTO,SACRAMENTO,West,Sacramento--Roseville--Arden-Arcade CA,8
94208,-121.4935,38.5819,CA,California,SACRAMENTO,SACRAMENTO,West,Sacramento--Roseville--Arden-Arcade CA,8
94209,-121.4935,38.5819,CA,California,SACRAMENTO,SACRAMENTO,West,Sacramento--Roseville--Arden-Arcade CA,8
94211,-121.4935,38.5819,CA,California,SACRAMENTO,SACRAMENTO,West,Sacramento--Roseville--Arden-Arcade CA,8
94229,-121.4935,38.5819,CA,California,SACRAMENTO,SACRAMENTO,West,Sacramento--Roseville--Arden-Arcade CA,8
94230,-121.4935,38.5819,CA,California,SACRAMENTO,SACRAMENTO,West,Sacramento--Roseville--Arden-Arcade CA,8
94232,-121.4935,38.5819,CA,California,SACRAMENTO,SACRAMENTO,West,Sacramento--Roseville--Arden-Arcade CA,8
94234,-121.4935,38.5819,CA,California,SACRAMENTO,SACRAMENTO,West,Sacramento--Roseville--Arden-Arcade CA,8
94235,-121.4935,38.5819,CA,California,SACRAMENTO,SACRAMENTO,West,Sacramento--Roseville--Arden-Arcade CA,8
94236,-121.4935,38.5819,CA,California,SACRAMENTO,SACRAMENTO,West,Sacramento--Roseville--Arden-Arcade CA,8
94237,-121.4935,38.5819,CA,California,SACRAMENTO,SACRAMENTO,West,Sacramento--Roseville--Arden-Arcade CA,8
94239,-121.4935,38.5819,CA,California,SACRAMENTO,SACRAMENTO,West,Sacramento--Roseville--Arden-Arcade CA,8
94240,-121.4935,38.5819,CA,California,SACRAMENTO,SACRAMENTO,West,Sacramento--Roseville--Arden-Arcade CA,8
94244,-121.4935,38.5819,CA,California,SACRAMENTO,SACRAMENTO,West,Sacramento--Roseville--Arden-Arcade CA,8
94245,-121.4935,38.5819,CA,California,SACRAMENTO,SACRAMENTO,West,Sacramento--Roseville--Arden-Arcade CA,8
94247,-121.4935,38.5819,CA,California,SACRAMENTO,SACRAMENTO,West,Sacramento--Roseville--Arden-Arcade CA,8
94248,-121.4935,38.5819,CA,California,SACRAMENTO,SACRAMENTO,West,Sacramento--Roseville--Arden-Arcade CA,8
94249,-121.4935,38.5819,CA,California,SACRAMENTO,SACRAMENTO,West,Sacramento--Roseville--Arden-Arcade CA,8
94250,-121.4935,38.5819,CA,California,SACRAMENTO,SACRAMENTO,West,Sacramento--Roseville--Arden-Arcade CA,8
94252,-121.4935,38.5819,CA,California,SACRAMENTO,SACRAMENTO,West,Sacramento--Roseville--Arden-Arcade CA,8
94254,-121.4935,38.5819,CA,California,SACRAMENTO,SACRAMENTO,West,Sacramento--Roseville--Arden-Arcade CA,8
94256,-121.4935,38.5819,CA,California,SACRAMENTO,SACRAMENTO,West,Sacramento--Roseville--Arden-Arcade CA,8
94257,-121.4935,38.5819,CA,California,SACRAMENTO,SACRAMENTO,West,Sacramento--Roseville--Arden-Arcade CA,8
94258,-121.4935,38.5819,CA,California,SACRAMENTO,SACRAMENTO,West,Sacramento--Roseville--Arden-Arcade CA,8
94259,-121.4935,38.5819,CA,California,SACRAMENTO,SACRAMENTO,West,Sacramento--Roseville--Arden-Arcade CA,8
94261,-121.4935,38.5819,CA,California,SACRAMENTO,SACRAMENTO,West,Sacramento--Roseville--Arden-Arcade CA,8
94262,-121.4935,38.5819,CA,California,SACRAMENTO,SACRAMENTO,West,Sacramento--Roseville--Arden-Arcade CA,8
94263,-121.4935,38.5819,CA,California,SACRAMENTO,SACRAMENTO,West,Sacramento--Roseville--Arden-Arcade CA,8
94267,-121.4935,38.5819,CA,California,SACRAMENTO,SACRAMENTO,West,Sacramento--Roseville--Arden-Arcade CA,8
94268,-121.4935,38.5819,CA,California,SACRAMENTO,SACRAMENTO,West,Sacramento--Roseville--Arden-Arcade CA,8
94269,-121.4935,38.5819,CA,California,SACRAMENTO,SACRAMENTO,West,Sacramento--Roseville--Arden-Arcade CA,8
94271,-121.4935,38.5819,CA,California,SACRAMENTO,SACRAMENTO,West,Sacramento--Roseville--Arden-Arcade CA,8
94273,-121.4935,38.5819,CA,California,SACRAMENTO,SACRAMENTO,West,Sacramento--Roseville--Arden-Arcade CA,8
94274,-121.4935,38.5819,CA,California,SACRAMENTO,SACRAMENTO,West,Sacramento--Roseville--Arden-Arcade CA,8
94277,-121.4935,38.5819,CA,California,SACRAMENTO,SACRAMENTO,West,Sacramento--Roseville--Arden-Arcade CA,8
94278,-121.4935,38.5819,CA,California,SACRAMENTO,SACRAMENTO,West,Sacramento--Roseville--Arden-Arcade CA,8
94279,-121.4935,38.5819,CA,California,SACRAMENTO,SACRAMENTO,West,Sacramento--Roseville--Arden-Arcade CA,8
94280,-121.4935,38.5819,CA,California,SACRAMENTO,SACRAMENTO,West,Sacramento--Roseville--Arden-Arcade CA,8
94282,-121.4935,38.5819,CA,California,SACRAMENTO,SACRAMENTO,West,Sacramento--Roseville--Arden-Arcade CA,8
94283,-121.4935,38.5819,CA,California,SACRAMENTO,SACRAMENTO,West,Sacramento--Roseville--Arden-Arcade CA,8
94284,-121.4935,38.5819,CA,California,SACRAMENTO,SACRAMENTO,West,Sacramento--Roseville--Arden-Arcade CA,8
94285,-121.4935,38.5819,CA,California,SACRAMENTO,SACRAMENTO,West,Sacramento--Roseville--Arden-Arcade CA,8
94286,-121.4935,38.5819,CA,California,SACRAMENTO,SACRAMENTO,West,Sacramento--Roseville--Arden-Arcade CA,8
94287,-121.4935,38.5819,CA,California,SACRAMENTO,SACRAMENTO,West,Sacramento--Roseville--Arden-Arcade CA,8
94288,-121.4935,38.5819,CA,California,SACRAMENTO,SACRAMENTO,West,Sacramento--Roseville--Arden-Arcade CA,8
94289,-121.4935,38.5819,CA,California,SACRAMENTO,SACRAMENTO,West,Sacramento--Roseville--Arden-Arcade CA,8
94290,-121.4935,38.5819,CA,California,SACRAMENTO,SACRAMENTO,West,Sacramento--Roseville--Arden-Arcade CA,8
94291,-121.4935,38.5819,CA,California,SACRAMENTO,SACRAMENTO,West,Sacramento--Roseville--Arden-Arcade CA,8
94293,-121.4935,38.5819,CA,California,SACRAMENTO,SACRAMENTO,West,Sacramento--Roseville--Arden-Arcade CA,8
94294,-121.4935,38.5819,CA,California,SACRAMENTO,SACRAMENTO,West,Sacramento--Roseville--Arden-Arcade CA,8
94295,-121.4935,38.5819,CA,California,SACRAMENTO,SACRAMENTO,West,Sacramento--Roseville--Arden-Arcade CA,8
94296,-121.4935,38.5819,CA,California,SACRAMENTO,SACRAMENTO,West,Sacramento--Roseville--Arden-Arcade CA,8
94297,-121.4935,38.5819,CA,California,SACRAMENTO,SACRAMENTO,West,Sacramento--Roseville--Arden-Arcade CA,8
94298,-121.4935,38.5819,CA,California,SACRAMENTO,SACRAMENTO,West,Sacramento--Roseville--Arden-Arcade CA,8
94299,-121.4935,38.5819,CA,California,SACRAMENTO,SACRAMENTO,West,Sacramento--Roseville--Arden-Arcade CA,8
94497,-122.3246,37.5633,CA,California,SAN MATEO,SAN MATEO,West,San Francisco-Oakland-Hayward CA,8
94529,-122.0302,37.9784,CA,California,CONCORD,CONTRA COSTA,West,San Francisco-Oakland-Hayward CA,8
94622,-122.2699,37.8046,CA,California,OAKLAND,ALAMEDA,West,San Francisco-Oakland-Hayward CA,8
94649,-122.2699,37.8046,CA,California,OAKLAND,ALAMEDA,West,San Francisco-Oakland-Hayward CA,8
94659,-122.2699,37.8046,CA,California,OAKLAND,ALAMEDA,West,San Francisco-Oakland-Hayward CA,8
94660,-122.2699,37.8046,CA,California,OAKLAND,ALAMEDA,West,San Francisco-Oakland-Hayward CA,8
94666,-122.2699,37.8046,CA,California,OAKLAND,ALAMEDA,West,San Francisco-Oakland-Hayward CA,8
94720,-122.25467,37.874602,CA,California,BERKELEY,ALAMEDA,West,San Francisco-Oakland-Hayward CA,8
94926,-122.7061,38.3267,CA,California,ROHNERT PARK,SONOMA,West,Santa Rosa CA,8
94998,-122.5688,38.1076,CA,California,NOVATO,MARIN,West,San Francisco-Oakland-Hayward CA,8
95053,-121.937567,37.34946,CA,California,SANTA CLARA,SANTA CLARA,West,San Jose-Sunnyvale-Santa Clara CA,8
95190,-121.8938,37.3353,CA,California,SAN JOSE,SANTA CLARA,West,San Jose-Sunnyvale-Santa Clara CA,8
95191,-121.8938,37.3353,CA,California,SAN JOSE,SANTA CLARA,West,San Jose-Sunnyvale-Santa Clara CA,8
95192,-121.88175,37.335939,CA,California,SAN JOSE,SANTA CLARA,West,San Jose-Sunnyvale-Santa Clara CA,8
95193,-121.8938,37.3353,CA,California,SAN JOSE,SANTA CLARA,West,San Jose-Sunnyvale-Santa Clara CA,8
95194,-121.8938,37.3353,CA,California,SAN JOSE,SANTA CLARA,West,San Jose-Sunnyvale-Santa Clara CA,8
95196,-121.8938,37.3353,CA,California,SAN JOSE,SANTA CLARA,West,San Jose-Sunnyvale-Santa Clara CA,8
95211,-121.312666,37.979797,CA,California,STOCKTON,SAN JOAQUIN,West,Stockton-Lodi CA,8
95296,-121.2899,37.9578,CA,California,STOCKTON,SAN JOAQUIN,West,Stockton-Lodi CA,8
95297,-121.2899,37.9578,CA,California,STOCKTON,SAN JOAQUIN,West,Stockton-Lodi CA,8
95397,-120.9958,37.6392,CA,California,MODESTO,STANISLAUS,West,Modesto CA,8
95532,-124.2009,41.7563,CA,California,CRESCENT CITY,DEL NORTE,West,Crescent City CA,8
95671,-121.1498,38.6734,CA,California,REPRESA,SACRAMENTO,West,Sacramento--Roseville--Arden-Arcade CA,8
95840,-121.4936,38.5817,CA,California,SACRAMENTO,SACRAMENTO,West,Sacramento--Roseville--Arden-Arcade CA,8
95867,-121.4936,38.5817,CA,California,SACRAMENTO,SACRAMENTO,West,Sacramento--Roseville--Arden-Arcade CA,8
95894,-121.4936,38.5817,CA,California,SACRAMENTO,SACRAMENTO,West,Sacramento--Roseville--Arden-Arcade CA,8
95929,-121.8365,39.7289,CA,California,CHICO,BUTTE,West,Chico CA,8
95976,-121.8367,39.7286,CA,California,CHICO,BUTTE,West,Chico CA,8
96840,-157.8584,21.3069,HI,Hawaii,HONOLULU,HONOLULU,West,Urban Honolulu HI,10
96841,-157.8584,21.3069,HI,Hawaii,HONOLULU,HONOLULU,West,Urban Honolulu HI,10
96843,-157.8584,21.3069,HI,Hawaii,HONOLULU,HONOLULU,West,Urban Honolulu HI,10
96844,-157.817808,21.298362,HI,Hawaii,HONOLULU,HONOLULU,West,Urban Honolulu HI,10
96846,-157.8584,21.3069,HI,Hawaii,HONOLULU,HONOLULU,West,Urban Honolulu HI,10
96847,-157.8584,21.3069,HI,Hawaii,HONOLULU,HONOLULU,West,Urban Honolulu HI,10
96848,-157.8584,21.3069,HI,Hawaii,HONOLULU,HONOLULU,West,Urban Honolulu HI,10
96849,-157.8584,21.3069,HI,Hawaii,HONOLULU,HONOLULU,West,Urban Honolulu HI,10
96939,0,0,PW,Palau,PALAU,PALAU,,,15
97077,-122.8026,45.4875,OR,Oregon,BEAVERTON,WASHINGTON,West,Portland-Vancouver-Hillsboro OR-WA,8
97256,-122.6751,45.5239,OR,Oregon,PORTLAND,MULTNOMAH,West,Portland-Vancouver-Hillsboro OR-WA,8
97310,-123.0298,44.9394,OR,Oregon,SALEM,MARION,West,Salem OR,8
97311,-123.0336,44.9431,OR,Oregon,SALEM,MARION,West,Salem OR,8
97312,-123.0336,44.9431,OR,Oregon,SALEM,MARION,West,Salem OR,8
97314,-123.0336,44.9431,OR,Oregon,SALEM,MARION,West,Salem OR,8
98129,-122.3308,47.6064,WA,Washington,SEATTLE,KING,West,Seattle-Tacoma-Bellevue WA,8
98170,-122.3308,47.6064,WA,Washington,SEATTLE,KING,West,Seattle-Tacoma-Bellevue WA,8
98181,-122.3308,47.6064,WA,Washington,SEATTLE,KING,West,Seattle-Tacoma-Bellevue WA,8
98185,-122.3308,47.6064,WA,Washington,SEATTLE,KING,West,Seattle-Tacoma-Bellevue WA,8
98189,0,0,WA,Washington,SEATTLE,KING,West,Seattle-Tacoma-Bellevue WA,8
98190,-122.3308,47.6064,WA,Washington,SEATTLE,KING,West,Seattle-Tacoma-Bellevue WA,8
98191,-122.3308,47.6064,WA,Washington,SEATTLE,KING,West,Seattle-Tacoma-Bellevue WA,8
98195,-122.300316,47.654216,WA,Washington,SEATTLE,KING,West,Seattle-Tacoma-Bellevue WA,8
98207,-122.2006,47.9793,WA,Washington,EVERETT,SNOHOMISH,West,Seattle-Tacoma-Bellevue WA,8
98278,-122.660124,48.340408,WA,Washington,OAK HARBOR,ISLAND,West,Oak Harbor WA,8
98314,-122.642484,47.55798,WA,Washington,BREMERTON,KITSAP,West,Bremerton-Silverdale WA,8
98352,-122.2395,47.2034,WA,Washington,SUMNER,PIERCE,West,Seattle-Tacoma-Bellevue WA,8
98416,-122.481656,47.26265,WA,Washington,TACOMA,PIERCE,West,Seattle-Tacoma-Bellevue WA,8
98430,-122.568539,47.119017,WA,Washington,CAMP MURRAY,PIERCE,West,Seattle-Tacoma-Bellevue WA,8
98431,-122.4432,47.2534,WA,Washington,TACOMA,PIERCE,West,Seattle-Tacoma-Bellevue WA,8
98447,-122.443748,47.145836,WA,Washington,TACOMA,PIERCE,West,Seattle-Tacoma-Bellevue WA,8
98471,-122.4432,47.2534,WA,Washington,TACOMA,PIERCE,West,Seattle-Tacoma-Bellevue WA,8
98481,-122.4432,47.2534,WA,Washington,TACOMA,PIERCE,West,Seattle-Tacoma-Bellevue WA,8
98493,-122.4432,47.2534,WA,Washington,TACOMA,PIERCE,West,Seattle-Tacoma-Bellevue WA,8
98504,-122.9007,47.0442,WA,Washington,OLYMPIA,THURSTON,West,Olympia-Tumwater WA,8
98505,-122.97249,47.067958,WA,Washington,OLYMPIA,THURSTON,West,Olympia-Tumwater WA,8
98599,-122.8995,47.0381,WA,Washington,OLYMPIA,THURSTON,West,Olympia-Tumwater WA,8
99164,-117.152132,46.726324,WA,Washington,PULLMAN,WHITMAN,West,Pullman WA,8
99251,-117.419446,47.753913,WA,Washington,SPOKANE,SPOKANE,West,Spokane-Spokane Valley WA,8
99252,-117.425,47.6588,WA,Washington,SPOKANE,SPOKANE,West,Spokane-Spokane Valley WA,8
99256,-117.425,47.6588,WA,Washington,SPOKANE,SPOKANE,West,Spokane-Spokane Valley WA,8
99258,-117.425,47.6588,WA,Washington,SPOKANE,SPOKANE,West,Spokane-Spokane Valley WA,8
99260,-117.425,47.6588,WA,Washington,SPOKANE,SPOKANE,West,Spokane-Spokane Valley WA,8
99775,-147.837761,64.860571,AK,Alaska,FAIRBANKS,FAIRBANKS NORTH STAR,West,Fairbanks AK,9
99812,-134.4,58.28,AK,Alaska,JUNEAU,JUNEAU,West,Juneau AK,9
